,Address,Cusines,Restaurant,Latitude,Longitude,Clusters
0,1 Tyrwhitt Road Singapore (207522),"American, Bar, Italian, Vegetarian Friendly",1 Tyrwhitt Bistro Bar,1.3090771,103.858211,8
1,1 Raffles Place Level 63Singapore,"Australian, Fusion, Burgers",1-Altitude,1.2829077,103.8513873,49
2,"10 Artillery Ave The Outpost Hotel, Level 7Singapore (099951)",Modern Asian,1-V:U – Restaurant and Day Club,1.2518488,103.8198682,14
3,"Grand Hyatt Singapore,10 Scotts Road,Lobby Level, Singapore (228211)","Bar, Buffet, Japanese, Seafood, British",10 SCOTTS,1.3065838,103.8331003,11
4,123A Telok Ayer Street Singapore (068592),Modern European,13% Wine Bistro @ Telok Ayer,1.2812115,103.8480053,4
5,15 Stamford Road The Capitol Kempinski Hotel Singapore (178906),Modern Asian,15 Stamford by Alvin Leung (The Capitol Kempinski Hotel Singapore),1.293891,103.8513613,16
6,9 Wallich Street Sofitel Singapore City Centre Singapore (078885),"Bar, Fusion",1864,1.2768338,103.8454143,31
7,35 Robinson Road Singapore (068876),"Bar, Modern European, Fusion",1927,1.2799728,103.8497276,4
8,1 Jalan Rajah Singapore (329133),"Buffet, Vegetarian Friendly, Local, Halal Certified",21 on Rajah,1.3269818,103.8475066,26
9,44/46 Tanjong Pagar Road Singapore (08846),"Korean, Vegetarian Friendly, BBQ",2D1N Soju Bang,1.2793185,103.8437729,31
10,176 Orchard Road#01-49The Centrepoint Singapore (238843),"Fusion, Local",49 Seats,1.3021165,103.839761,38
11,107 North Bridge Road#02-17Funan Mall Singapore (179105),"Modern European, French, Fusion, Seafood, Cafe",5 Senses Bistro (Funan Mall),1.291321,103.8500832,24
12,1 Vista Exchange Green#02-21The Star Vista Singapore (138617),"Bar, Japanese, International, Seafood",5 Senses Bistro (The Star Vista),1.3067634,103.7884236,9
13,51 Telok Ayer Street#01-01Singapore (048441),"Modern European, Modern Asian",51 Soho,1.2829964,103.8491447,4
14,566 Woodlands Road Singapore (728697),"Chinese, Seafood",566 Seafood & Beer Garden At Mandai Hill,1.408016,103.7574289,13
15,5 Fraser Street Level 38Andaz Singapore Singapore (189354),Steakhouse,665°F,1.2992107,103.8577253,16
16,23 Cuppage Road Singapore (229453),"Bar, Chinese, Seafood, Vegetarian Friendly, BBQ",6ix 6ix 六六,1.301676,103.8401411,38
17,1/A Tampines Street 92#03-02SAFRA Tampines Singapore (528882),"Bar, Fusion, Cafe",7th Heaven KTV & Cafe,1.3445675,103.9417986,15
18,1 Scotts Road#04-20/21Shaw Centre Singapore (228208),"Korean, BBQ",8 Korean BBQ (Shaw Centre),1.3062411,103.8318312,11
19,6 Eu Tong Sen Street#02-79//90The Central Singapore (059817),"Korean, BBQ",8 Korean BBQ (The Central),1.2892725,103.8463546,24
20,43 Woodlands Avenue 9SIT@RP Singapore (737729),"All-Day Breakfast, Cafe",9th ave.,1.4440819,103.7837001,19
21,333 New Bridge Road Singapore (088765),"American, Bar, Buffet, International, Seafood, All-Day Breakfast, British, Vegetarian Friendly, Local, Peranakan, Cafe",A*MUSE Social Gathering,1.2796464,103.8400603,31
22,79 Boat Quay Singapore (049867),"Bar, Japanese, Burgers, BBQ",Aburiya (Boat Quay),1.2883575,103.8492665,24
23,400 Upper Bukit Timah Road Singapore (678050),"Italian, Vegetarian Friendly",Acqua e Farina,1.3581309,103.7678974,48
24,10 Bayfront Avenue Tower 2 Lobby Marina Bay Sands Singapore (018956),American,Adrift by David Myers,1.2834492,103.8589451,49
25,24 Keong Saik Road Singapore (089131),Vegetarian,Afterglow,1.2801053,103.8416799,31
26,1A Cuscaden Road Level 4Hotel Jen Tanglin Singapore Singapore (249716),"Chinese, Seafood, Local, Peranakan, Zi Char",Ah Hoi's Kitchen,1.304358,103.82392,44
27,5 Lorong Telok Singapore (049018),"Chinese, Local",Ah Ter Teochew Fishball Noodle Bar,1.2870334,103.8487157,24
28,2 Venture Drive#02-43Vision Exchange Singapore (608526),Korean,Ahtti Korean Restaurant,1.3299165,103.7445695,3
29,30 Beach Road Level B1MJW Marriott Hotel Singapore South Beach Singapore (189763),"Japanese, Korean",Akira Back,1.2944085,103.8560531,16
30,383 Bukit Timah Road#01-02Alocassia Apartments Singapore (259727),"Italian, Seafood, Steakhouse, Vegetarian Friendly",Al Borgo @ Alocassia Apartments,1.3195254,103.8275419,44
31,"400 East Coast Road,Le Peranakan Hotel,Singapore (428996)","Italian, Vegetarian Friendly",Al Forno (East Coast) Italian Restaurant,1.3088164,103.9119891,23
32,693A East Coast Road Singapore (459058),"Bar, Italian, All-Day Breakfast, Vegetarian Friendly, Pizza",Al Forno Tapas & Wine Bar,1.3118299,103.9219039,6
33,73 Amoy Street Singapore (069892),"Seafood, Greek, Vegetarian Friendly",Alati Divine Greek Cuisine,1.2803267,103.846598,4
34,"15 Bussorah St, Singapore 199436","Middle Eastern, Vegetarian Friendly, Mediterranean",Alaturka Turkish & Mediterranean Restaurant,1.301179,103.8599691,8
35,39 Tyrwhitt Road Singapore (207538),"Buffet, Chinese, Seafood, Modern Asian",alittle tashi,1.3099981,103.8589681,8
36,2 Emerald Hill Road Peranakan Place Singapore (229287),"Bar, Local, Pizza",Alley Bar,1.3014424,103.8392721,38
37,5 Fraser Street Level 25Andaz Singapore Singapore (189354),"Buffet, Seafood, Vegetarian Friendly, Burgers, Modern Asian",Alley on 25,1.2992107,103.8577253,16
38,22 Scotts Road Goodwood Park Hotel Singapore (228221),Modern European,Alma By Juan Amador,1.3084774,103.834405,11
39,30 Victoria Street Singapore (187996),"Bar, Fusion, Vegetarian Friendly",Almost Famous Craft Beer Bar,1.2953653,103.852459,16
40,8 Raffles Avenue#01-13D Esplanade Mall Singapore (039802),"American, Bar, Fusion, Cafe",Alter Ego,1.2892364,103.8564027,12
41,76 Namly Place Singapore (267226),"Italian, Pizza",Amano,1.3243611,103.7968008,30
42,30 Robertson Quay#01-16Singapore (238251),"Bar, Japanese",Amazing Hokkaido,1.291333,103.8414166,34
43,1 Choa Chu Kang Grove Singapore (688236),International,Amber West,1.3748318,103.751726,13
44,9 Bishan Place#02-19/20/27Junction 8 Shopping Centre Singapore (579837),"Modern European, French, Italian, Spanish, Seafood, German, Cafe",Ambush-Pan European Dining (Junction 8),1.3506808,103.8487631,10
45,33 Hongkong Street Singapore (059672),"Bar, Italian, Vegetarian Friendly, Pizza",Amò,1.2874616,103.8471597,24
46,30 Victoria Street#01-13Chijmes Singapore (187996),Indian,Anglo Indian Cafe & Bar (CHIJMES),1.2951699,103.8521957,16
47,5 Straits View#01-10Marina One Singapore (018935),Indian,Anglo Indian Cafe & Bar (Marina One),1.2780388,103.8531501,49
48,1 Shenton Way#01-08Singapore (068803),Indian,Anglo Indian Cafe & Bar (Shenton Way),1.2796774,103.8506343,4
49,83 Duxton Road Singapore (089540),Chinese,Anouska's Restaurant and Bar,1.2786983,103.84319,31
50,80 Bras Basah Road Level 1Fairmont Singapore Singapore (189560),"Bar, Modern European, British, Vegetarian Friendly, Cafe, Vegetarian, Dessert Only",Anti:dote,1.293396,103.8534619,16
51,65 Serangoon Garden Way Singapore (555961),"Fusion, All-Day Breakfast, Cafe",Apollo Coffee Bar,1.3635104,103.865592,10
52,"323 Alexandra Road,Level 7Park Hotel Alexandra Singapore (159972)",Bar,Aqua Luna,1.2875458,103.8054094,27
53,109 Mount Faber Road Faber Peak Singapore Singapore (099203),Fusion,Arbora (formerly Spuds & Aprons),1.2713286,103.8194656,40
54,1 Fusionopolis View#01-02Sandcrawler Building Singapore (138577),Middle Eastern,Arkadas Cafe,1.2998378,103.7892136,9
55,60 Race Course Road Singapore (218567),"Indian, Fusion, Middle Eastern, Vegetarian Friendly",Aromas of India,1.3084757,103.8511286,8
56,1 St Andrew’s Road#06-02National Gallery Singapore (178957),Italian,Art,1.2902217,103.8515167,24
57,80 Middle Road Level 1Inter Continental Singapore Singapore (188966),Modern European,Ash & Elm,1.2983644,103.8549173,16
58,30 Victoria Street#01-23CHIJMES Singapore (187996),Japanese,Ashino,1.295092,103.852657,16
59,331 North Bridge Road#01-02 & #01-05/08 Odeon Towers Singapore (188720),"Chinese, Seafood, Dim Sum",Asia Grand Restaurant,1.2962396,103.8532832,16
60,80 Bras Basah Road Level 2Fairmont Singapore Singapore (189560),"Buffet, Malaysian, Fusion, International, Seafood, Vegetarian Friendly, Local, Southeast Asian",Asian Market Cafe,1.293396,103.8534619,16
61,6 Duke's Road Singapore (268886),"Fusion, All-Day Breakfast, Vegetarian Friendly, Cafe",Atlas Coffeehouse,1.3228827,103.811981,30
62,317 Outram Road Singapore (169075),"American, Bar, Local",Atrium Bar 317,1.2889969,103.834125,0
63,317 Outram Road Level 4Holiday Inn Singapore Atrium Singapore (169075),"Buffet, Fusion, International, Seafood, All-Day Breakfast, Vegetarian Friendly, Local, Halal Certified, Cafe",Atrium Restaurant,1.2891631,103.8342067,0
64,5 Fraser Street Level 25Andaz Singapore Singapore (189354),"Chinese, International, Vegetarian Friendly, Local",Auntie's Wok & Steam,1.2992107,103.8577253,16
65,47 Amoy Street Singapore (069873),"Bar, Modern Asian",Avenue 87,1.2804021,103.8469907,4
66,176 Orchard Road#01-33H The Centrepoint Singapore (238843),Indian,Awadh,1.3021165,103.839761,38
67,1 Seletar Road#02-02Greenwich V Singapore (807011),Cafe,Awfully Chocolate (Greenwich V),1.3873705,103.8694069,41
68,30 Robertson Quay#01-12Singapore (238251),"Buffet, Japanese",Azmaya,1.291333,103.8414166,34
69,5 Koek Road#03-24Cuppage Plaza Singapore (228796),"Buffet, Japanese, Steamboat",Azmaya Honten (Cuppage Plaza),1.3019646,103.8407001,38
70,86 East Coast Road Katong Square Singapore (428788),Modern Asian,Baba Chews Bar and Eatery,1.3047255,103.9046894,23
71,27 Lichfield Road Singapore (556847),Italian,Baci Baci,1.364913,103.8702518,36
72,22 Sam Leong Road Singapore (207913),"American, Bar, Fusion, Seafood, Vegetarian Friendly, Pizza, Burgers, Vegetarian",Bailamos Bistro Bar & Cafe,1.309362,103.8568559,8
73,3 Seng Poh Road Singapore (168891),Greek,Bakalaki Greek Taverna,1.2855878,103.8341703,0
74,1 Woodlands Square#05-05Causeway Point Singapore (738099),"Indonesian, Thai, Fusion, Halal Certified",Bali Thai (Causeway Point),1.4360933,103.7859471,19
75,2 Jurong East Street 21#01-21IMM Singapore (609601),"Indonesian, Thai, Fusion, Halal Certified",Bali Thai (IMM),1.3348154,103.7468395,3
76,23 Serangoon Central#02-13NEX Singapore (556083),"Indonesian, Thai, Fusion, Halal Certified",Bali Thai (NEX),1.3507723,103.8722585,36
77,391A Orchard Road#05-29 Ngee Ann City Podium Block Singapore (238873),"Indonesian, Thai, Fusion, Halal Certified",Bali Thai (Ngee Ann City),1.3025572,103.834568,11
78,3 Temasek Boulevard#B1-121A/121B Suntec City Singapore (038983),"Indonesian, Thai, Fusion, Halal Certified",Bali Thai (Suntec City),1.29503,103.8583026,12
79,83 Punggol Central#B1-13Waterway Point Singapore (828761),"Indonesian, Thai, Fusion, Halal Certified",Bali Thai (Waterway Point),1.40669,103.9021738,1
80,38-40 Tras Street Singapore (078977),"Spanish, Vegetarian Friendly",BAM! Restaurant,1.2783924,103.8443423,31
81,80 Marine Parade Road#03-01/02A Parkway Parade Singapore (449269),Indian,The Banana Leaf Apolo (Parkway Parade),1.3013366,103.9052333,23
82,1 Jelebu Road#02-18Singapore (677743),Thai,Bangkok Jam (Bukit Panjang Plaza),1.3799623,103.7643089,13
83,1 Kim Seng Promenade#02-127Great World City Singapore (237994),"Thai, Fusion",Bangkok Jam (Great World City),1.2926499,103.8322968,0
84,6 Raffles Boulevard#02-105B/C Marina Square Singapore (039594),Thai,Bangkok Jam (Marina Square),1.2911534,103.8576778,12
85,68 Orchard Road#03-85Plaza Singapura Singapore (238839),Thai,Bangkok Jam (Plaza Singapura),1.3005317,103.8452356,38
86,4 Jiak Chuan Road Singapore (089261),"Bar, Cafe",Bao Makers,1.2796626,103.841782,31
87,879 Bukit Timah Road Singapore (279892),"American, Bar, Indian, Vegetarian Friendly, Southeast Asian, Pizza, Burgers",Bar Bar Black Sheep (Bukit Timah),1.332671,103.79114,17
88,86 Robertson Quay#01-04Robertson Blue Singapore,"American, Bar, Indian, Vegetarian Friendly, Local, Southeast Asian, Burgers, BBQ",Bar Bar Black Sheep (Robertson Quay),1.2900394,103.8373405,34
89,3 Temasek Boulevard#01-602Suntec City Tower 4Singapore (038983),"Bar, Chinese, BBQ",Bar Bar Q,1.29503,103.8583026,12
90,270 Orchard Road Grand Park Orchard Singapore (238857),Bar,Bar Canary,1.3035171,103.836278,11
91,2 Stamford Road Level 70Swissotel the Stamford Singapore (178882),Bar,Bar Rouge,1.2932771,103.8535076,16
92,48 Prinsep Street#01-01/#02-01Singapore (188675),"Bar, Chinese, Malaysian, Seafood, Local, Peranakan, Zi Char, BBQ",Bar-beque,1.2996611,103.8497482,45
93,165 Tanjong Pagar#01-00Singapore (088539),"Bar, Modern European, French",Bar-Roque Grill,1.2750316,103.8435506,31
94,1 Harbour Front Walk#01-161/162Vivo City Singapore (098585),"Bar, Australian, Steakhouse, Burgers",Barossa Bar & Grill (VivoCity),1.2647884,103.822894,40
95,8 Raffles Avenue#01-11Esplanade Mall Singapore (039802),"Bar, Australian, International, Pizza, Burgers",Barossa Gastrobar (Esplanade),1.2899102,103.8564376,12
96,21 Duxton Hill Singapore (089604),"Bar, Spanish, Fusion",Bar·Celona,1.278527,103.8425029,31
97,920 East Coast Parkway#01-20 to 24Parkland Green Singapore (449875),"Thai, Fusion, Vegetarian Friendly, Burgers, BBQ",Basil & Thyme,1.298860,103.905823,23
98,1 Cuscaden Road Level 2Regent Singapore Singapore (249715),"Italian, Vegetarian Friendly",Basilico,1.3046549,103.8249313,44
99,97 Amoy Street Singapore (069917),"Spanish, Vegetarian Friendly",Basque Kitchen by Aitor,1.281337,103.847328,4
100,3A River Valley Road#01-05Singapore (179020),Indonesian,Bayang,1.295877,103.8397203,38
101,2 Keppel Bay Vista Marina At Keppel Bay Singapore (098382),"Bar, Fusion, Seafood",Bayswater Kitchen,1.2640448,103.8125054,40
102,30 Beach Road JW Marriott Singapore South Beach Singapore (189763),"Buffet, International, Seafood, Local",Beach Road Kitchen,1.2944085,103.8560531,16
103,6 Raffles Boulevard#01-01/02/03Marina Square Singapore (039594),"Bar, Italian",The Beacon,1.2924739,103.8565218,12
104,8 Craig Road Singapore (089668),"Australian, Cafe",Bearded Bella,1.2776408,103.8428254,31
105,90 Robertson Quay Singapore (238259),"Bar, Modern European, Fusion, Modern Asian",Beast & Butterflies,1.2908075,103.8372952,34
106,17 Jalan Klapa Singapore (199329),"American, Bar, All-Day Breakfast, Cajun",The Beast,1.3042819,103.8596373,8
107,1359 Serangoon Road Singapore (328241),Fusion,Bee Cheng Hiang Grillery,1.3270219,103.8672731,37
108,50 Cluny Park Road Singapore (257488),"Vegetarian Friendly, Cafe, Pizza",Bee's Knees,1.3189836,103.8155834,30
109,25 Church Street#01-07Capital Square Singapore (049482),"American, Bar, Indian, Fusion, Middle Eastern, Vegetarian Friendly",Beer Factory,1.2840326,103.8484637,4
110,72 Bussorah Street Singapore (199485),"Middle Eastern, Vegetarian Friendly",Beirut Grill,1.3009011,103.8599624,8
111,30 Robertson Quay#01-09Riverside View Singapore (238251),Italian,Bella Pasta,1.291109,103.8411025,34
112,30 Robertson Quay#01-14Riverside View Singapore (238251),"Italian, Pizza",Bella Pizza,1.291109,103.8411025,34
113,135 Jurong Gateway Road#02-337Singapore (600135),Chinese,Beng Hiang Restaurant,1.3338882,103.7404073,3
114,39 Neil Road Singapore (088823),"Fusion, International, Local",Beng Who Cooks,1.279815,103.842894,31
115,583 Orchard Road#01-20/21Forum The Shopping Mall Singapore (238884),All-Day Breakfast,Benjamin Browns,1.3061111,103.8286111,44
116,3 Pickering Street# 01-32/33China Square Central Nankin Row Singapore (048660),Japanese,Beppu Menkan Restaurant,1.2841124,103.847422,4
117,23 Bukit Pasoh Road Singapore (089837),"Modern European, Modern Asian",Beurre,1.279057,103.840518,31
118,181 South Bridge Road#01-04/K3Capri by Fraser Cross Street Exchange Singapore (058743),"Bar, Chinese, Malaysian, Local, Southeast Asian, Cafe, BBQ",BigBrand Satay,1.2835222,103.8469123,4
119,511 Guillemard Road#B1-02/09Grandlink Square Singapore (399849),"Indonesian, Malaysian, Seafood, Local, Southeast Asian, Peranakan, Halal Certified, Modern Asian",Bijan Restaurant,1.3142609,103.8914534,42
120,78 Moh Guan Terrace#01-19Singapore (162078),Japanese,Bincho at Hua Bee,1.2835735,103.8303734,0
121,7A/B Dempsey Road Singapore (249684),Japanese,Bincho at Min Jiang,1.304606,103.8089925,20
122,"20 Craig Road #01-02,Singapore (089692)",Spanish,Binomio,1.2780894,103.8423217,31
123,115 Amoy Street#01-01Singapore (069935),"Bar, Modern European, Chinese, Fusion, Cafe",Birds of a Feather,1.282141,103.847711,4
124,14 Scotts Road#02-59Far East Plaza Singapore (228213),"Japanese, Fusion, Steakhouse, Cafe, Burgers",Biseryu Japanese Restaurant,1.3070854,103.8333034,11
125,7 Fraser Street#01-25/26Duo Galleria Singapore (189356),"Modern European, Modern Asian",Bistro @ Duo,1.2995009,103.8585953,16
126,9 Raffles Blvd#01-79/80Millenia Walk Singapore (039596),"Modern European, French",Bistro G,1.292888,103.8597786,12
127,"61 Pasir Ris Green Pasir Ris Park, Carpark C Singapore (518225)","American, Italian, Vegetarian Friendly, Cafe, Pizza",Bistro Neigh,1.379718,103.94848,47
128,11-15 Jalan Klapa Singapore (199323),"Bar, Fusion, Seafood, Steakhouse, Local, Cafe, Pizza, BBQ, Vegetarian",Bistro XY,1.304325,103.859722,8
129,1 Tanglin Road#01-08Orchard Rendezvous Hotel Singapore (247905),"American, Steakhouse, South American, Burgers, BBQ",Black Angus Steakhouse,1.3065228,103.827668,44
130,118 Holland Avenue#02-01Singapore (278997),"Seafood, Steakhouse, Cafe, Burgers, BBQ",Black Marble,1.3105313,103.7961337,9
131,85 Upper East Coast Road Singapore (455222),"American, Modern European, French, Australian, Fusion, International, Seafood, Steakhouse, Vegetarian Friendly, Modern Asian",Black Pearl Steakhouse,1.3133976,103.9277362,6
132,10 Dempsey Road#01-21Singapore (247700),Greek,Blu Kouzina,1.3033906,103.8104867,20
133,10 Farrer Park Station Road Level 5Park Hotel Farrer Park Singapore (217564),"Thai, Vegetarian Friendly",Blue Jasmine,1.3120943,103.8547668,8
134,31 Ocean Way#01-13Quayside Isle Singapore (098375),"Chinese, Vegetarian Friendly",Blue Lotus Chinese Eating House,1.246831,103.8421169,29
135,Block 1202 East Coast Parkway#01-03East Coast Seafood Centre Singapore (449881),"Chinese, Seafood, Southeast Asian, Steamboat, Zi Char, BBQ",Blue Pier,1.305063,103.929647,6
136,5 Changi Business Park Central 1#01-72/73Changi City Point Singapore (486038),"Bar, Cafe, Pizza",BLVD @ Changi,1.334638,103.9623868,35
137,8 Marina Boulevard#01-02Marina Bay Financial Centre Tower 1Singapore (018981),"Bar, Fusion, Burgers",BLVD @ MBFC,1.2798897,103.8548685,49
138,11 Cove Drive#01-01ONE15 Marina Sentosa Cove Singapore (098497),"Bar, Burgers, BBQ",Boaters' Bar,1.24562,103.8398371,29
139,1 The Knolls Sentosa Island Singapore (098297),Bar,Bob's Bar,1.249141,103.8248866,14
140,115 Amoy Street#01-02Singapore (069935),"Bar, Modern European, Steakhouse, South American",boCHINche,1.2821776,103.8477473,4
141,70 Biopolis Street#01-05Singapore (138547),"Bar, Fusion, Cafe",Bodacious,1.3029085,103.7920137,9
142,8 Raffles Avenue01-13A Esplanade Mall Singapore (039802),"Seafood, South American, Cajun",The Boiler (Esplanade),1.2896635,103.8564438,12
143,18 Howard Road#01-06Novelty Bizcentre Singapore (369585),"Seafood, South American, Cajun",The Boiler (Howard Road),1.3341869,103.885778,2
144,6 Sentosa Gateway#01-05Sentosa Boardwalk Singapore (098072),"Indian, International",Bones 'n Barrels (Sentosa),1.260007,103.823374,40
145,3 Temasek Boulevard#01-641/642Suntec City Singapore (038983),"Korean, BBQ",Bornga (Suntec City),1.29503,103.8583026,12
146,1 Harbourfront Walk#02-123/124Vivocity Singapore (098585),"Korean, BBQ",Bornga (VivoCity),1.2644032,103.8222071,40
147,25 Lorong Mambong Singapore (277684),"Bar, Pizza",Boss Bistro & Bar,1.3114942,103.7945688,9
148,36-37 Pekin Street#01-01Far East Square Singapore (048766),Japanese,Botan Japanese Restaurant,1.2836894,103.8482793,4
149,50 Cluny Park Road The Garage Singapore Botanic Gardens Singapore (257488),"Bar, Modern European",Botanico at The Garage,1.3188018,103.8155363,30
150,28 Kandahar Street Singapore (198889),Japanese,Box n Sticks,1.302176,103.859796,8
151,52 Boat Quay Level 5Singapore (049841),"Italian, Vegetarian Friendly",Braci,1.2870832,103.8493468,24
152,29 Tanglin Road Lobby Level The St. Regis Singapore Singapore (247911),"French, Vegetarian Friendly",Brasserie Les Saveurs (The St. Regis Singapore),1.3055457,103.8260886,44
153,101 Thomson Road B1-13/14United Square Singapore,"Bar, German",Brauhaus Restaurant & Pub,1.3172768,103.8436682,26
154,2 Stadium Walk#01-06/07Singapore Indoor Stadium Singapore (397691),"Bar, Modern Asian",Brewerkz Indoor Stadium,1.2999798,103.8743317,37
155,1 Fullerton Road#01-01Singapore (049213),"Bar, Modern Asian",Brewerkz One Fullerton,1.2856406,103.8539179,49
156,1 Tanglin Road#01-02Orchard Rendezvous Hotel Singapore (247905),"Bar, Modern Asian",Brewerkz Orchard Rendezvous Hotel,1.3065228,103.827668,44
157,30 Merchant Road#01-07Riverside Point Singapore (058282),"Bar, Modern Asian",Brewerkz Riverside Point,1.2894761,103.8441414,34
158,13 Stamford Road#01-84B Arcade @ The Capitol Kempinski Singapore (178905),"American, Cafe",Broadway American Diner,1.2929876,103.8511619,16
159,126 East Coast Road Singapore (428811),"Bar, German",Brotzeit Katong,1.3059001,103.9051352,23
160,252 North Bridge Road#01-17Raffles City Shopping Centre Singapore (179103),"Bar, German",Brotzeit Raffles City,1.2937585,103.8534331,16
161,1 Harbourfront Walk#01-149Vivo City Singapore (098585),"Bar, German",Brotzeit VivoCity,1.2634018,103.8220077,40
162,3 Gateway Drive#01-04Westgate Singapore (608532),"Bar, German",Brotzeit Westgate,1.3345013,103.7426077,3
163,163 Tanglin Road#01-35Tanglin Mall Singapore (247933),"American, Italian, Seafood, Steakhouse, All-Day Breakfast, Vegetarian Friendly, Cafe",Brunetti,1.3048533,103.8236186,44
164,5 Duxton Hill Singapore (089591),"Bar, Modern European, French, German",BTM Mussels & Bar,1.2792538,103.8429506,31
165,81 Anson Road M Hotel Singapore (079908),"Buffet, International, Seafood, Vegetarian Friendly, Steamboat",The Buffet at M Hotel,1.273767,103.8450399,31
166,126 Tanjong Pagar Road Singapore (088534),Italian,Buko Nero,1.2775949,103.8435176,31
167,29 Scotts Road Singapore (228224),Italian,Buona Terra,1.3106807,103.8346232,11
168,2 Kung Chong Road#04-01Singapore (159140),"Italian, Cafe",Burlamacco Cafe & Pizzeria,1.28988,103.812957,27
169,30 Stanley Street Singapore (068739),"Italian, Vegetarian Friendly",Burlamacco Ristorante (Stanley Street),1.280995,103.848373,4
170,217 East Coast Road#01-01Singapore (428915),Italian,Burlamacco Ristorante @ East Coast,1.3075174,103.9069751,23
171,31 Keong Saik Road Singapore (089138),"Bar, Steakhouse, Modern Asian",Butcher Boy,1.2800213,103.8414866,31
172,328 North Bridge Road#02-02 to #02-07Raffles Arcade Singapore (188719)(Accessible via North Bridge Road entrance),Steakhouse,Butcher's Block (Raffles Hotel),1.2955861,103.8540165,16
173,19 Yong Siak Street Singapore (168650),Modern European,The Butcher's Wife,1.2827623,103.8301826,0
174,451 Joo Chiat Road#01-01Katong Point Singapore (427664),Indian,Butter & Spice,1.3068949,103.9043852,23
175,14 Bussorah Street Singapore (199435),"Middle Eastern, Vegetarian Friendly",Byblos Grill,1.3011937,103.8600438,8
176,333A Orchard Road#02-37Mandarin Gallery Singapore (238897),"Japanese, French",béni Singapore,1.3017091,103.8369254,38
177,"80 South Bridge Road, #01-01Singapore (058710)","Japanese, Fusion",Bōruto,1.2869337,103.8477798,24
178,313 Orchard Road#B1-37313@somerset Singapore (238895),"Korean, Cafe",Cafe de Paris,1.300898,103.838361,38
179,70 Collyer Quay#01-05Customs House Singapore (049323),"Modern European, Italian",Caffe Fernet,1.2824913,103.8534753,49
180,64 Club Street Singapore (069438),"Bar, Japanese, Italian, Vegetarian Friendly",Caffé B,1.2816083,103.846037,4
181,81 Anson Road M Hotel Singapore (079908),"Buffet, International, Seafood, Vegetarian Friendly",Café 2000,1.273767,103.8450399,31
182,30 Merchant Road#01-03Riverside Point Singapore (058282),"Bar, Vegetarian Friendly, Mexican",Café Iguana,1.289041,103.8445709,24
183,76 Bras Basah Road Carlton Hotel Singapore (189558),"International, Vegetarian Friendly, Local",Cafe Mosaic,1.2960301,103.8527419,16
184,68 Orchard Road#03-92Plaza Singapura Singapore (238839),"American, Cajun, Halal Certified",Cajun on Wheels (Plaza Singapura),1.3005317,103.8452356,38
185,"2 Finlayson Green Level 2, Ascott Raffles Place Singapore Singapore (049247)","American, Bar, Modern European, Italian, International, Southeast Asian","Cali, Ascott Raffles Place",1.2820375,103.85158,49
186,"31 Rochester Drive#01-01/02Cali, Park Avenue Rochester Hotel Singapore (138637)","American, Bar, Italian, International, Modern Asian","Cali, Park Avenue Rochester Hotel",1.3049379,103.7888898,9
187,22 Camden Park Hollandse Club Singapore (299814),"American, Italian, Fusion, British, Vegetarian Friendly, Local, Cafe, Pizza, Burgers",Camden Hill Restaurant & Bar,1.3298023,103.8164134,30
188,22 Camden Park Singapore (299814),Burgers,Camden Hill Restaurant & Bar (Delivery),1.3300674,103.8163733,30
189,20 Eastwood Road#01-14B Eastwood Centre Singapore (486442),Fusion,Camino House,1.3216364,103.9556659,35
190,Block 17A Dempsey Road Singapore (249676),"Vegetarian Friendly, Southeast Asian, Peranakan",Candlenut,1.3059001,103.8101446,20
191,1382 Ang Mo Kio Ave 1Bishan Park 2Singapore (569931),"American, Fusion",Canopy Bishan,1.3623857,103.8473062,10
192,33 Hyderabad Road #01-01Hort Park Singapore (119578),"Modern European, All-Day Breakfast, Vegetarian Friendly, Cafe, Pizza, Burgers",Canopy HortPark,1.2787362,103.8018322,27
193,80 Stamford Road#B1-61SMU School of Information Systems Singapore (178902),"Cafe, Burgers",Canteen Bistro,1.2975488,103.8494183,45
194,3 Binjai Park Singapore (589819),Italian,Capri Trattoria & Pizzeria,1.3357096,103.7865354,17
195,112 Middle Road#01-00Midland House Singapore (188970),"Fusion, Seafood, Modern Asian",Captain K Seafood Tower,1.2990794,103.8537523,45
196,30 Victoria Street#01-32CHIJMES Singapore (187996),"Buffet, Steakhouse, South American, BBQ",Carnivore Brazilian Churrascaria (CHIJMES),1.2951699,103.8521957,16
197,75E Loewen Road Singapore (248845),"Australian, Vegetarian Friendly, Cafe",Carrotsticks & Cravings (Dempsey),1.3020448,103.8129476,20
198,7 Rodyk Street#01-34Singapore (238215),"Australian, All-Day Breakfast, Cafe",Carrotsticks & Cravings (Robertson Quay),1.2904731,103.8382463,34
199,"791 Bukit Timah Road #01-01,Singapore (269764)",Italian,Caruso Ristorante,1.3310862,103.7960996,17
200,323 Alexandra Road Level 7Park Hotel Alexandra Singapore (159972),"Buffet, Modern European, Vegetarian Friendly",The Carvery,1.2875458,103.8054094,27
201,200 Turf Club Road#01-09The Grandstand Singapore (287994),"Modern European, Italian",Casa Roma Ristorante Italiano,1.3380084,103.7934418,17
202,6 Mohamed Sultan Road Singapore (238956),"Italian, Vegetarian Friendly",Casa Tartufo,1.2939978,103.8418827,34
203,1 Cluny Road Singapore Botanic Gardens Singapore (259569),"Italian, Vegetarian Friendly, Pizza",Casa Verde,1.3138397,103.8159136,20
204,101 Siloso Road Dine On 3 at Level 3Shangri-La's Rasa Sentosa Resort & Spa Singapore (098970),"Indian, Southeast Asian",Casserole,1.2577323,103.8097962,40
205,"1 The Knolls Capella Hotel, Sentosa Singapore (098297)",Chinese,Cassia,1.2497222,103.8241667,14
206,12 Ann Siang Road Singapore (069692),"American, Bar",Catchfly,1.2813466,103.8454791,4
207,5 Gemmill Lane#01-01Singapore (069261),"Bar, Fusion, Seafood",Catfish,1.2824539,103.8472139,4
208,1 Jalan Dusun#01-10One Dusun Residences Singapore (329363),"Modern European, French, Steakhouse",Cavemen Restaurant & Bar,1.3270103,103.8438153,26
209,1 Magazine Road#01-01Central Mall Singapore (059567),"American, Bar, Fusion, Cafe",Central Perk (F.R.I.E.N.D.S Cafe),1.2884642,103.8420429,34
210,71 Loewen Road#01-01Singapore (248847),Korean,Chang Korean BBQ,1.3019405,103.8116485,20
211,103 Irrawaddy Road#01-05Royal Square@Novena Square Singapore (329566),"Bar, Japanese",Chao Chao Gyoza,1.3206799,103.843035,26
212,195 East Coast Road Singapore (428900),"Chinese, Steamboat",Chao Niu Hot Pot,1.3071625,103.9065279,23
213,232 Tanjong Katong Road Singapore (437020),"Bar, BBQ",ChaoTa,1.306873,103.895427,42
214,55 Tiong Bahru Road#01-37Singapore (160055),"Bar, Italian, Pizza",Chapter 55,1.2841889,103.8343848,0
215,363 Jalan Besar Singapore (208994),"Chinese, Local",Char,1.3126815,103.8595126,8
216,32 Boat Quay Singapore (049821),Spanish,Charlie's Restaurant & Bar,1.2861956,103.8498069,24
217,"333 Orchard Road Level 5,Mandarin Orchard Hotel Singapore Singapore (238867)","Chinese, Vegetarian Friendly, Local",Chatterbox,1.3022281,103.8360357,38
218,21 Boon Tat Street Singapore (069620),"Australian, Vegetarian Friendly",Cheek Bistro,1.2814005,103.8485518,4
219,61 Tras Street Singapore (079000),"Modern European, French, Fusion, Vegetarian Friendly",Chef's Table by Chef Stephan,1.2778263,103.8444436,31
220,6A Shenton Way#02-29Downtown Gallery Singapore (068815),Chinese,Chen's Mapo Tofu (Delivery),1.2780123,103.8491846,4
221,74 Amoy Street Singapore (069893),"Chinese, Fusion, Vegetarian Friendly, Zi Char",Chengdu 成都,1.2803451,103.84671,4
222,5 Raffles Avenue Marina Square The Mandarin Oriental Singapore (039797),"Chinese, Dim Sum",Cherry Garden,1.2908185,103.8582972,12
223,1 Equestrian Walk Singapore Turf Club Riding Centre Singapore (737863),"Seafood, Vegetarian Friendly, Cafe",Cheval Cafe Bar Bistro,1.4281561,103.7674694,19
224,2 Bukit Batok West Avenue 7#01-09B Hometeam NS Clubhouse Singapore (659003),Chinese,Cheval Chi Bao,1.365836,103.7497711,48
225,92 Amoy Street#01-01Singapore (069911),"Japanese, Fusion, Modern Asian",CHICHI,1.2812468,103.8471076,4
226,277C Compassvale Link Singapore (543277),Korean,Chicken Up (Buangkok),1.3823625,103.8940316,33
227,48 Tanjong Pagar Road#01-01Singapore (088469),Korean,Chicken Up (Tanjong Pagar),1.2792556,103.8437694,31
228,102 Amoy Street Singapore (069922),"Bar, International, Mexican",Chico Loco,1.2816162,103.8474079,4
229,1 Fusionopolis Place#02-03Galaxis Singapore (138522),Indian,CHILLAS Indian Restaurant,1.3004512,103.7871501,9
230,1 Marina Boulevard#01-01Singapore (018989),Mexican,Chimi's,1.2822004,103.8526513,49
231,36 Dunlop Street Singapore (209364),Mexican,Chimichanga,1.3048329,103.8539107,8
232,2 Bayfront Avenue B1-15The Shoppes at Marina Bay Sands Singapore (018972),"Modern European, Chinese, Fusion, Modern Asian",Chinoiserie,1.2788703,103.8570997,49
233,"Blk 4 Changi Village Road #01-2090,Singapore (500004)","Fusion, Cafe",Chock Full of Beans,1.388892,103.987688,7
234,18 Mosque Street Singapore (059498),"Buffet, Chinese, Seafood",Chong Qing Grilled Fish (Chinatown),1.2838539,103.844558,4
235,10 Dempsey Road#01-23Singapore (247700),"Chinese, International, Seafood, Vegetarian Friendly, Local, Dim Sum, Southeast Asian, Modern Asian",Chopsuey Cafe Dempsey,1.3033906,103.8104867,20
236,607 Bukit Timah Road#01-01Singapore (269708),"French, All-Day Breakfast, Cafe",Choupinette,1.324379,103.8094803,30
237,51 Telok Ayer Street#01-01Singapore (048441),Chinese,Chuan Hung,1.2829964,103.8491447,4
238,2 Tanjong Katong Road#01-09PLQ 3 Paya Lebar Quarter Singapore (437161),"Bar, Japanese, Korean",Chug Chug (PLQ),1.316081,103.8935549,42
239,114 Tanjong Pagar Road Singapore (088529),"Bar, Fusion, Burgers",Chug Chug Singapore,1.2779286,103.8435039,31
240,"190 Keng Lee Road #01-02,Chui Huay Lim Club Singapore (308409)","Chinese, Zi Char",Chui Huay Lim Teochew Cuisine,1.3137597,103.8415269,26
241,42 Mosque Street Singapore (059520),"Chinese, Seafood, Vegetarian Friendly",Chunqiu Restaurant,1.2839793,103.8446732,4
242,719 East Coast Road Singapore (459069),"Indian, Vegetarian Friendly, Cafe",Chutney Mary (East Coast),1.3122748,103.9228582,6
243,Block 31 Tampines Avenue 1Level 3Temasek Culinary Academy Temasek Polytechnic Singapore (529757),"American, French, International",CIA ToP Table,1.3451847,103.9318122,15
244,428 River Valley Road Singapore (248327),"Bar, Italian, Vegetarian Friendly",Cibo Italiano,1.2945058,103.8276315,0
245,3 River Valley Road #01-10 Clarke Quay Block C Singapore (179022),"Fusion, Local, Cafe",Cicada Singapore,1.2906024,103.8464742,24
246,100 Peck Seah Street#01-02Oasia Hotel Downtown Singapore (079333),"Bar, Vegetarian Friendly",CIN CIN,1.275835,103.8442824,31
247,57 Anchorvale Road#01-01Sengkang Sports Centre Singapore (544964),"Fusion, Halal Certified, Cafe",Citrus Bistro,1.3964799,103.8868403,41
248,3 Woodlands Street 13#3-3A Woodlands Swimming Complex Singapore (738600),"Fusion, Halal Certified, Cafe",Citrus By The Pool,1.434622,103.779376,19
249,7 Wallich Street#B1-04/05Guocco Tower Singapore (078884),"Chinese, Seafood, Local, Steamboat",City Hot Pot Shabu Shabu (Guoco Tower),1.2770512,103.8455475,31
250,1 Raffles Place#04-26/27/28One Raffles Place Singapore (048616),"Chinese, Vegetarian Friendly, Local, Steamboat",City Hot Pot Shabu Shabu (Raffles Place),1.284177,103.851063,49
251,31 Bukit Pasoh Road Singapore (089845),Cafe,Clan Cafe,1.279295,103.840375,31
252,2 Bukit Manis Road Sofitel Singapore Sentosa Resort & Spa Singapore (099891),"Italian, Vegetarian Friendly",the Cliff (Sofitel Sentosa),1.2456916,103.8278754,14
253,80 Collyer Quay Lobby Level The Fullerton Bay Hotel Singapore (049326),"Chinese, Malaysian, Local",The Clifford Pier,1.2832383,103.8536272,49
254,31 Purvis Street Singapore (188608),"American, All-Day Breakfast, Cafe",Clinton Street Baking Company,1.2963027,103.855095,16
255,84 Amoy Street Singapore (069903),"Australian, Vegetarian Friendly",Cloudstreet,1.2807673,103.8469772,4
256,2 Stamford Road Level 2Swissotel The Stamford Singapore (178882),"American, Bar, Modern European, Fusion, International, Vegetarian Friendly, Cafe, Burgers, Vegetarian, Dessert Only",Clove,1.2932771,103.8535076,16
257,50 Siloso Beach Walk#01-06Singapore (099000),"Bar, Seafood",Coastes,1.252495,103.816038,14
258,5 Stadium Walk#02-01Singapore (397693),"Buffet, Chinese, Thai, Seafood, Local, Steamboat",COCA at Kallang Leisure Park,1.3021918,103.876502,37
259,3 Temasek Boulevard#02-440Suntec City Mall Singapore (038983),"Buffet, Chinese, Thai, Local, Steamboat",COCA at Suntec,1.2953376,103.8581418,12
260,"391B Orchard Road #04-23,Ngee Ann City Singapore (238874)","Buffet, Chinese, Thai, Seafood, Local, Steamboat",COCA at Takashimaya,1.3025572,103.834568,11
261,1 Unity Street Level 2Park Hotel Clarke Quay Singapore (237983),"Bar, Buffet, International, Local",Cocobolo Poolside Bar + Grill,1.2914332,103.8423842,34
262,28 Ann Siang Road Singapore (069708),"Malaysian, Local, Southeast Asian",The Coconut Club,1.2807255,103.8457872,4
263,252 North Bridge Road#B1-12Raffles City Shopping Centre Singapore (179103),"All-Day Breakfast, Cafe, Pizza, Burgers",The Coffee Academics (Raffles City),1.2936888,103.8539365,16
264,6 Scotts Road#02-01/#02-02Scotts Square Singapore (228209),"All-Day Breakfast, Cafe, Burgers",The Coffee Academics (Scotts Square),1.3058788,103.8329554,11
265,5 Coleman Street5F Peninsula Excelsior Hotel Singapore (179805),"Buffet, International, Local, Cafe",Coleman's Cafe,1.2921301,103.8499727,24
266,6 Raffles Boulevard#01-204/205Marina Square Singapore (039594),Steakhouse,COLLIN’S®️ (Marina Square),1.2914837,103.8581984,12
267,290 Orchard Road#B1-43Paragon Shopping Centre Singapore (238859),"Malaysian, Local",Colonial Club Signatures,1.3038699,103.8357982,11
268,Level 37 Raffles Avenue Singapore (039799),"Buffet, Chinese, Japanese, Indian, Indonesian, Malaysian, International, Seafood, British, Vegetarian Friendly, Local, Dim Sum, Southeast Asian","Colony (The Ritz-Carlton, Millenia Singapore)",1.2894584,103.862269,12
269,220 Upper Thomson Road Singapore (574352),"All-Day Breakfast, Cafe",Columbus Coffee Co.,1.3529,103.8354207,32
270,404 East Coast Road Singapore (428998),Mexican,Comida Mexicana,1.308853,103.912105,23
271,11/12 Stanley Street Singapore (068730),"Australian, All-Day Breakfast, Vegetarian Friendly, Cafe",Common Man Stan,1.280279,103.847971,4
272,60 Prinsep Street Singapore (188664),"All-Day Breakfast, Cafe",Communal Coffee,1.2996497,103.8499654,45
273,465 Joo Chiat Road Singapore (427677),"American, Australian, Fusion, International, All-Day Breakfast, British, Cafe, Burgers",The Communal Place,1.3067012,103.9047474,23
274,18A Dempsey Road Singapore (249677),"Modern European, International, Vegetarian Friendly, Cafe",Como Cuisine,1.3058407,103.8105749,20
275,2 Temasek Boulevard Conrad Centennial Hotel Singapore (038982),Bar,Conrad Lobby Lounge,1.2932404,103.8587623,12
276,12 Marina View Level 33The Westin Singapore Asia Square Tower 2Singapore (018961),"Bar, Modern European, Fusion, Vegetarian Friendly, Modern Asian",Cook & Brew,1.2782749,103.8507719,4
277,32 Beach Road Singapore (189764),Bar,Cool Cats,1.2943478,103.855289,16
278,42 Hong Kong Street Singapore (059681),"Bar, Japanese, French, Italian, Pizza",The Cooperage,1.2872702,103.8476184,24
279,167 Penang Road#01-01 Winsland House Singapore (238462),"Japanese, Fusion, Modern Asian",Copper,1.299853,103.840569,38
280,12 Marina Boulevard#02-01Marina Bay Financial Centre Tower 3Singapore (018982),"Indian, Vegetarian Friendly, Halal Certified",Copper Chimney (Marina Bay Financial Center),1.2790221,103.8544967,49
281,100 Syed Alwi Road Singapore (207676),"Indian, Vegetarian Friendly",Copper Chimney (Syed Alwi),1.3098902,103.8552856,8
282,6 Kim Tian Road Singapore (169246),Bar,Coq & Balls,1.285135,103.829264,0
283,12 Ann Siang Road Singapore (069692),Modern Asian,Coriander Leaf @ Ann Siang,1.2813466,103.8454791,4
284,30 Victoria Street#02-01CHIJMES Singapore (187996),International,Coriander Leaf @ CHIJMES,1.294726,103.852524,16
285,1 Cluny Road Singapore Botanic Gardens EJH Corner House(Nassim Gate Entrance)Singapore (259569),"Bar, Modern European, French, Vegetarian Friendly",Corner House,1.3138397,103.8159136,20
286,9 Craig Road#01-01Singapore (089669),"Bar, Modern European",Coucou,1.2776039,103.842797,31
287,1 Fullerton Square The Fullerton Hotel Singapore Singapore (049178),"Bar, Japanese, Indian, International",The Courtyard,1.2863532,103.8530671,49
288,3B River Valley Road#01-08Singapore (179021),"American, Local, Pizza, Burgers",Coyote Ugly Saloon,1.2958759,103.8397086,38
289,35A Boat Quay Singapore (049824),"American, Italian, Pizza",Craft Pizza,1.2863031,103.8496754,24
290,55 Waterloo Street#01-01Catholic Centre Building Singapore (187954),"All-Day Breakfast, Cafe, Burgers",Crossings Cafe,1.2983144,103.8514777,45
291,1 Harbourfront Walk#01-112Vivo City Singapore (098585),"Chinese, Vegetarian Friendly",Crystal Jade Dining IN,1.2644032,103.8222071,40
292,290 Orchard Road#05-22The Paragon Singapore (238859),Chinese,Crystal Jade Golden Palace,1.3038699,103.8357982,11
293,1 Woodlands Square#05-10Causeway Point Singapore (738099),Chinese,Crystal Jade Hong Kong Kitchen (Causeway Point),1.4360933,103.7859471,19
294,1 Kim Seng Promenade#03-127Great World City Singapore (237994),Chinese,Crystal Jade Hong Kong Kitchen (Great World City),1.2936417,103.8319293,0
295,2 Lorong Mambong Holland Village Singapore (277671),Chinese,Crystal Jade Hong Kong Kitchen (Holland Village),1.3109931,103.7953414,9
296,3 Temasek Boulevard#B1-112Suntec City Mall Singapore (038983),Chinese,Crystal Jade Hong Kong Kitchen (Suntec City),1.29503,103.8583026,12
297,391 Orchard Road#B2-38Takashimaya Shopping Centre Singapore (238872),Chinese,Crystal Jade Hong Kong Kitchen (Takashimaya),1.3025572,103.834568,11
298,4 Tampines Central 5#B1-11Tampines Mall Singapore (529510),Chinese,Crystal Jade Hong Kong Kitchen (Tampines Mall),1.3524936,103.9447179,15
299,3155 Commonwealth Avenue West#03-54The Clementi Mall Singapore (129588),Chinese,Crystal Jade Hong Kong Kitchen (The Clementi Mall),1.314918,103.7643089,22
300,3 Gateway Drive#04-42Westgate Mall Singapore (608532),Chinese,Crystal Jade Hong Kong Kitchen (Westgate),1.3345013,103.7426077,3
301,1 Harbourfront Walk#01-52Vivo City Singapore (098585),Chinese,Crystal Jade Jiang Nan (VivoCity),1.2644032,103.8222071,40
302,200 Victoria Street#B1-04A Bugis Junction Singapore (188021),Chinese,Crystal Jade La Mian Xiao Long Bao (Bugis),1.2988889,103.8555556,16
303,241 Holland Avenue Singapore (278976),Chinese,Crystal Jade La Mian Xiao Long Bao (Holland Village),1.3109916,103.795613,9
304,1 Jurong West Central 2#03-96Jurong Point JP2Singapore (648886),Chinese,Crystal Jade La Mian Xiao Long Bao (Jurong Point),1.3397443,103.7067297,28
305,391 Orchard Road#B2-36A Takashimaya Shopping Centre Singapore (238872),"Chinese, Dim Sum",Crystal Jade La Mian Xiao Long Bao (Takashimaya),1.3021233,103.8346725,11
306,470 Toa Payoh Lorong 6#01-70HDB Hub Singapore (310470),Chinese,Crystal Jade La Mian Xiao Long Bao (Toa Payoh),1.3320803,103.8493781,26
307,391 Orchard Road#04-19Takashimaya Shopping Center Singapore (238872),Chinese,Crystal Jade Palace,1.3025572,103.834568,11
308,75 Airport Boulevard#01-02Crowne Plaza Changi Airport Changi Airport Terminal 3Singapore (819664),Chinese,Crystal Jade Pavilion (Crowne Plaza T3),1.3585609,103.9879672,21
309,3B River Valley Road#01-13Singapore (179021),"Bar, Spanish, South American, Vegetarian Friendly, Caribbean, Mexican, Cuban",Cuba Libre Cafe & Bar (Clarke Quay),1.2958741,103.839689,38
310,182 Cecil Street#01-06/07Frasers Tower Singapore (069547),"Bar, Spanish, South American, Cafe",Cuba Libre Cafe & Bar (Frasers Tower),1.2786632,103.8474008,4
311,12 Kallang Avenue#02-10Aperia Mall Singapore (339511),"Fusion, Halal Certified",Cucina Restaurant & Catering,1.3100591,103.8643756,8
312,11 Unity Street#01-23/24Robertson Walk Singapore (237995),"Buffet, Italian, International",CulinaryOn (Weekend Brunch),1.2919896,103.8416883,34
313,26 Sentosa Gateway#01-231/232Resorts World Sentosa Singapore (098138),German,CURATE,1.255179,103.8218107,14
314,21 Keong Saik Road Singapore (089128),"Modern European, Vegetarian Friendly",Cure Singapore,1.279762,103.8413406,31
315,30 Race Course Lane#01-02/03Singapore (218745),"Indian, Vegetarian Friendly",Curry Bowl,1.3102355,103.8525577,8
316,21 Biopolis Road#01-05Nucleos Singapore (138567),Indian,Curry Nations,1.3018443,103.792238,9
317,1 Bayfront Avenue Level 57Tower 3Marina Bay Sands Sky Park Singapore (018971),Modern Asian,CÉ LA VI,1.2829764,103.8604745,49
318,21 Tanjong Pagar Road#01-01Singapore (088444),Italian,d.o.c,1.2796469,103.8441903,31
319,181 Orchard Road#08-08Orchard Central Singapore (238896),"Chinese, Steamboat",Da Long Yi Hot Pot,1.3006295,103.8398742,38
320,8 Dempsey Road#01-13Singapore (247696),"Bar, Modern European, Italian, Vegetarian Friendly, Pizza",Da Paolo Dempsey Restaurant & Bar,1.3042251,103.8095057,20
321,44 Jalan Merah Saga Singapore (278116),"Bar, Italian, Pizza",Da Paolo Pizza Bar,1.3116259,103.796677,9
322,131 Rifle Range Road#01-01Temasek Club Singapore (588406),"Malaysian, Southeast Asian, Peranakan, Cafe",Daisy's Dream Kitchen,1.34646,103.7806885,17
323,31 Boat Quay Singapore (049820),"American, Mexican, Burgers",Dallas Restaurant & Bar (Boat Quay),1.2861288,103.8497773,24
324,91 Tanglin Road#B1-01Tanglin Place Singapore (247918),"American, Bar, Burgers",Dan Ryan's Chicago Grill,1.3053098,103.8250961,44
325,181 Orchard Road#07-14/15Orchard Central Singapore (238896),"American, Seafood, Cajun",Dancing Crab (Orchard Central),1.300798,103.839175,38
326,1 Harbourfront Walk#03-10Vivo City Singapore (098585),"American, Seafood, Cajun",Dancing Crab (Vivocity),1.2635459,103.8212252,40
327,12 Mosque Street#01-01Singapore (059492),"Bar, Chinese, BBQ",Dating Fish 鱼你有约“音乐主题餐厅,1.2839493,103.8443897,4
328,2 Bayfront Avenue#B1-48The Shoppes at Marina Bay Sands Singapore (018972),"French, Seafood",db Bistro & Oyster Bar,1.2788703,103.8570997,49
329,1187 Upper Serangoon Road#01-17The Midtown Singapore (533971),Cafe,De Dimension,1.3704775,103.8954832,33
330,60 Robertson Quay#01-17The Quayside Singapore (238252),"American, BBQ",Decker Barbecue,1.2900111,103.8388802,34
331,1 Hoe Chiang Road Singapore (089310),"Indian, Vegetarian Friendly",Delhi Express Restaurant,1.2740918,103.8426845,31
332,64 Race Course Road Singapore (218569),"Bar, Indian, Vegetarian Friendly",Delhi Restaurant,1.3085468,103.8512009,8
333,51 Bussorah Street Singapore (199467),"Middle Eastern, Vegetarian",Deli Moroccan,1.301866,103.859383,8
334,91 Bencoolen Street#01-54Sunshine Plaza Singapore (189652),"Japanese, Fusion, Steakhouse, Cafe",Deli's Kitchen,1.3005314,103.8508826,45
335,17D Dempsey Road Singapore (249676),"French, Pizza",The Dempsey Cookhouse and Bar,1.30577,103.8101698,20
336,48 Prinsep Street#01-01Singapore (188677),"Bar, German",Der Biergarten,1.2996611,103.8497482,45
337,60 Bussorah Street Singapore (199476),"Middle Eastern, Vegetarian Friendly",Derwish Turkish,1.301396,103.859492,8
338,1 The Oval Singapore (797859),"Chinese, Seafood, Zi Char",Di Wei Teochew Restaurant,1.4073864,103.8679714,25
339,"311 New Upper Changi Road#01-73/74, Bedok Mall Singapore (467360)",Chinese,Dian Xiao Er (Bedok Mall),1.3244894,103.92902,46
340,17 Petir Road#01-08/09/10Hillion Mall Singapore (678278),"Chinese, Local",Dian Xiao Er (Hillion Mall),1.3785171,103.7632971,13
341,50 Jurong Gateway Road#03-08JEM Singapore (608549),"Chinese, Local",Dian Xiao Er (JEM),1.3337765,103.7436699,3
342,78 Airport Boulevard#B2-229Jewel Changi Airport Singapore (819666),"Chinese, Local, Modern Asian",Dian Xiao Er (Jewel),1.3602082,103.9897593,21
343,"9 Bishan Place#B1-07, Junction 8Singapore (579837)",Chinese,Dian Xiao Er (Junction 8),1.3506808,103.8487631,10
344,63 Jurong West Central 3#B1-57Jurong Point Singapore (648331),"Chinese, Local",Dian Xiao Er (Jurong Point),1.3392697,103.7051807,28
345,"21 Choa Chu Kang Avenue 4#B1-32/33, Lot One Singapore (689812)",Chinese,Dian Xiao Er (Lot One),1.3851169,103.7449142,13
346,6 Raffles Boulevard Marina Square#02-203/204Singapore (039594),"Chinese, Local",Dian Xiao Er (Marina Square),1.2911534,103.8576778,12
347,23 Serangoon Central#02-09/10NEX Singapore (556083),"Chinese, Local",Dian Xiao Er (NEX),1.3507723,103.8722585,36
348,930 Yishun avenue 2#02-06Northpoint City North Wing Singapore (769098),"Chinese, Vegetarian Friendly",Dian Xiao Er (Northpoint City),1.4279686,103.8364152,5
349,10 Tampines Central 1#04-15Tampines One Singapore (529536),"Chinese, Local",Dian Xiao Er (Tampines One),1.354212,103.9450352,15
350,1 Harbourfront Walk#02-138/9Vivo City Singapore (098585),"Chinese, Local",Dian Xiao Er (VivoCity),1.2644032,103.8222071,40
351,83 Punggol Central#01-30Waterway Point Singapore (828761),"Chinese, Local",Dian Xiao Er (Waterway Point),1.40669,103.9021738,1
352,791 North Bridge Road Singapore (198759),"Chinese, Local, Dim Sum",The Dim Sum Place,1.3040147,103.8601468,8
353,39 Scotts Road Sheraton Towers Singapore (228230),International,The Dining Room,1.3118244,103.8364761,11
354,"3 Temasek Boulevard #01-514/515,Suntec City Mall Singapore (038983)","Bar, Modern European, Steakhouse",District 10 (Suntec City),1.2955494,103.8591196,12
355,"81 Clemenceau Avenue #01-15/16/17,UE Square Singapore (239917)",Modern European,District 10 (UE Square),1.2920433,103.8427205,34
356,5 Raffles Avenue Marina Square The Mandarin Oriental Singapore (039797),Italian,Dolce Vita,1.2908185,103.8582972,12
357,1 Keong Saik Road The Working Capitol Building Singapore (089109),"Fusion, International, Middle Eastern",Don Ho - Social Kitchen & Bar,1.2788038,103.8414996,31
358,1 Fusionopolis Place #01-11Galaxis Singapore (138522),"Bar, Pizza",Donna Restaurant and Bar,1.3004512,103.7871501,9
359,2 Circular Road Singapore (049358),"Chinese, Modern Asian",The Dragon Chamber,1.2880248,103.8488534,24
360,81 Club Street Singapore (069449),"Bar, Vegetarian Friendly, Pizza, Burgers",Drinks & Co Grill,1.2818634,103.8458084,4
361,27 Lorong Mambong Singapore (277686),"Modern European, Vegetarian Friendly, Pizza",Drinks & Co Kitchen,1.3115319,103.7945621,9
362,48 Arab Street Singapore (199745),"Fusion, Local, Cafe",Dual,1.300805,103.8596349,8
363,10 Paya Lebar Road B2-33Paya Lebar Quarter Singapore (409057),Fusion,Duckland (Paya Lebar),1.316608,103.8924804,42
364,26 Sentosa Gateway#B1-222 / 223Resorts World Sentosa Singapore,"Local, Modern Asian",Duckland (Resorts World Sentosa),1.2565321,103.8202397,14
365,101 Thomson Road B1-09&64/65United Square Shopping Mall Singapore (307591),"Fusion, Cafe, Modern Asian",Duckland (United Square),1.3173196,103.8438405,26
366,109 Mount Faber Road Singapore (099203),"Bar, Modern European, Spanish",Dusk Restaurant & Bar,1.2713774,103.8192945,40
367,9 King Albert Park#01-14/33/34/56/57KAP Residences Mall Singapore (598332),International,EagleWings Loft,1.3370926,103.7794196,17
368,1000 East Coast Parkway#01-03Singapore (449876),Cafe,East Coast Commune,1.301317,103.9129037,23
369,"3 River Valley Road#01-16Clarke Quay, Block B Singapore (179021)",Chinese,East Treasure Chinese Restaurant,1.2910625,103.8456521,24
370,12 Alexandra View#01-02/03/04Singapore (158736),"Bar, Modern European, German, Cafe, BBQ, Russian, Vegetarian",Eat Cetera,1.2900367,103.8169318,27
371,1 Stadium Place#01-35Kallang Wave Mall Singapore (397628),Chinese,Eat@Taipei (Kallang Wave Mall),1.3032243,103.8728714,37
372,60 Paya Lebar Road#B1-15Paya Lebar Square Singapore (409051),"Steakhouse, Halal Certified",Eatzi Gourmet Bistro (Paya Lebar Square),1.3191725,103.8925563,42
373,60 Yishun Ave 4#01-V2SAFRA Yishun Singapore (769027),"Steakhouse, Halal Certified",Eatzi Gourmet Bistro (SAFRA Yishun),1.4245235,103.8408313,5
374,7 Raffles Boulevard Level 3Pan Pacific Singapore Singapore (039595),"Buffet, International, Seafood, Local, Peranakan",Edge,1.2924176,103.8585852,12
375,282A South Bridge Road Singapore (058831),"Chinese, Malaysian, Local, Vegetarian",Eight Treasures Vegetarian Restaurant,1.2815386,103.8447177,4
376,30 Victoria Street#01-20CHIJMES Singapore (187996),"Bar, Seafood, Steakhouse, South American, Vegetarian Friendly, Mexican",El Mero Mero,1.2949166,103.8524109,16
377,13 Stamford Road Arcade @ The Capitol Kempinski Singapore (178906),Spanish,El Teatro Tapas,1.293891,103.8513613,16
378,83 Club Street Singapore (069451),"Bar, Vegetarian Friendly, Pizza, Burgers",Elbow Room by Drinks & Co,1.2817521,103.8457289,4
379,1 Maritime Square#02-85Harbour Front Centre Singapore (099255),"Chinese, Vegetarian Friendly",Elemen @ HarbourFront Centre,1.2643389,103.8201453,40
380,9 Raffles Boulevard Millenia Walk Singapore (039596),"Chinese, Vegetarian Friendly",Elemen @ Millenia Walk,1.2928181,103.8598344,12
381,10 Paya Lebar Road#03-13Paya Lebar Quarter Singapore (409057),Vegetarian,Elemen @ Paya Lebar Quarter,1.316608,103.8924804,42
382,165 Tanjong Pagar Road#01-00Amara Hotel Singapore (088539),"International, Seafood",Element Restaurant,1.2747537,103.8435337,31
383,112 Amoy Street Singapore (069932),"American, Bar",Employees Only Singapore,1.2820529,103.8476758,4
384,1 Empress Place#01-03Asian Civilisations Museum Singapore (179555),"Chinese, Dim Sum",EMPRESS,1.2873802,103.8512492,24
385,70 Jellicoe Road#04-01Singapore (208767),"Fusion, International, Burgers",Enchanted Garden,1.3077922,103.8625335,8
386,28 Mohamed Sultan Road Singapore (238972),British,The English House by Marco Pierre White,1.2931036,103.8413303,34
387,383 Jalan Besar Road Kam Leng Hotel Singapore (209001),"Chinese, Local, Peranakan, Zi Char",Enjoy Eating House and Bar @ Jalan Besar,1.3131786,103.8596715,8
388,30 Stevens Road#01-07Mercure on Stevens Singapore (257840),"Bar, Local, Zi Char",Enjoy Eating House and Bar @ Stevens,1.3137963,103.8287675,44
389,47 Neil Road Singapore (028887),"Fusion, Southeast Asian, Modern Asian",Epiphyte,1.279713,103.84271,31
390,8A Marina Boulevard#01-01Ground Plaza Singapore (018984),"Bar, Italian, Seafood, Vegetarian Friendly, Cafe",Erwin's Gastrobar,1.2797178,103.8544526,49
391,1 Farrer Park Station Rd Singapore (217562),"American, Bar",ESCAPE,1.3127619,103.8545562,8
392,16 Jiak Chuan Road Singapore (089267),"Modern European, Spanish",Esquina,1.2798722,103.8420751,31
393,49/50 Duxton Road Singapore (089513),"Italian, Vegetarian Friendly, Pizza",Etna Italian Restaurant (Duxton),1.2783225,103.8433345,31
394,110 Upper East Coast Road Singapore (455298),"Italian, Vegetarian Friendly, Pizza",Etna Italian Restaurant (Upp East Coast),1.31329,103.928821,6
395,76 Tras Street Singapore (079015),"Modern European, French",Euphoria,1.2774708,103.8441306,31
396,8 Marina View#01-04Asia Square Singapore (018960),"Bar, Italian, Pizza",Extra Virgin Pizza (Asia Square),1.2792279,103.8513981,49
397,54 Sembawang Road Singapore (779085),"Chinese, Southeast Asian",Famous Kitchen,1.4027461,103.8181274,39
398,13 Stamford Road#02-28Capitol Singapore Singapore (178905),"Chinese, Local",Famous Treasure,1.2931642,103.8511386,16
399,24 Greenwood Avenue Singapore (289221),"Thai, French",Farangse,1.3314723,103.8066564,30
400,1 Orchard Blvd#01-01Camden Medical Centre Singapore (248649),"Bar, Japanese, Steakhouse",Fat Cow,1.3031723,103.823822,44
401,48 Peck Seah Street Singapore (079317),"Middle Eastern, Vegetarian Friendly, Turkish",Fat Prince,1.2779306,103.844885,31
402,29 Lorong Mambong Holland Road Singapore (277689),"American, Burgers",Fatboy's The Burger Bar (Holland Village),1.312156,103.7941994,9
403,922 Yishun Ave 2#01-150Northpoint Singapore (769095),"American, Burgers",FATBOY'S The Burger Bar (Northpoint),1.4277137,103.8367706,5
404,26 Sentosa Gateway#B1M-125/126/127Resorts World Sentosa Singapore (098138),"Chinese, Dim Sum",Feng Shui Inn,1.255179,103.8218107,14
405,23 Lorong Mambong Singapore (277682),"Bar, International, Vegetarian Friendly",The Fine Line,1.3114454,103.7946057,9
406,2 Orchard Turn#55-01 ION Orchard Singapore (238801),"Bar, South American, BBQ",FIRE @ 1-ATICO,1.3039288,103.8319512,11
407,32 Beach Road The NCO Club Singapore (189764),"Bar, French, Seafood",Fish Pool,1.2940932,103.8550067,16
408,97 Hougang Avenue 8Punggol Park Singapore (538792),"Bar, Modern Asian",Five &2,1.3750035,103.8983496,33
409,39 Tanjong Pagar Road Singapore (088462),"Fusion, Cafe",Five Oars Coffee Roasters,1.2790527,103.8439926,31
410,73 Upper Paya Lebar Road Level 1Centro Bianco Building Singapore (534818),"Seafood, Halal Certified, Steamboat",Flame Cafe,1.3367901,103.8871511,2
411,64 Tras Street Singapore (079003),"French, Vegetarian Friendly",Fleur de Sel Le Restaurant,1.277807,103.8441943,31
412,2 Orchard Turn#55-01 ION Orchard Singapore (238801),"Bar, South American, BBQ",FLNT @ 1-ATICO,1.3039288,103.8319512,11
413,93 Stamford Road#01-02The National Museum of Singapore Singapore (178897),Modern European,FLUTES Restaurant,1.2966147,103.8485095,45
414,67 Bussorah Street Singapore (199480),"Indian, Vegetarian Friendly",Flying Monkey,1.300837,103.860084,8
415,310 Lavender Street Singapore (338815),"Chinese, Fusion, Vegetarian Friendly, Local, Vegetarian",Fo You Yuan Vegetarian Restaurant 佛有缘素食馆,1.3153248,103.8596181,8
416,40 Hong Kong Street Singapore (059679),Spanish,FOC Restaurant,1.2873338,103.8475084,24
417,110 Tanjong Beach Walk Singapore (098943),Spanish,FOC Sentosa - Restaurant,1.2467881,103.8249765,14
418,700 Beach Road Level 2Destination Singapore Beach Road Singapore (199598),"Malaysian, Fusion, Local, Southeast Asian, Peranakan, Modern Asian",Folklore,1.302438,103.864109,8
419,8 Shenton Way01-15/18/23AXA Tower Singapore (068811),Thai,Folks Collective - The Eclectic Emporium (AXA Tower),1.2761294,103.8474403,31
420,20 Cross Street#01-25China Square Central Singapore (048422),Thai,Folks Collective - The Vintage Shope (China Square),1.2839206,103.8475743,4
421,392 Havelock Road Grand Copthorne Waterfront Hotel Singapore (169663),"American, Buffet, Chinese, Japanese, Indian, International, Seafood, Local, Southeast Asian",Food Capital,1.2900873,103.8353025,0
422,28 Stevens Road Novotel Singapore on Stevens Singapore (257878),"Indian, Thai, International, Seafood, Vegetarian Friendly, Local, Southeast Asian",Food Exchange,1.3137963,103.8287675,44
423,111 Killiney Road Singapore (239553),Chinese,FOOK KIN,1.2980251,103.838852,38
424,16 Sentosa Gateway#01-521/522Resorts Word Sentosa Singapore (098133),Chinese,Forest 森,1.255179,103.8218107,14
425,200 Turf Club Road#01-16The Grandstand Singapore (287994),"Bar, Fusion",Foresta Restaurant & Bar,1.3380084,103.7934418,17
426,11 Bussorah Street Singapore (199432),"Chinese, Fusion, Local, Southeast Asian",The Fortune Cookie,1.3011547,103.8602386,8
427,"382 Havelock Road Four Points by Sheraton Singapore, Riverview Singapore (169629)","Buffet, International, Seafood, Local",Four Points Eatery,1.289185,103.8366479,0
428,78 Airport Boulevard#B2-227/228Jewel Changi Airport Singapore (819666),"Chinese, Fusion, Seafood, Vegetarian Friendly, Local, Steamboat, Zi Char",Four Seasons Restaurant,1.3602082,103.9897593,21
429,26 Sentosa Gateway#02-145Resorts World Sentosa Singapore (098138),"Italian, Pizza",Fratelli,1.255179,103.8218107,14
430,26 Sentosa Gateway#02-144Resorts World Sentosa Singapore (098138),Italian,Fratelli Trattoria,1.255179,103.8218107,14
431,21A Boon Tat Street Singapore (069620),"Bar, Fusion, Vegetarian Friendly",Freehouse,1.281301,103.848486,4
432,3E River Valley Road#01-05Singapore (179024),"Australian, Seafood, Southeast Asian",Fremantle Seafood Market,1.295877,103.8397203,38
433,2 Teck Lim Road Singapore (088380),"Bar, French",Frenchie Wine Bar,1.2801796,103.8420826,31
434,15 Stamford Road Arcade @ The Capitol Kempinski Singapore (178906),German,Frieda (The Capitol Kempinski Hotel Singapore),1.293891,103.8513613,16
435,431 Sembawang Road#01-11Singapore (758396),"Bar, Buffet, Korean, BBQ",Friends Tasty Korea,1.4280836,103.8265395,5
436,5 Mosque Street Singapore (059485),"Chinese, Steamboat",Frog Meat Fish Head 美蛙鱼头,1.284032,103.844054,4
437,127 Telok Ayer Street Singapore (068596),"Chinese, Spanish, Local",Fu Lin Bar & Kitchen,1.2811178,103.8479356,4
438,438B Alexandra Road01-01Alexandra Technopark Block B Singapore (119968),"American, Bar, Spanish",Fuego Bar & Kitchen,1.277416,103.7994388,27
439,51 Jalan Sultan Singapore (198975),"Bar, Japanese, BBQ",Fukusen Izakaya,1.3024337,103.8615408,8
440,243 Holland Avenue Singapore (278977),"Bar, Chinese, Fusion",Full of Luck Restaurant,1.311079,103.795575,9
441,"19 Boon Tat Street,Singapore (069619)","Modern European, Steakhouse",fȳr,1.2813737,103.8484499,4
442,163 Geylang Road Singapore (389240),"Chinese, Seafood, Zi Char",G7 Sin Ma Live Seafood and Frog Porridge,1.3115711,103.8745506,37
443,3B River Valley Road#01-14Singapore (179021),"Bar, Indian, Vegetarian Friendly",Gabbar Bistro & Bar,1.2958738,103.8396851,38
444,16 Stanley Street Singapore (068735),Spanish,Gaig,1.280476,103.84807,4
445,1 St Andrew's Road #01/12/13/14 & 17City Hall Wing National Gallery Singapore Singapore (178957),Cafe,The Gallery Bistro,1.2902217,103.8515167,24
446,10 Raeburn Park#01-28Singapore (088702),"American, Japanese, British",The Garden Kitchen,1.2740256,103.8334078,31
447,30 Allanbrooke Road Singapore (099983),"International, Vegetarian Friendly",The Garden,1.2479722,103.8274872,14
448,36 Purvis Street#01-02Singapore (188613),Italian,Garibaldi Italian Restaurant & Bar,1.2964499,103.8549138,16
449,25 Keong Saik Road Singapore (089132),French,Gaston,1.279837,103.84145,31
450,34/36 Tras Street Singapore (078975),"Italian, Seafood",Gattopardo Ristorante di Mare,1.2784339,103.8443601,31
451,165 Telok Ayer Singapore (068617),Modern European,GaZette,1.2802071,103.847481,4
452,10 Ann Siang Hill Singapore (069789),"Local, Southeast Asian, Burgers",Gem Bar,1.2813581,103.8454135,4
453,7-13 Amoy Street#01-01Far East Square Singapore (049949),"Cafe, Pizza, Burgers",Genius Central Singapore,1.282888,103.848436,4
454,81 Boat Quay Singapore (049869),"Bar, Chinese, Local",George Town Tze Char & Craft Beer,1.2884155,103.8492835,24
455,133 Pasir Ris Road Carpark E Singapore (519149),"American, Bar, Seafood, Vegetarian Friendly, Local, Cafe",Georges @ The Cove,1.3843563,103.9426012,47
456,1010 East Coast Parkway Carpark C3Singapore (449892),"American, Bar, Seafood, Vegetarian Friendly, Cafe",Georges Beach Club,1.3014279,103.9148718,23
457,500 New Punggol Road#02-12Singapore (828617),"American, Bar, Seafood",Georges By The Bay,1.4208268,103.9123599,1
458,18/20 Bukit Pasoh Road Singapore (089832),"Bar, Seafood",Gibson,1.279116,103.8409437,31
459,1 Raffles Place#04-29One Raffles Place Singapore (048616),"Thai, Fusion, Local",Gin Khao (One Raffles Place),1.284177,103.851063,49
460,1/A Tampines Street 92#01-K2Singapore (528882),"Chinese, Thai",Gin Khao (SAFRA Tampines),1.3446019,103.9416649,15
461,"31 Ocean Way,#01-12Quayside Isle Singapore (098375)",Thai,Gin Khao Bistro (Sentosa Cove),1.2476808,103.8420723,29
462,200 Middle Road Singapore (188980),"Bar, French, Cafe",Ginett Restaurant & Wine Bar,1.3008771,103.8515427,45
463,7500 Beach Road PARKROYAL on Beach Road Singapore (199591),"Buffet, International, Local, Southeast Asian",Ginger,1.3001787,103.8604032,8
464,No.5 Mohamed Sultan Road#01-01Singapore (239014),Japanese,Ginza Shinto,1.2939596,103.8419325,34
465,107 North Bridge Road#04-07Funan Mall Singapore (179105),"Fusion, Peranakan, Modern Asian",Godmama,1.291321,103.8500832,24
466,33 Mohamed Sultan Road#01-01/02Singapore (238977),Japanese,Goku Japanese Restaurant,1.2923785,103.8408052,34
467,2 Temasek Boulevard Conrad Centennial Hotel Singapore (038982),Chinese,Golden Peony,1.2932404,103.8587623,12
468,86 East Coast Road#01-02Katong Square Singapore (428788),"Chinese, Local, Vegetarian",Goldleaf Restaurant (Katong),1.3047255,103.9046894,23
469,7 Fraser Street#01-59/60Duo Galleria Singapore (189356),"Bar, Modern European, Fusion, International, Steakhouse, Pizza",The Gong by Drinks&Co.,1.2992641,103.8579913,16
470,5 Bishan Street 14#03-01Bishan Sports Hall Singapore (579783),"American, Fusion, Vegetarian Friendly, Cafe",Good Bites,1.3552778,103.8508333,10
471,889 East Coast Road Singapore (459092),"Local, Peranakan",Good Time Eat Drink,1.312892,103.9239769,6
472,43 Holland Drive#01-49Singapore (270043),Japanese,Goro Japanese Cuisine,1.3072044,103.7930683,9
473,1 Fullerton Square Lobby - Level 1South Courtyard The Fullerton Hotel Singapore Singapore (049178),"Bar, Local, Burgers",Grand Cru at South Courtyard,1.2863532,103.8530671,49
474,12 Kallang Avenue#02-07/08Aperia Mall Singapore (339511),"Bar, Japanese, Seafood, Vegetarian Friendly, Cafe",Grand jeté izakaya,1.3100591,103.8643756,8
475,1 Beach Road Raffles Singapore Singapore (189673),British,The Grand Lobby (Raffles Hotel),1.2948829,103.8544791,16
476,60 Albert Street Level 2Singapore (189969),"Chinese, Local, Zi Char",Granny’s Secret,1.3024158,103.8539626,45
477,393 Guillemard Road Singapore (399790),"American, Italian, Burgers",Grapevine @ Guillemard,1.3119868,103.8883456,42
478,787 Upper Serangoon Road Singapore (534654),"Bar, Italian, Pizza, Burgers",Grapevine Bar & Restaurant,1.355462,103.8793532,36
479,1 Hoe Chiang Road Singapore (089310),"Indian, Vegetarian Friendly, Cafe",Gravy Restaurant & Bar,1.2740918,103.8426845,31
480,430 Upper Changi Road#01-06East Village Singapore (487048),"Thai, Halal Certified",GREAThai (East Village),1.3318464,103.9463496,46
481,30 Tuas Bay Drive Singapore (637548),"American, Bar, Japanese, Italian, Vegetarian Friendly",Greenhouse Cafe,1.3152309,103.6327094,18
482,31 Ocean Way#01-02Quayside Isle Singapore (098375),"Chinese, Japanese, Seafood",Greenwood Fish Market @ Asian Cuisine,1.24805,103.8415831,29
483,34 & 38 Greenwood Avenue Singapore (289236),Seafood,Greenwood Fish Market @ Bukit Timah,1.3318927,103.8062581,30
484,31 Ocean Way#01-04/05Quayside Isle @ Sentosa Cove Singapore (098375),Seafood,Greenwood Fish Market @ Quayside Isle,1.2477209,103.8419157,29
485,200 South Bridge Road Singapore (058749),Cafe,Grids & Circles,1.2836154,103.8458592,4
486,142 Arab Street Singapore (199828),"American, Fusion, Seafood, Steakhouse, Vegetarian Friendly, Halal Certified, Cafe, Pizza, BBQ",Grill Ninety Nine,1.3026001,103.8580683,8
487,392 Havelock Road Grand Copthorne Waterfront Hotel Singapore (169663),"Italian, Vegetarian Friendly",Grissini,1.2900873,103.8353025,0
488,181 South Bridge Road#01-05 & #K1-04Singapore (058743),"American, Australian, All-Day Breakfast, Vegetarian Friendly",Group Therapy Coffee (Cross Street Exchange),1.2838372,103.8470596,4
489,510 Ang Mo Kio Avenue 1 (Bishan Park 1)Singapore 569983,"American, All-Day Breakfast, Cafe, Burgers",GRUB (Bishan Park),1.3649722,103.8358919,32
490,216 Ang Mo Kio Avenue 4#01-03Kebun Baru Community Centre Singapore (569897),"American, All-Day Breakfast, Burgers",The Grumpy Bear @ Ang Mo Kio,1.3730489,103.8375807,32
491,1 Jalan Anak Bukit#02-01B Bukit Timah Plaza Singapore (588996),"American, Local, Cafe",The Grumpy Bear @ Bukit Timah,1.3386346,103.7785322,17
492,333 Boon Lay Way#2B-02 SAFRA Jurong Singapore (649848),"Cafe, Dessert Only",The Grumpy Bear @ Safra Jurong,1.335065,103.7062804,28
493,301 Upper Thomson Road#02-10Thomson Plaza Singapore (574408),"Fusion, Seafood, Steakhouse, Vegetarian Friendly, Local, Cafe",The Grumpy Bear @ Thomson,1.3548,103.8308,32
494,45 Tai Thong Crescent Sennett Estate Singapore (347866),"Chinese, Seafood, Local, Zi Char",Gu Ma Jia,1.3284529,103.8699639,37
495,20 Gemmill Lane Singapore (069256),Italian,Guccio Ristorante,1.2822119,103.8471948,4
496,32 Maxwell Road#01-06Maxwell Chambers Singapore (069115),"Japanese, Seafood",Guenpin Fugu & Snow Crab Restaurant,1.2772982,103.8463669,31
497,55 Keong Saik Road#01-01Singapore (089158),"Bar, Modern European",The Guild,1.2806857,103.8414578,31
498,36 Purvis Street#01-03Singapore (188613),French,Gunther's,1.2964499,103.8549138,16
499,26 Jalan Selaseh Seletar Hills Estate Singapore (808445),Italian,Gustoso Ristorante Italiano,1.3854938,103.872871,41
500,30 Stevens Road#01-08Singapore (257840),Japanese,The Gyu Bar,1.3139157,103.8284694,44
501,30 Victoria Street#01-01/02CHIJMES Singapore (187996),"Buffet, Japanese, BBQ",Gyu-Kaku (CHIJMES),1.296991,103.8527687,16
502,180 Kitchener Road#05-05City Square Mall Singapore (208539),"Buffet, Japanese, BBQ",Gyu-Kaku (City Square Mall),1.3111877,103.8566675,8
503,11 Tanjong Katong Road#01-14KINEX Singapore (437157),"Buffet, Japanese, BBQ",Gyu-Kaku (KINEX),1.3147221,103.8947554,42
504,6 Raffles Boulevard#02-106Marina Square Singapore (039594),"Buffet, Japanese, BBQ",Gyu-Kaku (Marina Square),1.2911534,103.8576778,12
505,238 Thomson Road#02-46Singapore (307683),"Buffet, Japanese, BBQ",Gyu-Kaku (Novena Square),1.3199572,103.8439076,26
506,176 Orchard Road#02-53/54The Centrepoint Singapore (238843),"Buffet, Japanese, BBQ",Gyu-Kaku (The Centrepoint),1.3021393,103.8396031,38
507,1 Vista Exchange Green#02-17The Star Vista Singapore (138617),"Buffet, Japanese, BBQ",Gyu-Kaku (The Star Vista),1.3068072,103.7883997,9
508,81A Clemenceau Avenue#01-18/19UE Square Singapore (239918),"Buffet, Japanese, BBQ",Gyu-Kaku (UE Square),1.2921277,103.842538,34
509,83 Punggol Central#01-33Waterway Point Singapore (828761),"Buffet, Japanese, BBQ",Gyu-Kaku (Waterway Point),1.40669,103.9021738,1
510,5 Koek Rd#04-02Cuppage Plaza Singapore (228796),Japanese,割烹 旬水 Kappo Shunsui,1.3019646,103.8407001,38
511,223 Upper Thomson Road Singapore (574355),"American, Italian, Cafe",Habitat Coffee,1.3527755,103.8345245,32
512,7 Raffles Boulevard Level 3Pan Pacific Singapore Singapore (039595),"Chinese, Seafood, Vegetarian Friendly, Dim Sum",Hai Tien Lo,1.2924176,103.8585852,12
513,350 Orchard Road Level 4Isetan Shaw House Singapore (238868),"Chinese, Steamboat",Hai Xian Lao 海鲜捞 (Isetan Scotts),1.3059065,103.8314983,11
514,"8 Wilkie Road#01-21, Wilkie Edge Singapore (228095)","Buffet, Chinese, Thai, Seafood, Local, Southeast Asian, Steamboat",Hai Xian Lao 海鲜捞 (Wilkie),1.3018268,103.8498565,45
515,2 Handy Road#01-11/12The Cathay Singapore (229233),French,Hair of the Dog,1.299308,103.8474727,45
516,290 Orchard Road#03-09Paragon Shopping Centre Singapore (238859),"Bar, Modern European, Chinese, Australian, Fusion, International, Vegetarian Friendly, Cafe",Halcyon & Crane,1.3038699,103.8357982,11
517,61 Boat Quay Singapore (049849),"Bar, Indian, Vegetarian Friendly, BBQ, Vegetarian",Haldhi Restaurant and Bar,1.2875148,103.8492407,24
518,"1 Cluny Road Ginger Garden, Botanic Gardens Singapore (259569)","Fusion, Vegetarian Friendly, Halal Certified",The Halia at Singapore Botanic Gardens,1.3109685,103.8148604,20
519,"583 Orchard Road, #01-17,Forum The Shopping Mall Singapore (238884)",Japanese,Hana Restaurant,1.3061111,103.8286111,44
520,5 Koek Road#02-01Cuppage Plaza Singapore (228796),Japanese,Hanashizuku Japanese Cuisine,1.3018423,103.8407889,38
521,10 Lock Road Singapore (108938),"American, Bar",Handlebar @ Gillman Barracks,1.2786035,103.8047957,27
522,80 Mohamed Sultan Road#01-04 The Pier at Robertson Singapore (239013),"Italian, Steakhouse, German, Cafe, Pizza, Burgers","Hannibal, European Grill & Pizza-Bar",1.2918135,103.8406509,34
523,71-72 Boat Quay Singapore (049860),"Bar, Vegetarian Friendly, German, Burgers",HANS IM GLÜCK German Burgergrill (Boat Quay),1.2880225,103.8493556,24
524,362 Orchard Road International Building Singapore (238887),"Bar, Vegetarian Friendly, German, Burgers",HANS IM GLÜCK German Burgergrill (Orchard),1.305891,103.8304798,11
525,9 Raffles Place#01-01Republic Plaza Singapore (048619),"Bar, Vegetarian Friendly, German, Burgers",HANS IM GLÜCK German Burgergrill (Raffles Place),1.2831532,103.8511017,49
526,1 Harbourfront Walk#01-57Vivo City Singapore (098585),"Bar, German, Burgers",HANS IM GLÜCK German Burgergrill (VivoCity),1.2633512,103.8232553,40
527,27 Lorong 13 Geylang Singapore (388670),"Chinese, Seafood, Zi Char",Happiness Seafood by Uncle Leong Signatures,1.3138372,103.8773328,37
528,50 Temple Street Singapore (058595),"Chinese, Seafood, Vegetarian Friendly, Local, BBQ",Happy Dining Seafood 喜来聚海鲜,1.2833282,103.8436738,4
529,"50 Cuscaden Road#02/03-01, HPL House Singapore (249724)","American, Bar, Burgers",Hard Rock Cafe (Cuscaden),1.3057875,103.8281305,44
530,"26 Sentosa Gateway#01-209-214 The Forum, Sentosa Island Singapore (098138)","American, Bar, Cafe, Burgers, BBQ",Hard Rock Cafe (Sentosa),1.255179,103.8218107,14
531,18 Tai Seng Street#01-K4/23-25Singapore (539775),"American, Bar, Pizza, Burgers",Harry's (18 Tai Seng),1.3363233,103.8892129,2
532,545 Orchard Road#01-01/02Far East Shopping Centre Singapore (238882),"American, Bar, Pizza, Burgers",Harry's (Angullia Park),1.3057392,103.8299232,11
533,28 Boat Quay Singapore (049818),"American, Bar, Pizza, Burgers",Harry's (Boat Quay),1.2858214,103.8497276,24
534,1 Netheravon Road#01-04/05Village Hotel Changi Singapore (508502),"American, Bar, Pizza, Burgers",Harry's (Changi Village),1.3904345,103.9861364,7
535,30 Victoria Street#01-14CHIJMES Singapore (187996),"American, Bar, Pizza, Burgers",Harry's (CHIJMES),1.294692,103.8526249,16
536,181 South Bridge Road#01-03/K2Singapore (058743),"American, Bar, Pizza, Burgers",Harry's (China Square Central),1.2839879,103.8473944,4
537,3D River Valley Road#01-01Singapore (179023),"American, Bar, Pizza, Burgers",Harry's (Clarke Quay),1.2958784,103.839736,38
538,17/19 Cuppage Road Cuppage Terrace Singapore (229450),"American, Bar, Pizza, Burgers",Harry's (Cuppage),1.301777,103.8402526,38
539,11 Dempsey Road#01-17A Singapore (249673),"American, Bar, Pizza, Burgers",Harry's (Dempsey Hill),1.3041967,103.8100139,20
540,8 Raffles Avenue#01-05/07Esplanade Mall Singapore (039802),"American, Bar, Pizza, Burgers",Harry's (Esplanade),1.28967,103.8562856,12
541,1 Maritime Square#01-64Harbour Front Centre Singapore (099253),"American, Bar, Pizza, Burgers",Harry's (HarbourFront),1.2650072,103.8200037,40
542,22 Lorong Mambong Singapore (277681),"American, Bar, Pizza, Burgers",Harry's (Holland Village),1.3115439,103.7949792,9
543,40 Pasir Panjang Road#02-43/44Singapore (117383),"American, Bar, Pizza, Burgers",Harry's (Mapletree Business City),1.2754062,103.7997842,27
544,8A Marina Boulevard#01-03Ground Plaza Singapore (018984),"American, Bar, Pizza, Burgers",Harry's (Marina Bay Link Mall),1.2799447,103.8547618,49
545,238 Thomson Road#01-59/60Novena Square Singapore (307683),"American, Bar, Pizza, Burgers",Harry's (Novena),1.3198822,103.8439452,26
546,26 Sentosa Gateway#01-215/216Resorts World Sentosa Singapore (098138),"American, Bar, Pizza, Burgers",Harry's (Resorts World Sentosa),1.255179,103.8218107,14
547,30 Merchant Road#01-04Singapore (058282),"American, Bar, Pizza, Burgers",Harry's (Riverside Point),1.2895277,103.8439076,34
548,26 Beach Road#01-18Singapore (189768),"American, Bar, Pizza, Burgers",Harry's (South Beach),1.2947213,103.8560526,16
549,9 Tampines Grande#01-09Singapore (528735),"American, Bar, Pizza, Burgers",Harry's (Tampines Grande),1.3557701,103.9414999,15
550,60 Robertson Quay#01-05/06Singapore (238252),"American, Bar, Pizza, Burgers",Harry's (The Quayside),1.2903566,103.8394691,34
551,1 Seletar Road#02-12Greenwich V Singapore (807011),Japanese,Haruyuki Japanese Restaurant,1.3873705,103.8694069,41
552,13 Dempsey Road#01-07Singapore (249674),Modern Asian,Hathaway,1.3047447,103.8103509,20
553,407 Jalan Besar Road Singapore (209012),"Fusion, Seafood",Haven Bistro,1.3137754,103.8597872,8
554,1 Keong Saik Road Singapore (089109),"American, Bar, Vietnamese",Heart of Darkness,1.2789177,103.8414072,31
555,273 Holland Avenue#01-01Singapore (278992),"French, Fusion, Cafe",Heirloom Bistro,1.3114,103.79564,9
556,12 Artillery Avenue#01-04/05/06Singapore (099953),Japanese,Hide by Hide Yamamoto,1.252019,103.820981,14
557,38 Jalan Pemimpin#01-03M38 Singapore (577178),"American, Fusion",The Hideout at District 20,1.34834,103.8416902,32
558,581 Orchard Road Lobby Level Hilton Singapore Singapore (238883),"International, Vegetarian Friendly",Hilton All-Day Pop-Up Restaurant,1.305891,103.82942,44
559,65 Circular Road Singapore (049419),"Bar, Japanese, BBQ",The Hitsuji Club,1.2863483,103.8491838,24
560,33-35 Pekin Street Far East Square Singapore (048763),Japanese,Hokkai Villa,1.2837308,103.8483466,4
561,3B River Valley Road#01-01Singapore (179024),"Bar, Vegetarian Friendly, Pizza, Burgers",Holey Moley Golf Club (Dining),1.2958784,103.839736,38
562,13 Stamford Road#01-85 Singapore (178905),"Seafood, Southeast Asian, Modern Asian",HolyCrab,1.2930748,103.8510451,16
563,1 Joo Chiat Place Singapore (427739),"Chinese, Seafood, Halal Certified",Home Of Seafood,1.3132318,103.8998721,42
564,1088 Serangoon Road Singapore (328188),"American, Bar, BBQ",Homeground Grill & Bar,1.3238241,103.8650069,37
565,200 Victoria Street#B1-06Bugis Junction Singapore (188021),Chinese,Honguo (Bugis Junction),1.2992907,103.8553101,16
566,23 Serangoon Central#B1-75NEX Singapore (556083),Chinese,Honguo (NEX),1.3507723,103.8722585,36
567,3 South Buona Vista Road#B1-06Viva Vista Mall Singapore (118136),"American, Cafe",HooHa Cafe,1.279654,103.7861058,27
568,45 Malan Road Singapore (109443),"Bar, Fusion, BBQ",Hopscotch,1.274611,103.8039141,27
569,"583 Orchard Road, #B1-39Forum the Shopping Mall Singapore (238884)","Bar, Japanese",The Horse's Mouth,1.3061111,103.8286111,44
570,3D River Valley Road#01-06Singapore (179023),"American, Bar, Modern European, Steakhouse",Hot Stones Steak and Seafood,1.2958766,103.8397164,38
571,163 Tanglin Road#03-17Tanglin Mall Singapore (247933),"Modern European, Greek",House of AnLi Bistro,1.305035,103.823981,44
572,21 Arab Street Singapore (199844),"Vegetarian Friendly, BBQ, Turkish",House of Kebab,1.3003495,103.8597744,8
573,3A River Valley Road#A2-02Clarke Quay Singapore (179020),"Chinese, Seafood, BBQ",House of Seafood (Clarke Quay),1.289583,103.8450571,24
574,3 Punggol Point Road#01-01/02The Punggol Settlement Singapore (828694),"Chinese, Seafood, Local, Dim Sum, Zi Char",House of Seafood (Punggol Point),1.4209159,103.9118806,1
575,1 Kim Seng Promenade #01-K101 & #02-K103 Singapore,"Fusion, International",House on the Moon,1.2937233,103.8318946,0
576,"442 Orchard Road Orchard Hotel Singapore, Level 2Singapore (238879)",Chinese,Hua Ting,1.3075,103.8286111,44
577,23 Baghdad Street Singapore (199662),"Middle Eastern, Vegetarian Friendly",Hummus & Grill,1.3011848,103.8597741,8
578,18 Bukit Pasoh Road Singapore (089832),"Bar, Seafood, Vegetarian Friendly",Humpback,1.2790902,103.840797,31
579,3D River Valley Road#01-07Singapore (179023),Chinese,Hutong,1.2958763,103.8397125,38
580,252 North Bridge Road B1-74Raffles City Shopping Centre Singapore (179103),"Korean, BBQ",Hyang-To-Gol Korean Restaurant (Raffles City),1.293548,103.853679,16
581,674 North Bridge Road#01-01Singapore (188804),"Cafe, Burgers",I am... (Haji Lane),1.3016511,103.8584528,8
582,76a Duxton Road Singapore (089535),Bar,IB HQ Singapore,1.2782996,103.8431688,31
583,2 Kovan Road#01-10Simon Plaza Singapore (548008),"Cafe, Modern Asian",Ice Edge Cafe (Kovan),1.3620806,103.8852713,36
584,21 Media Circle#01-05Singapore (138562),"American, Bar, Buffet, Fusion, Burgers",Idle @ Infinite Studios,1.2922144,103.7945491,27
585,581 Orchard Road Level 3Hilton Hotel Singapore (238883),"International, Vegetarian Friendly",Iggy's,1.305891,103.82942,44
586,"9 North Buona Vista Drive, #01-06/07Singapore (138588)",Japanese,IKKI Izakaya,1.3057338,103.7918068,9
587,581 Orchard Road Level 24Hilton Singapore Singapore (238883),"Italian, Vegetarian Friendly",il Cielo,1.3059187,103.8293246,44
588,215 South Bridge Road Singapore (058764),"Chinese, Steamboat",Imperi Health Pot,1.2829497,103.8458899,4
589,30 Stevens Road#01-04/05Singapore (257840),Italian,In Piazza,1.3139157,103.8284694,44
590,27 Upper East Coast Road Singapore (455211),"Indian, Vegetarian Friendly",Indian Curry House (Siglap),1.3130881,103.9263173,6
591,49 Boat Quay Singapore (049838),"Indian, Vegetarian Friendly",Indian House (49 Boat Quay),1.2869596,103.8493865,24
592,1 Scotts Road#03-09Shaw Centre Singapore (228208),Peranakan,Indigo Blue Kitchen,1.3062932,103.8318472,11
593,28 Keong Saik Road Singapore (089135),"Bar, Buffet, Indian, Vegetarian Friendly",Indline Restaurant,1.2802067,103.8416919,31
594,35 Scotts Road Singapore (228227),"Vegetarian Friendly, Peranakan",Indocafe - The White House,1.3110536,103.8354912,11
595,30 Victoria Street#01-21/22Singapore (187996),"Bar, Thai, Vietnamese, Fusion, Local, Southeast Asian",IndoChine (CHIJMES),1.2949219,103.8526895,16
596,4 Hillview Rise#02-01Hill V2Singapore (667979),"Bar, Italian, Vegetarian Friendly, Pizza",iO Italian Osteria Singapore,1.3629834,103.7645009,48
597,17B Dempsey Road Singapore (249676),Japanese,Ippoh Tempura Bar,1.3056641,103.8102429,20
598,1 Kim Seng Promenade#01-123Great World City Singapore (237994),Japanese,Issho Izakaya (Great World City),1.2936417,103.8319293,0
599,17 Baghdad Street Singapore (199656),"Middle Eastern, Greek",Istanblue Meze & Grill Turkish Restaurant,1.3012406,103.8595939,8
600,2 Jurong East Central 1#04-19J Cube Singapore (609731),"Japanese, Halal Certified",Isuramuya Japanese Restaurant and Marketplace,1.33331,103.7401992,3
601,190 Middle Road#03-01Fortune Centre Singapore (188979),Japanese,Izakaya Hikari,1.3004744,103.8520542,45
602,27 Club Street Singapore (069413),"Bar, Local, Southeast Asian, Modern Asian",Izy Fook,1.2824263,103.846543,4
603,81 Anson Road Level 9M Hotel Singapore Singapore (079908),"American, Bar",J Bar,1.273767,103.8450399,31
604,1A Cuscaden Road Level 1Hotel Jen Tanglin Singapore Singapore (249716),"Buffet, Chinese, Malaysian, International, Seafood, All-Day Breakfast, Local, Southeast Asian",J65 @ Hotel Jen Tanglin,1.304358,103.82392,44
605,"1 Fullerton Square, Singapore (049178)",Chinese,Jade,1.2862279,103.8530525,49
606,384 East Coast Road Singapore (428988),"Modern European, Spanish, Vegetarian Friendly",Jag Wine,1.3087041,103.9114684,23
607,583 Orchard Road#01-01/04Forum The Shopping Mall Singapore (238884),"Bar, Italian, Vegetarian Friendly",Jamie's Italian (Forum),1.3061111,103.8286111,44
608,74 Neil Road Singapore (088839),"Bar, Fusion, Local, Modern Asian",Jekyll & Hyde,1.2798303,103.8424746,31
609,1 Farrer Park Station Road#01-14/15/16One Farrer Hotel Connexion Singapore (217562),"Chinese, Seafood, Vegetarian Friendly, Local, Dim Sum",Jia He Chinese Restaurant,1.3125457,103.8543732,8
610,6 Raffles Boulevard#03-128Marina Square Singapore (039594),"Chinese, Vegetarian Friendly, Local, Southeast Asian, Modern Asian",Jia He Xing Dumpling 嘉合兴,1.2911534,103.8576778,12
611,50 East Coast Road Roxy Square Singapore,"Chinese, Vegetarian Friendly, Local",Jia Wei Chinese Restaurant,1.3039864,103.9043811,23
612,8 Raffles Avenue#02-14Esplanade Mall Singapore (039802),Chinese,Jiak Modern Tzechar (Esplanade),1.2893743,103.8558855,12
613,4 Hillview Rise#02-04Hillv2Singapore (667979),"Chinese, Malaysian, Seafood, Vegetarian Friendly, Local, Halal Certified, Zi Char",Jiak Modern Tzechar (Hillview),1.363354,103.7643204,48
614,190 Orchard Boulevard Level 2Four Seasons Hotel Singapore Singapore (248646),"Chinese, Seafood, Dim Sum",Jiang-Nan Chun Restaurant,1.3052778,103.8283333,44
615,165 Tanjong Pagar Road Amara Singapore Singapore (088539),Bar,Jigger & Pony,1.2747537,103.8435337,31
616,45 Minden Road Singapore (248817),Thai,Jim Thompson Thai Restaurant and Wine Bar,1.3055206,103.8155129,20
617,9 King Albert Park#01-27Singapore (598332),Japanese,Jimoto Dining,1.3370239,103.7794324,17
618,76 Telok Ayer Street#01-02Amoy Hotel Singapore (048464),Japanese,Jin Fine Dining,1.2829731,103.8487244,4
619,"1 Fullerton Road, #01-02/03, One Fullerton, Singapore (049213)","Chinese, Seafood, Local, Dim Sum, Zi Char",JING Seafood Restaurant,1.2856406,103.8539179,49
620,1 Scotts Road#02-19/20Shaw Centre Singapore (228208),"Bar, Japanese, BBQ",Jinjo,1.3064372,103.8316534,11
621,5 Tan Quee Lan Street Singapore (188094),"Bar, Korean, Vegetarian Friendly",Joo Bar,1.2981769,103.8569231,16
622,391A Orchard Road#02-13Takashimaya Singapore (238873),"American, Vegetarian Friendly, Halal Certified, Cafe, Pizza",JTSH Cafe,1.3025572,103.834568,11
623,Block 11 Dempsey Road#01-16Singapore (249673),"Chinese, Seafood, Local, Zi Char",JUMBO Seafood (Dempsey Hill),1.3043337,103.8099395,20
624,Blk 1206 East Coast Parkway#01-07/08East Coast Seafood Centre Singapore (449883),"Chinese, Seafood, Local, Zi Char",JUMBO Seafood (East Coast Seafood Centre),1.3051669,103.930673,6
625,2 Orchard Turn#04-09/10ION Orchard Singapore (238801),"Chinese, Seafood, Local, Dim Sum",JUMBO Seafood (ION Orchard),1.3039288,103.8319512,11
626,"78 Airport Boulevard#03-202, 203 & 204Jewel Changi Airport Singapore (819666)","Chinese, Seafood, Local",JUMBO Seafood (Jewel Changi Airport),1.3583193,103.9889212,21
627,30 Merchant Road#01-01/02Riverside Point Singapore (058282),"Chinese, Seafood, Local, Zi Char",JUMBO Seafood (Riverside Point),1.2889419,103.8446997,24
628,20 Upper Circular Road#B1-48The Riverwalk Singapore (058416),"Chinese, Seafood, Local, Zi Char",JUMBO Seafood (The Riverwalk),1.2891375,103.8483462,24
629,20 Biopolis Way#01-01Centros Singapore (138668),"Korean, BBQ",Jun BBQ & Beer,1.3037881,103.7921115,9
630,"2 Orchard Turn Level 56, ION Sky Singapore (238801)","Malaysian, Fusion, Local, Cafe, Burgers",Jurassic World Cafe Singapore,1.304052,103.831767,11
631,2 Bayfront Avenue L1-83The Shoppes at Marina Bay Sands Singapore (018972),"Chinese, Local, Modern Asian",JustIN Flavours of Asia,1.2837366,103.8591923,49
632,"78 Airport Boulevard#01-223,224/225Singapore (819666)",Japanese,JW360 Suju Masayuki Japanese Restaurant,1.3603912,103.989642,21
633,38A Martin Road#01-02Singapore (239072),"Japanese, Seafood",JYPSY Martin Road,1.2921214,103.8380038,34
634,"181 South Bridge Road#02-01Capri by Fraser, China Square Singapore (058743)","Buffet, Chinese, International, Seafood, All-Day Breakfast",JÙN Restaurant,1.2835222,103.8469123,4
635,2 College Road Singapore (169850),"Chinese, Vegetarian Friendly",Ka-Soh (Outram),1.2824347,103.836047,0
636,200A Telok Ayer Street Singapore (068638),"Bar, Japanese, Modern Asian",Kabuke,1.2802066,103.8471007,4
637,6 Raffles Boulevard#03-128A/128B Marina Square Singapore (039594),"Chinese, Seafood, Dim Sum",Kai Garden (Marina Square),1.2905266,103.8575364,12
638,78 Airport Boulevard#02-210Jewel Changi Airport Singapore (819666),Chinese,Kam's Roast (Jewel Changi Airport),1.3603912,103.989642,21
639,9 Scotts Road#01-04/05/06/07Pacific Plaza Singapore (228210),"Chinese, Southeast Asian",Kam's Roast (Pacific Plaza),1.3064965,103.8319905,11
640,30 Robertson Quay#01-54Singapore (238251),Japanese,Kan Sushi (Robertson Quay),1.291333,103.8414166,34
641,10 Anson Road#02-54International Plaza Singapore (079903),Japanese,Kan Sushi (Tanjong Pagar),1.2756998,103.8458098,31
642,40 Lorong Mambong Singapore (277695),Japanese,KANPAI Izakaya & Bar,1.311763,103.794398,9
643,617 Bukit Timah Road Singapore (269718),"American, Vegetarian Friendly, Cafe",KARA Cafe & Dessert Bar,1.3244258,103.8092981,30
644,15 Stamford Road#01-83Singapore (178905),"Japanese, Seafood",Katachi Style Sushi,1.2934493,103.8518286,16
645,25 Marine Parade Road Village Hotel Katong Level 4Singapore (449536),"Buffet, Chinese, Malaysian, Seafood, Local, Peranakan, Halal Certified",Katong Kitchen,1.3037177,103.9029408,23
646,1 Scotts Road#03-07Shaw Centre Singapore 228208,"Modern European, Local, Southeast Asian",Kausmo,1.3063434,103.8318606,11
647,25 Church Street#01-03Capital Square Singapore (049482),"Middle Eastern, Vegetarian Friendly",Kazbar,1.2840326,103.8484637,4
648,200 Turf Club Road#01-12 The Grandstand Singapore (287994),"Bar, Steakhouse, Cafe",Keef The Beef,1.3380084,103.7934418,17
649,Blk 211 Toa Payoh Lorong 8#01-11/15Singapore (310211),"Chinese, Seafood, Zi Char",Kelly Jie Seafood (Formerly TPY Mellben),1.340419,103.8537637,26
650,7 Raffles Boulevard Level 4Pan Pacific Singapore Singapore (039595),Japanese,Keyaki,1.2924176,103.8585852,12
651,166 Serangoon Road Singapore (218050),Indian,Khansama Tandoori Restaurant,1.3081446,103.8530341,8
652,87 Science Park Drive#02-01The Oasis Singapore (118260),Indian,Khansama Tandoori Village,1.2877321,103.7903725,27
653,29 Scotts Road Singapore (228224),Japanese,Ki-Sho,1.3106807,103.8346232,11
654,97 Duxton Road Singapore (089541),"Fusion, Vegetarian Friendly",Kilo Kitchen,1.2794847,103.8432495,31
655,31 Bukit Pasoh Road Singapore (089845),"Local, Southeast Asian, Peranakan",Kin,1.279295,103.840375,31
656,35 Circular Road Singapore (049391),"Bar, Thai, Seafood",Kin-D,1.2865665,103.8491271,24
657,24 Purvis Street Level 2Singapore (188601),"American, Bar, Cafe",King and the Pawn,1.296154,103.855399,16
658,11 Unity Street#01-18/29Robertson Walk Singapore (237995),"Bar, Modern European",King Ohmii,1.291844,103.8411449,34
659,17 Teck Chye Terrace Singapore (545724),"Buffet, Chinese, Seafood, Local, Steamboat",King's Laksa Steamboat,1.3532582,103.876565,36
660,70 Collyer Quay#02-02 Customs House Singapore (049323),"Bar, Japanese, Vegetarian Friendly",Kinki Restaurant,1.2824913,103.8534753,49
661,81 Tras Street Singapore (079020),"Bar, French, Fusion, International",Kinou,1.2773537,103.8443252,31
662,405 Havelock Road Level 3Furama River Front Singapore Singapore (169633),"Buffet, Indonesian, Halal Certified",Kintamani Indonesian Restaurant,1.28774,103.8359909,0
663,28 Stanley Street Singapore (068737),"All-Day Breakfast, Vegetarian Friendly, Local, Cafe",Kitchen by Food Rebel,1.2809429,103.848283,4
664,21 Ocean Way W Singapore Sentosa Cove Singapore (098374),"Buffet, International, Seafood",the kitchen table (W Singapore – Sentosa Cove),1.2462857,103.8423347,29
665,11 Cairnhill Road#01-01Ascott Orchard Singapore Singapore (229724),"Vegetarian Friendly, Cafe",Kith Cafe (Ascott Orchard),1.3032547,103.837268,38
666,619D Bukit Timah Road Singapore (269724),"Australian, Cafe",Kith Cafe (Bukit Timah),1.3244783,103.8092231,30
667,9 Raffles Boulevard#01-44/45Millenia Walk Singapore (039596),"All-Day Breakfast, Cafe",Kith Cafe (Millenia Walk),1.2921214,103.8595792,12
668,75 Amoy Street Singapore (069894),Japanese,Kiyoshi Japanese Restaurant,1.2803924,103.8467764,4
669,68 Tanjong Pagar Singapore (088489),Korean,Kko Kko Na Ra (Tanjong Pagar),1.2787992,103.8437687,31
670,185 Upper Thomson Road Singapore (574333),Cafe,Knockhouse Cafe,1.3514312,103.8353286,32
671,"1 The Knolls, Sentosa Island Singapore (098297)",Modern European,The Knolls,1.249141,103.8248866,14
672,160 Paya Lebar Road#01-07Orion@Paya Lebar Singapore (409022),"All-Day Breakfast, Cafe",Knots Cafe and Living,1.3293132,103.8901747,2
673,8 Rodyk Street#01-05/06Singapore (238216),"Bar, Modern European, Cafe",KOB - Kingdom of Belgians,1.2902204,103.8376575,34
674,4 & 6 Jalan Kledek Singapore (199261),Thai,Koh Nangkam,1.3035759,103.8591077,8
675,3 Pickering Street#01-42Nankin Row Singapore (048660),Japanese,Koji Sushi Bar (Pickering Street),1.2844559,103.8471133,4
676,252 North Bridge Road#03-28A Raffles City Shopping Centre Singapore (179103),Japanese,Koji Sushi Bar (Raffles City),1.2937585,103.8534331,16
677,2 Bayfront Avenue#B1-67Marina Bay Sands Singapore (018972),"Bar, Japanese, Vegetarian Friendly",KOMA Singapore,1.2836602,103.8592707,49
678,366 Orchard Road Level 10YOTEL Singapore Singapore (238904),"Bar, Fusion, International, Vegetarian Friendly",KOMYUNITI,1.3064431,103.8319819,11
679,11 Rhu Cross#01-02Singapore (437440),"American, Bar, Buffet, Italian, Seafood, Steakhouse, Vegetarian Friendly",Kontiki,1.2950157,103.8673318,12
680,"2 Stamford Road Level 2, Swissotel The Stamford,Singapore (178882)",Local,Kopi Tiam,1.2932771,103.8535076,16
681,5 Dunlop Street#02-00Singapore (209335),"Korean, Fusion, BBQ",Korean Fusion BBQ (Dunlop Street),1.3043556,103.8541612,8
682,2 Dickson Road Wanderlust Hotel Singapore (209494),Indian,Kotuwa,1.3051497,103.854646,8
683,8 Jalan Klapa Singapore (199320),"Cafe, Dessert Only",Kumoya @ Jalan Klapa,1.3042989,103.8599996,8
684,181 Orchard Road#04-08Orchard Central Singapore (238896),"Cafe, Dessert Only",Kumoya @ Orchard Central,1.3006295,103.8398742,38
685,9 Raffles Boulevard#02-07Millenia Walk Singapore (039596),"Bar, Japanese",Kurama Robatayaki X Sushi Murasaki,1.2928181,103.8598344,12
686,182 Cecil Street#02-11Frasers Tower Singapore (069547),Japanese,Kure Menya @ Frasers Tower,1.2786632,103.8474008,4
687,1 Kim Seng Promenade#01-127Great World City Singapore (237934),Japanese,Kuriya Dining,1.2936417,103.8319293,0
688,417 River Valley Road Singapore (248316),Indian,Kurry Korner (River Valley),1.2952425,103.8296334,0
689,526 Macpherson Road Singapore (368216),"Bar, Buffet, Japanese",Kushi Japanese Dining,1.3324779,103.8843435,2
690,Sofitel Singapore Sentosa Resort & Spa2 Bukit Manis Road Sentosa Singapore (099891),"Buffet, Chinese, International, Seafood, Vegetarian Friendly, Southeast Asian",Kwee Zeen (Sofitel Sentosa),1.2456916,103.8278754,14
691,111 Somerset Road#02-05/06Singapore (238164),Japanese,Kyoaji Dining,1.3001685,103.8372952,38
692,5 Yong Siak Street Singapore (168643),"Japanese, Seafood",Kyoten Japanese Cuisine,1.2824797,103.830423,0
693,29 Keong Saik Road Singapore (089136),Japanese,Kyuu by Shunsui,1.2799914,103.8414329,31
694,85 Club Street Singapore (069453),French,L'Angelus,1.2817018,103.8456841,4
695,70 Collyer Quay#01-01Customs House Singapore (049323),French,L'Entrecôte The Steak & Fries Bistro (Customs House),1.2824913,103.8534753,49
696,36 Duxton Hill Singapore (089614),"French, Steakhouse",L'Entrecôte The Steak & Fries Bistro (Duxton),1.2784789,103.8428048,31
697,190 Clemenceau Avenue #01-28 Singapore Shopping Centre Singapore (239924),"French, Cafe, Dessert Only",L'éclair Pâtisserie,1.298267,103.844008,38
698,214 East Coast Road Singapore (428913),"Bar, French, Italian, Cafe",La Bonne Table,1.307333,103.907265,23
699,5 Greendale Ave Singapore (289501),Italian,La Braceria,1.3317936,103.8071613,30
700,80 Collyer Quay Lobby Level The Fullerton Bay Hotel Singapore (049326),"Modern European, French",La Brasserie,1.2832383,103.8536272,49
701,1 Beach Road Raffles Hotel Singapore Singapore (189673),French,La Dame de Pic,1.2948829,103.8544791,16
702,35 Selegie Road#01-06Parklane Shopping Mall Singapore (188307),"Chinese, Steamboat",La Jiang Shan Hotpot,1.3006866,103.8493616,45
703,80 Mohamad Sultan Road#01-10The Pier @ Robertson Quay Singapore (239013),Bar,La Maison du Whisky,1.2918135,103.8406509,34
704,26/26B Lorong Mambong Singapore (277685),"Italian, Vegetarian Friendly",La Nonna (Holland Village),1.3116818,103.7948547,9
705,81A Clemenceau Ave#01-22UE Square Singapore (239917),"Bar, Spanish, Cafe",La Pasteleria Kitchen and Bar,1.2921679,103.8426697,34
706,19 Kalidasa Avenue Singapore,Italian,La Pizzaiola (Delivery),1.3814902,103.8297208,39
707,52 West Coast Ferry Road Level 2Singapore (126887),"Italian, Vegetarian Friendly, Pizza",La Pizzeria at Bridge and Beacon Bar,1.2926833,103.7626794,22
708,11 Dempsey Road#01-17Singapore (249673),Mexican,La Salsa,1.3042341,103.8100792,20
709,13 Stamford Road Arcade @ The Capitol Kempinski Singapore (178906),Italian,La Scala Ristorante (The Capitol Kempinski Hotel Singapore),1.293891,103.8513613,16
710,1 Scotts Road#01-13Shaw Centre Singapore (228208),Italian,La Strada,1.3062932,103.8318472,11
711,1 Scotts Road#02-18Shaw Centre Singapore (228208),Spanish,La Tapería Wine & Tapas,1.3062932,103.8318472,11
712,29 Tanglin Road Level 2The St. Regis Singapore Singapore (247911),"Italian, Vegetarian Friendly",LaBrezza (The St. Regis Singapore),1.3055457,103.8260886,44
713,56 Tanglin Road#B1-01Singapore (247964),"Italian, Seafood, Pizza",Lafiandra Ristorante,1.3056253,103.8229393,44
714,6 Upper Dickson Road Singapore (207466),Indian,Lagnaa... barefoot dining,1.3063671,103.852261,45
715,Blk 168 Lor 1 Toa Payoh#01-1040Singapore (310168),"Chinese, Malaysian, Seafood, Vegetarian Friendly, Local, Steamboat, Zi Char, Modern Asian",Lai Bao Fish Head Steamboat 徕寶鱼头炉,1.3319248,103.8434952,26
716,80 Collyer Quay Lobby Level The Fullerton Bay Hotel Singapore (049326),Bar,The Landing Point,1.2832383,103.8536272,49
717,390 Victoria Street#05-01Village Hotel Bugis Singapore (188061),"Buffet, Indian, Seafood, Vegetarian Friendly, Local, Halal Certified",The Landmark,1.3023045,103.8578797,8
718,80 Collyer Quay The Fullerton Bay Hotel Singapore (049326),"American, Bar, Fusion, Vegetarian Friendly, Local, Cafe",Lantern,1.2832383,103.8536272,49
719,238 Thomson Road#02-11/12Velocity @ Novena Square Singapore (307683),Chinese,Lao Beijing,1.3198822,103.8439452,26
720,267 Jalan Kayu Singapore (799495),"Chinese, Seafood, Local, Dim Sum, Southeast Asian, Zi Char",Lao Hero Kitchen,1.3970612,103.8729946,25
721,333A Orchard Road#04-01/31Mandarin Gallery Mandarin Orchard Singapore (238897),"American, Steakhouse",Lawry's The Prime Rib Singapore,1.302037,103.8362722,38
722,115 Amoy Street#01-04Singapore (069935),"Japanese, French, Fusion",Le Binchotan,1.282329,103.847521,4
723,53 Armenian Street Singapore (179940),"Bar, French, Vegetarian Friendly",Le Bistrot Du Sommelier,1.2945799,103.8492973,16
724,29 Club Street Singapore (069414),Bar,Le Bon Funk,1.282407,103.8465012,4
725,"80 Mohamed Sultan Road#01-7, 8/9Singapore (239013)","Chinese, Fusion, International, Modern Asian",Le Fusion,1.2915196,103.8407372,34
726,"2 Bayfront Avenue01-84 Bay Level, The Shoppes at Marina Bay Sands Singapore (018972)","Fusion, International, Pizza",Le Noir (Marina Bay Sands),1.2837366,103.8591923,49
727,903 Bukit Timah Road Singapore (589620),"Bar, Indian, French, Greek, Vegetarian Friendly","Le Rida (Mediterranean, French & North Indian Cuisine)",1.3331752,103.7902874,17
728,Sofitel Singapore Sentosa Resort and Spa Hotel2 Bukit Manis Road Sentosa Singapore (099891),"Bar, Japanese, French, Seafood",LeBar,1.2456916,103.8278754,14
729,350 Orchard Road#01-K2 & #01-K3Shaw House Singapore,Mon-Sun: 11:30am-9pm,Leckerbaer (Delivery),1.305645,103.8315277,11
730,10 Science Centre Road#01-23Singapore (609079),"Chinese, Seafood, Zi Char",Legacy Seafood,1.3307311,103.737877,3
731,96 Tanjong Pagar Road Singapore (088517),"Bar, Modern European, Vegetarian Friendly, German",Leopold,1.278229,103.8437469,31
732,104 Amoy Street Singapore (069924),"Modern European, French, Fusion",Lerouy,1.281748,103.847368,4
733,1 Scotts Road#01-16Shaw Centre Singapore (228208),French,Les Amis,1.3066019,103.8314361,11
734,7 Ann Siang Road Singapore (069689),"French, Steakhouse",Les Bouchons @ Ann Siang,1.2814489,103.8455104,4
735,60 Robertson Quay#01-02Singapore (238252),"French, Steakhouse",Les Bouchons Rive Gauche at Robertson Quay,1.2903566,103.8394691,34
736,222 Upper Thomson Rd Singapore (574354),"Fusion, All-Day Breakfast, Cafe, Burgers",Les Patisseries,1.3528963,103.8352754,32
737,8 Marina Boulevard#33-01 Marina Bay Financial Centre S(018981),"Bar, International, Seafood, Vegetarian Friendly",LeVeL33,1.2798897,103.8548685,49
738,39 Scotts Road Sheraton Towers Singapore (228230),"Chinese, Dim Sum",Li Bai Cantonese Restaurant,1.3118244,103.8364761,11
739,295 South Bridge Road Singapore (058838),"Chinese, Seafood, Vegetarian Friendly, Modern Asian",Li Ji Chuan Chuan Xiang 李记串串香,1.281333,103.844994,4
740,75 Jellicoe Road#01-01Wavelink Building Singapore (208738),"Bar, Fusion, Seafood, Local",Lighthouse Bistro & Bar,1.3086678,103.8627316,8
741,2 Jiak Chuan Road Singapore (089260),"Bar, Vegetarian Friendly, Caribbean",Lime House Caribbean Restaurant & Bar,1.2796184,103.8417128,31
742,3 Upper Pickering Street PARKROYAL COLLECTION Pickering Singapore (058289),"Bar, International, Vegetarian Friendly, Local, Southeast Asian",Lime Restaurant at PARKROYAL COLLECTION Pickering,1.2858085,103.8460908,24
743,"95 Robertson Quay, Rivergate #01-19/20",Italian,Limoncello,1.2904475,103.8364713,0
744,50 Tiong Bahru Road Singapore (168733),"American, Bar, International",Lin Rooftop Bar,1.2848792,103.8342762,0
745,"22 Orange Grove Road Lower Lobby, Tower Wing Shangri-La Hotel, Singapore Singapore (258350)",Buffet,The Line,1.3112195,103.8263306,44
746,541 Orchard Road#05-01Liat Towers Singapore (238881),"Buffet, Chinese, Vegetarian",LingZhi Vegetarian (Liat Towers),1.3051925,103.8305905,11
747,238 Thomson Road#03-09/10Velocity @ Novena Square Singapore (307683),"Chinese, Vegetarian",LingZhi Vegetarian (Velocity @ Novena Square),1.3198822,103.8439452,26
748,7 Binjai Park Singapore (589821),"Bar, Modern European, Italian, Vegetarian Friendly",LINO,1.3357693,103.7866948,17
749,1 Scotts Road#03-23Shaw Centre Singapore (228208),Italian,LINO Pizza & Pasta Bar,1.3063434,103.8318606,11
750,57 Eng Hoon Street#01-72Singapore (160057),Thai,Little Elephant SG Thai Bistro,1.2848656,103.8335292,0
751,3 Temasek Boulevard#03-304/305Sky Garden Suntec City Mall Singapore (038983),"Chinese, Steamboat, BBQ",Little Lamb Hotpot Suntec (小尾羊),1.2950331,103.8584935,12
752,789 Bukit Timah Road#01-01Singapore (269763),"American, All-Day Breakfast, Cafe",Little Lazy Lizard,1.3310677,103.7961449,17
753,1 Fullerton Road#01-05One Fullerton Singapore (049213),Steamboat,Little Sheep Hot Pot @ One Fullerton,1.2861349,103.8539595,49
754,277 Orchard Road#B1-13Orchard Gateway Singapore (238858),Steamboat,Little Sheep Hot Pot @ Orchard Gateway,1.3009584,103.8389111,38
755,20 Bukit Pasoh Road Singapore (089832),Bar,Live Twice,1.279116,103.8409437,31
756,"11 Cavenagh Road,Holiday Inn Singapore Orchard City Centre,Singapore (229616)","Bar, Seafood, Vegetarian Friendly, Pizza, Burgers",Lobby Lounge & Bar at Holiday Inn Singapore Orchard City Centre,1.3023125,103.8410344,38
757,320 Orchard Road Marriott Tang Plaza Singapore (238865),"Bar, International, Local, Cafe",Lobby Lounge @ Marriott Tang Plaza,1.3052151,103.8329675,11
758,22 Orange Grove Road Lobby Level Tower Wing Shangri-La Hotel Singapore Singapore (258350),"Buffet, Local, Peranakan",The Lobby Lounge @ Shangri-La Hotel,1.3112195,103.8263306,44
759,80 Middle Road Level 1Inter Continental Singapore Singapore (188966),International,The Lobby Lounge at InterContinental Singapore,1.2983644,103.8549173,16
760,12 Marina View Level 32Asia Square Tower 2Singapore (018961),"Bar, International, Seafood",Lobby Lounge at The Westin Singapore,1.2779532,103.8509025,4
761,136 Neil Road Singapore (088865),"Bar, Australian, All-Day Breakfast, Vegetarian Friendly",The Lokal,1.2783744,103.8408913,31
762,"68 Orchard Road #03-01/02,Plaza Singapura Singapore (238839)","American, Chinese, Seafood",Lokkee,1.3007882,103.8447839,38
763,22 Ann Siang Road Singapore (069702),International,Lolla,1.2810553,103.8456513,4
764,15 Duxton Road Singapore (089481),"Bar, International, Burgers",Lombardo's Singapore,1.2797794,103.8434123,31
765,25 Dempsey Road Singapore (249670),"Chinese, Seafood, Local",Long Beach @ Dempsey,1.3063069,103.8119617,20
766,60 Robertson Quay#01-14The Quayside Singapore (238252),"Chinese, Seafood, Local, Dim Sum",Long Beach @ Robertson Quay,1.2900873,103.8353025,0
767,18 Hong Kong Street Singapore (059661),"Chinese, Seafood, Local, Steamboat",LongQing,1.2878181,103.8472931,24
768,"331 North Bridge Road, Odeon Towers Singapore (188720)","Bar, Local, Southeast Asian",Loof,1.2962396,103.8532832,16
769,85 Circular Road#01-01Singapore (049437),"Bar, Vegetarian Friendly, Mexican",Los Amigos Taqueria,1.2874271,103.8488084,24
770,76A Duxton Road Level 2Singapore (089535),French,The Lounge Bar,1.2782996,103.8431688,31
771,29 Boon Tat Street Singapore (069624),"Bar, French",LQV Le Quinze Vins,1.2812057,103.8486065,4
772,32 Bussorah Street Singapore (199450),Middle Eastern,Lubnan Authentic Lebanese Cuisine,1.301653,103.859825,8
773,15 Duxton Hill Singapore (089598),Mexican,Lucha Loco,1.2788001,103.8427067,31
774,20 Cross Street#01-36China Square Central Singapore (048422),"Modern European, Italian, Pizza",LUKA @ Cross Street Exchange,1.283775,103.8474967,4
775,18 Tanjong Pajar Road Singapore (088441),"Modern European, Italian, Pizza",LUKA @ Tanjong Pagar,1.2799741,103.843828,31
776,50 South Bridge Road#1-00CMO Building Singapore (058682),Modern European,Lumo,1.2876212,103.8481877,24
777,501 Orchard Road#01-K2Wheelock Place Singapore (238880),"All-Day Breakfast, British, Vegetarian Friendly, Cafe",M&S Café (Wheelock Place),1.3047145,103.8305375,11
778,32 Beach Road The NCO Club Singapore (189764),"Chinese, Seafood, Dim Sum",Madame Fan,1.2940932,103.8550067,16
779,26 Tai Seng Street#01-02Singapore (534057),Chinese,Made In Orient by Chef Avenue,1.3355054,103.8892064,2
780,Blk 44 Jalan Merah Saga#01-60 Chip Bee Gardens Holland Village Singapore 278116,Italian,Madrinaa Italiano,1.3113911,103.7965864,9
781,55 Keong Saik Road#01-06Singapore (089158),"Modern European, French",Mag's Wine Kitchen,1.2806857,103.8414578,31
782,123 Telok Ayer Street Singapore (068592),"Korean, Seafood, Vegetarian Friendly, BBQ",Magal BBQ (마포갈매기),1.2811642,103.8480812,4
783,391 Orchard Road#05-31Ngee Ann City Singapore (238878),"Japanese, Steakhouse, BBQ",Magosaburo,1.3025572,103.834568,11
784,41 Boat Quay Singapore (049830),Indian,Maharajah,1.2865493,103.849507,24
785,"18 Marina Gardens Drive #01-10Below Flower Dome, Gardens By The Bay Singapore (018953)","Chinese, Seafood, Local, Dim Sum, Zi Char",Majestic Bay Seafood Restaurant,1.2815683,103.8636132,49
786,5 Straits View#04-01Marina One The Heart Singapore (018935),"Chinese, Dim Sum",Majestic Restaurant,1.2779663,103.8528486,49
787,4190 Ang Mo Kio Ave 6 #02-02Broadway Plaza Singapore (569841),Bar,Major 99,1.3719561,103.8459506,10
788,277 Orchard Road#10-01Hotel Jen Orchardgateway Singapore (238858),"International, Seafood, All-Day Breakfast, Local",Makan@Jen,1.300864,103.8388283,38
789,71 Bussorah Street Singapore (199484),Cafe,The Malayan Council (Bussorah Street),1.3008556,103.8599303,8
790,22 Dunlop Street Singapore (209350),"Fusion, Vegetarian Friendly, Cafe",The Malayan Council (Dunlop),1.304478,103.854094,8
791,10 Winstedt Road#01-27Singapore (227977),"Fusion, Vegetarian Friendly",The Malayan Council (Winstedt),1.3093609,103.841643,11
792,6 Raffles Boulevard#01-07/08Marina Square Singapore (039594),Bar,malts,1.2911534,103.8576778,12
793,80 Middle Road Level 2Inter Continental Singapore Singapore (188966),"Chinese, Dim Sum",Man Fu Yuan,1.2983644,103.8549173,16
794,1 Keong Saik Road#01-01Singapore (089109),Japanese,Man Man Japanese Unagi Restaurant (Delivery),1.2789177,103.8414072,31
795,1 Cuscaden Road Level 2Regent Singapore Singapore (249715),"American, Bar, Seafood",Manhattan,1.3046549,103.8249313,44
796,5 Magazine Road#01-01Central Mall Singapore (059571),Japanese,Manpei 万平,1.288485,103.8425587,34
797,39-40 Duxton Road Singapore (089503),"Italian, Seafood, South American",Marcy's,1.2787642,103.8435226,31
798,Blk 11 Dempsey Road#01-19Singapore (249673),"Vegetarian Friendly, Mexican",Margarita's Dempsey Hill,1.3043337,103.8099395,20
799,208 Telok Ayer Street Singapore (068642),"American, Bar, Seafood, Steakhouse, Cajun, Burgers",The Market Grill,1.2799688,103.8471269,4
800,100 Peck Seah Street#01-01Oasia Hotel Downtown Singapore (079333),"American, Local, Cafe",The Marmalade Pantry (Downtown),1.2758848,103.8444575,31
801,2 Orchard Turn#04-11AION Orchard Singapore (238801),"American, Cafe",The Marmalade Pantry (ION Orchard),1.3039288,103.8319512,11
802,8 Sinaran Drive#01-02/04Oasia Hotel Novena Singapore (307470),"American, Local, Cafe",The Marmalade Pantry (Novena),1.3200679,103.8445577,26
803,320 Orchard Road Lobby Level Singapore Marriott Tang Plaza Hotel Singapore (238865),International,Marriott Café,1.3052151,103.8329675,11
804,12 Gopeng Street#01-05Icon Village Singapore (078877),"Bar, Japanese, Fusion, Modern Asian",Maru Japanese Restaurant,1.2753013,103.8443917,31
805,116 Telok Ayer Street Singapore (068585),Japanese,MARUKYU,1.281985,103.8482364,4
806,86 Robertson Quay Singapore (238245),Japanese,Marusaya,1.2900394,103.8373405,34
807,23-24 Circular Road Singapore (049380),"Bar, Indian, Middle Eastern, Vegetarian Friendly, Mexican",The Mask,1.287175,103.8490811,24
808,290 Orchard Road#05-04Paragon Singapore (238859),Japanese,Matsukiya,1.3038699,103.8357982,11
809,15 Beach Road#01-01Beach Centre Singapore (189677),"Japanese, Seafood",Matsuya Dining,1.2958614,103.8555479,16
810,72 Bussorah Street Singapore (199485),"Middle Eastern, Seafood, Vegetarian Friendly, Halal Certified, Turkish",Maxim Grill Turkish Restaurant,1.3009011,103.8599624,8
811,500 Jalan Sultan#01-11Singapore (199020),"Indian, Vegetarian Friendly",Maya's Kitchen,1.3058549,103.8603848,8
812,56 Club Street Singapore (069431),"Bar, Italian",Mazzo Restaurant & Bar,1.282069,103.8457786,4
813,271 Bukit Timah Road#01-04Balmoral Plaza Singapore (259708),"American, Steakhouse, Burgers",Meat You Here,1.3165038,103.8353812,11
814,7 Fraser Street#01-27Duo Galleria Singapore (189356),"Bar, Steakhouse, Modern Asian",Meating Place,1.2992641,103.8579913,16
815,21 Campbell Lane Singapore (209894),"American, Bar, Steakhouse, BBQ",MeatSmith (Little India),1.305333,103.852458,45
816,167 Telok Ayer Street Singapore (068618),"American, BBQ",MeatSmith (Telok Ayer),1.280169,103.847458,4
817,34B Lorong Mambong Holland Village Singapore (277691),"Middle Eastern, Seafood, Vegetarian Friendly, Vegetarian",The Mediterranean Deli Turk,1.3118387,103.794617,9
818,2 Tampines Central 5#01-35Century Square Singapore (529509),Steakhouse,MediumRare by Saveur,1.3523888,103.9438567,15
819,24 Raffles Place#01-01Clifford Centre Singapore (048621),"Bar, Modern European, Steakhouse",MEDZS Bistro & Bar,1.2837979,103.8525104,49
820,37 East Coast Road Singapore (428755),"French, Italian, Fusion, Steakhouse, All-Day Breakfast, Cafe, Burgers, BBQ",Meet & Meat - Street Food,1.304804,103.902931,23
821,1 Pasir Ris Close#01-302/303Market Square @ Downtown East E!Avenue Singapore (519599),"Chinese, Seafood",Melben Seafood Restaurant,1.3778367,103.9550988,47
822,44A Prinsep Street Singapore (188674),"American, All-Day Breakfast, Cafe, Pizza",Meld's Boba Cafe,1.299575,103.849636,45
823,5 Raffles Avenue The Mandarin Oriental Singapore (039797),"Buffet, International",Melt Cafe,1.2908185,103.8582972,12
824,1 Keong Saik Road Singapore (089109),"Japanese, Korean, Fusion, Modern Asian",Meta Restaurant,1.2789177,103.8414072,31
825,60 Stevens Road Singapore (257854),"Buffet, Chinese, International, Local, Cafe",Metropolitan YMCA Singapore,1.3164696,103.8266074,44
826,10 Scotts Road Grand Hyatt Singapore (228211),"Bar, Chinese, Japanese, Thai, International, Seafood, Steakhouse, Vegetarian Friendly, Local",Mezza9,1.3065838,103.8331003,11
827,60 Robertson Quay#01-12Singapore (238252),Japanese,Mikoto Singapore,1.2903566,103.8394691,34
828,80 Bras Basah Road Level 3Fairmont Singapore Singapore (189560),"Seafood, Vegetarian Friendly, BBQ",Mikuni,1.293396,103.8534619,16
829,3A River Valley Road Level 2Singapore (179020),"Chinese, Modern Asian",Mimi Restaurant,1.2901792,103.8450852,24
830,3 Pickering Street#01-31Nankin Row Singapore (048660),Japanese,Miraku,1.2847536,103.8478027,4
831,5 Stadium Walk#01-40Kallang Leisure Park Singapore (397693),"Japanese, Italian, Fusion, Pizza",Miryoku Bistro,1.3022222,103.8763889,37
832,12 Marina Boulevard#02-08Marina Bay Financial Centre Tower 3Singapore (018982),Japanese,Misaki Japanese Restaurant,1.2790221,103.8544967,49
833,8 Raffles Avenue01-10/12Esplanade Singapore (039802),"Bar, Burgers, BBQ",Mischief,1.289521,103.8559327,12
834,31 Ocean Way#01-07Quayside Isle Sentosa Cove Singapore (098375),"Bar, Italian, All-Day Breakfast, Greek, Vegetarian Friendly, Cafe",Miska Cafe (Sentosa),1.2476808,103.8420723,29
835,62 Ubi Road 1Level 11 Rooftop Oxley Bizhub 2Singapore (408734),"Chinese, Japanese, Italian, Steakhouse, Dim Sum",Mister Wu (HQ),1.3319006,103.8917054,2
836,21 Duxton Road Singapore (089487),"Japanese, Seafood",Mitsu Sushi Bar,1.2794901,103.8433973,31
837,"6 Eu Tong Sen Street #03-88,The Central Singapore (059817)",Japanese,Mitsuba Japanese Restaurant,1.289265,103.846356,24
838,270 Orchard Road Grand Park Orchard Singapore (238857),"Chinese, Dim Sum",Mitzo Restaurant & Bar,1.3035171,103.836278,11
839,74 Duxton Road Singapore (089533),Japanese,Miyu,1.2782543,103.8431378,31
840,6 Stanley Street#01-01Singapore (068725),"Middle Eastern, Vegetarian Friendly",Miznon,1.279986,103.847797,4
841,391 Orchard Road #05-32Ngee Ann City Podium Block Singapore (238872),Japanese,Mizuki,1.3026565,103.8345677,11
842,41 Hong Kong Street #01-01Singapore,Japanese,Mizume,1.2873792,103.847527,24
843,11 Cavan Road#01-04Cavan Suites Singapore (209848),Japanese,Mizuya,1.3109164,103.8613657,8
844,5 Raffles Avenue The Mandarin Oriental Singapore (039797),Bar,MO BAR,1.2908185,103.8582972,12
845,207 River Valley Road#01-58UE Square River Wing Singapore (238275),"Bar, Japanese",MoboMoga,1.2928434,103.8419958,34
846,2 Tessensohn Road#03-01Khalsa Association Singapore (217646),Indian,Moghul Mahal Restaurant,1.31652,103.85713,8
847,25 Boon Tat Street#02-01Singapore (069622),"Bar, Chinese",Mona Lounge,1.2813178,103.8486311,4
848,30 Robertson Quay#01-02A/03Riverside View Singapore (238251),"Bar, Italian, Vegetarian Friendly",Mondo Mio Italian Restaurant & Bar,1.291333,103.8414166,34
849,59 Duxton Road Singapore (089523),"Japanese, Italian",Monte Risaia,1.2779341,103.8433102,31
850,82 Collyer Quay The Fullerton Pavilion Singapore (049327),"Modern European, Italian",Monti,1.2846535,103.8539926,49
851,1 Maju Ave#01-09/10my Village@Serangoon Garden Singapore (556679),"Japanese, Fusion",Monzen@Gardens,1.3650699,103.8652075,10
852,103 Amoy Street Singapore (069923),"Bar, Southeast Asian, Modern Asian",Moonstone,1.2816642,103.847402,4
853,"110 Telok Ayer Street,Singapore (068579)",Modern European,Moosehead Kitchen and Bar,1.2820635,103.8482734,4
854,73 Circular Road#01-01Singapore (049427),"Chinese, Local",MooTeow Chilli Beef Kway Teow,1.2866106,103.8489358,24
855,100 Tras Street#01-04100 AM Singapore (079027),"Bar, Italian, Cafe",Morettino Italian Café & Bistro,1.2750063,103.8435656,31
856,3 Temasek Boulevard#01-645/646Suntec City Singapore (038983),"American, Bar, Australian, BBQ",Morganfield's Suntec City,1.2943939,103.8602506,12
857,25 Dempsey Road#01-04Singapore (249670),Fusion,Morsels,1.3063069,103.8119617,20
858,5 Raffles Avenue4th Floor Mandarin Oriental Singapore Singapore (039797),"American, Bar, Steakhouse, Vegetarian Friendly, Cajun",Morton's The Steakhouse,1.2908185,103.8582972,12
859,"3A River Valley Road #01-01A,Clarke Quay Singapore (179020)","Italian, Vegetarian Friendly",Motorino,1.2902826,103.8451049,24
860,38 Maxwell Road#01-01Air View Building Singapore (069116),"Chinese, Seafood, Vegetarian Friendly, Dim Sum, Zi Char",Mouth Restaurant,1.2788889,103.8450403,31
861,8 Shenton Way#B1-24AXA Tower Singapore (068811),"Indian, Vegetarian Friendly, Local",Mr Biryani,1.2757877,103.8472211,31
862,42 Smith Street Singapore (058956),"Chinese, Local, Steamboat",Mr Lion HotPot,1.2827489,103.8436611,4
863,3D River Valley Road#01-04Clarke Quay Singapore (179023),Mexican,Muchos,1.2898252,103.8455401,24
864,83/84 Circular Road#01-01Singapore (049435),"Chinese, Fusion, Local",MxG Classics,1.2873385,103.848832,24
865,207 Balestier Road Singapore (329683),"American, Bar, All-Day Breakfast, Vegetarian Friendly, Cafe, Pizza, Burgers",MY Cafe & Bar,1.3210106,103.8525798,26
866,"54 Boat Quay,Singapore (049843)",Spanish,My Little Spanish Place (Boat Quay),1.2872065,103.8493309,24
867,"619 Bukit Timah Road, Singapore (269720)",Spanish,My Little Spanish Place (Bukit Timah),1.3244916,103.8093134,30
868,14 Ann Siang Road Singapore (069694),"Bar, Spanish",My Little Tapas Bar,1.2812521,103.8455394,4
869,82 Club Street Singapore (069450),"Bar, Japanese, Vegetarian Friendly",Naga Imo,1.2819632,103.845599,4
870,"9 Raffles Place Level 1 & 2, (Walk in via Distrii Main Entrance)Republic Plaza 1Singapore (048619)","Chinese, Fusion, Local, Zi Char",Nalati Restaurant & Events,1.2831532,103.8511017,49
871,"22 Orange Grove Road Level 3Valley Wing, State Room Shangri-La Hotel Singapore (258350)",Japanese,NAMI,1.3112195,103.8263306,44
872,500 Jalan Sultan#01-10Singapore,"Chinese, Seafood, Local",Nan Jing Restaurant,1.3056188,103.8603467,8
873,8 Enggor Street#01-04Singapore (079718),Japanese,Nanami Izakaya,1.2744995,103.8447681,31
874,133 New Bridge Road#02-40Chinatown Point Singapore (059413),"Japanese, Vegetarian Friendly",Nanbantei Japanese Restaurant (Chinatown Point),1.2852093,103.8447228,4
875,"14 Scotts Road #05-132,Far East Plaza Singapore (228213)","Japanese, Vegetarian Friendly",Nanbantei Japanese Restaurant (Far East Plaza),1.3070083,103.8333386,11
876,68 Orchard Road#04-46Plaza Singapura Singapore (238839),"Chinese, Dim Sum",Nanjing Impressions,1.3005317,103.8452356,38
877,206 Telok Ayer Street Singapore (068641),"Bar, Modern European, French",Napoleon Food & Wine Bar,1.2800209,103.8471631,4
878,"10 Tampines North Drive 4#01-05JTC Space, Tampines Food Co Kitchen 14Singapore 528553",Local,Nasi Nuri (Delivery),1.365726,103.9320521,15
879,56 Tanglin Road#01-03Tanglin Post Office Singapore (247964),"American, Seafood, All-Day Breakfast, Cafe, Pizza, Burgers",Nassim Hill Bakery Bistro Bar,1.305515,103.8229623,44
880,1 St Andrews Road#02-01Singapore (178957),"Local, Peranakan",National Kitchen by Violet Oon (National Gallery),1.2902701,103.8517658,24
881,10 Artillery Avenue#02-02Village Hotel at Sentosa Singapore (099951),"International, Local",Native Kitchen,1.2523958,103.8201982,14
882,36 Carpenter Street#01-01Singapore (059915),Japanese,Neon Pigeon,1.2880169,103.8477094,24
883,282B Jalan Besar Singapore (208945),"Chinese, Fusion, Vegetarian",New Fut Kai Vegetarian 新佛界素食,1.3105001,103.8587338,8
884,30 Victoria Street#02-01B/CCHIJMES Singapore (187996),"Seafood, Vegetarian Friendly, Local, Zi Char",New Ubin CHIJMES,1.2953653,103.852459,16
885,18 Tampines Industrial Crescent#01-16Singapore (528605),"Seafood, Local, Zi Char",New Ubin Tampines,1.3753869,103.930532,47
886,16 Ah Hood Road Ramada by Wyndham Singapore at Zhongshan Park Singapore (329982),"Seafood, Vegetarian Friendly, Local, Zi Char",New Ubin Zhongshan Park,1.3270456,103.8465073,26
887,699 East Coast Road Singapore,Spanish,Next Door Spanish Cafe,1.311731,103.922229,6
888,77 Boat Quay Singapore (049865),"Chinese, Steamboat, BBQ",Ni Pang Zi Grilled Fish,1.2882587,103.8491949,24
889,275 Thomson Road#01-01Novena Regency Singapore (307645),"American, Australian, British, Cafe, Pizza, Burgers",Nickeldime Novena,1.3209485,103.8417736,26
890,47 Duxton Road Singapore (089511),Japanese,Niku Katsumata,1.278464,103.8434019,31
891,131 East Coast Road Singapore (428816),"Bar, All-Day Breakfast, Cafe",Ninethirty by Awfully Chocolate,1.3061279,103.904984,23
892,8 Raffles Avenue#01-14/16Esplanade Mall Singapore (039802),"Chinese, Seafood, Local",No Signboard Seafood (Esplanade Mall),1.2891594,103.855659,12
893,1 Harbourfront Walk#03-02Vivo City Singapore (098585),"Chinese, Seafood, Vegetarian Friendly, Dim Sum",No Signboard Seafood (VivoCity),1.2644023,103.8225522,40
894,"109 North Bridge Road#07-38/39Funan Mall Singapore (179097)(Lift Lobby A, near North Bridge Road entrance)","Japanese, Vegetarian Friendly",NOKA by Open Farm Community,1.3010137,103.8577387,8
895,70 Telok Ayer Street Singapore (048458),"Modern European, Fusion, Modern Asian",The Nomads,1.2830095,103.848872,4
896,327 Beach Road Singapore (199560),"Thai, Vegetarian Friendly",Noodle Thai Thai Kitchen @ Beach Road,1.3012613,103.8611825,8
897,8 Raffles Avenue#01-13B Esplanade Mall Singapore (039802),"Fusion, Local, Cafe",Noosh Noodle Bar and Grill,1.2895133,103.8563984,12
898,269 Beach Road Singapore (199546),"French, Fusion, Vegetarian Friendly",NOX - Dine in the Dark,1.3006257,103.8601877,8
899,9 Raffles Boulevard#02-06Millenia Walk Singapore (039596),Japanese,Nozomi by Yoshi,1.2920715,103.859851,12
900,9 Raffles Boulevard02-06Millenia Walk Singapore,Mon-Sun: 12:30-9pm,Nozomi by Yoshi (Delivery),1.2920715,103.859851,12
901,10A Ann Siang Hill Singapore (069789),Bar,Nutmeg & Clove,1.2814135,103.8454703,4
902,273 Thomson Road#01-06Novena Gardens Singapore (307644),"Steakhouse, Modern Asian",O'maJ (Previously Pasta J),1.3205039,103.8420743,26
903,Grand Hyatt Singapore10 Scotts Road Level 5Terrace Wing Singapore (228211),"American, Bar, Buffet, International, Seafood, Vegetarian Friendly",Oasis Restaurant,1.3065838,103.8331003,11
904,809 French Road#1-50Singapore (200809),"All-Day Breakfast, Dessert Only",Oberstrasse,1.3084036,103.8622518,8
905,22 Sentosa Gateway#B1-455/456Resorts World Singapore Singapore (098136),Seafood,Ocean Restaurant,1.2581647,103.8175942,40
906,249 Sembawang Road Singapore (758352),"Bar, Local, BBQ",Oceanspoon Dining (Sembawang Country Club),1.4063019,103.8196099,39
907,562 Serangoon Road Singapore (218178),"Fusion, Seafood, Local",Ohana,1.3143382,103.8577003,8
908,46 Siloso Beach Walk Singapore (099005),"Bar, Vegetarian Friendly",Ola Beach Club,1.2531005,103.8154224,14
909,"12 Marina Boulevard #01-06,Marina Bay Financial Centre Tower 3,Singapore (018982)",Spanish,OLA Cocina Del Mar,1.2790221,103.8544967,49
910,127 Owen Road Singapore (218931),"All-Day Breakfast, Cafe",Old Hen Kitchen,1.3140059,103.8526427,8
911,10 Sinaran Drive#02-80Square 2Singapore (307506),"Chinese, Vegetarian Friendly, Dim Sum",Old Hong Kong Kitchen (Novena),1.3208322,103.8441474,26
912,11 Tanjong Katong Road#02-21Kinex Mall Singapore (437157),"Chinese, Vegetarian Friendly, Dim Sum",Old Hong Kong Kitchen (Paya Lebar),1.3147221,103.8947554,42
913,8 Raffles Ave#02-25Esplanade Mall Singapore (039802),"Vegetarian Friendly, Local, Cafe",Old School Delights (Esplanade),1.2896256,103.8562224,12
914,30 Selegie Road#01-01Selegie Arts Centre Singapore (188351),"International, Local, Cafe",The Old Straits Cafe,1.300122,103.849856,45
915,55 Keong Saik Road#01-03Singapore (089158),"Spanish, International",Olivia Restaurant & Lounge,1.2806857,103.8414578,31
916,190 Orchard Boulevard Lobby Level Four Seasons Hotel Singapore Singapore (248646),"Buffet, International, Vegetarian Friendly, Local",One-Ninety,1.3052778,103.8283333,44
917,190 Orchard Boulevard Four Seasons Hotel Singapore Singapore (248646),"Bar, International, Vegetarian Friendly",One-Ninety Bar,1.3052778,103.8283333,44
918,7 Dunlop Street Singapore (209337),"Buffet, Chinese, Steamboat",Onepot Steamboat Buffet,1.30421,103.854377,8
919,8 Jalan Legundi Singapore (759274),"Bar, Malaysian, Fusion, Vegetarian Friendly, Local",Oops Bistro & Bar,1.441594,103.823693,43
920,130E Minden Road Singapore (248819),"Modern European, Fusion, British, Vegetarian Friendly, Local, Cafe",Open Farm Community,1.3058732,103.8155189,20
921,991B Alexandra Road#01-10Singapore (119970),"Bar, Modern Asian",OPIO Kitchen & Bar (formerly known as Blue Lotus Kitchen & Bar),1.291195,103.8198244,0
922,2 Jurong East Central 1#03-10J Cube Singapore (609731),"Buffet, Korean, BBQ",OPPA Korean BBQ Buffet (Jurong East-JCube),1.33331,103.7401992,3
923,581 Orchard Road Hilton Singapore Singapore (238883),"Bar, International, Steakhouse, Vegetarian Friendly",Opus Bar & Grill,1.305891,103.82942,44
924,22 Orange Grove Road Lobby Level Shangri-La Hotel Singapore Singapore (258350),"Bar, Modern European, Australian, International, Seafood, Steakhouse, Vegetarian Friendly",Origin Grill,1.3112195,103.8263306,44
925,"Blk 43 #01-62 Jalan Merah Saga, Chip Bee Gardens Singapore 278115","Italian, Middle Eastern, Greek, Vegetarian",Original Sin,1.310805,103.796499,9
926,96 Somerset Road#01-01Pan Pacific Serviced Suites Singapore (238163),"Fusion, All-Day Breakfast, Vegetarian Friendly, Cafe, Pizza, Burgers",Oriole Coffee + Bar,1.3009188,103.8377695,38
927,2 Temasek Boulevard Conrad Centennial Hotel Singapore (038982),"Buffet, International",Oscar's,1.2932404,103.8587623,12
928,3 Temasek Boulevard#01-510/511Suntec City Mall Tower 1Singapore (038983),"Bar, Fusion, Local, Pizza",OSG Music Bar + Kitchen,1.29503,103.8583026,12
929,26 Sentosa Gateway#02-140/141Resorts World Sentosa Singapore (098138),"Australian, Steakhouse",Osia Steak & Seafood Grill,1.255179,103.8218107,14
930,28 Ann Siang Road Singapore (069708),Bar,The Other Roof,1.2807255,103.8457872,4
931,320 Orchard Road Singapore Marriott Tang Plaza Hotel Singapore (238865),Bar,The Other Room,1.3052364,103.8325395,11
932,32 Maxwell Road#01-02/03Maxwell Chambers Singapore (069115),"Modern European, Italian",OTTO Ristorante,1.2770184,103.8463762,31
933,277 Orchard Road#04-01Orchard Gateway Singapore (238858),"Australian, Steakhouse, Burgers",Outback Steakhouse,1.3009584,103.8389111,38
934,1 Fullerton Road#01-06One Fullerton Singapore (049213),"American, Bar, All-Day Breakfast, Burgers",OverEasy (One Fullerton),1.2861349,103.8539595,49
935,1 Magazine Road#01-06Central Mall Singapore (059567),"American, Bar, Seafood",Oyster Co. (Magazine Road),1.2883359,103.8422525,34
936,"88/90 Telok Ayer Street, Far East Square Singapore (048470)","Indonesian, Halal Certified",Pagi Sore (Far East Square),1.2826525,103.8486831,4
937,"1 Fullerton Road, #01-09One Fullerton, Singapore (049213)","Chinese, Seafood, Local, Zi Char",Palm Beach Seafood Restaurant,1.2864442,103.8542578,49
938,163 Tanglin Road#02-23Tanglin Mall Singapore (247933),"Italian, International, Middle Eastern, Seafood, Steakhouse, Greek, Vegetarian Friendly, Pizza, Mediterranean","Pano Kato Grill, Pizza & Deli",1.3048533,103.8236186,44
939,5 Changi Business Park Central 1#B1-26/27Changi City Point Singapore (486038),"Vietnamese, Vegetarian Friendly",Paper Rice Vietnamese Kitchen,1.334638,103.9623868,35
940,30 Victoria Street#01-15/16CHIJMES Singapore (187996),"American, Bar, Fusion",Paprika & Cumin,1.2976493,103.8532984,16
941,1 Cuscaden Road Lobby Regent Singapore Singapore (249715),"Bar, Fusion, Local",Park90,1.3047203,103.8248939,44
942,14 Haji Lane Singapore (189207),"Middle Eastern, Turkish",Pasha Mezza and Grill,1.300461,103.859393,8
943,11 Craig Road Singapore (089671),"Italian, Vegetarian Friendly",Pasta Brava,1.2777219,103.842684,31
944,30 Boat Quay Singapore (049819),"Bar, Italian",Pasta Fresca Da Salvatore (Boat Quay),1.2860673,103.8498748,24
945,1 Fifth Avenue#01-02Guthrie House Singapore (268802),"Bar, Italian, Vegetarian Friendly",Pasta Fresca Da Salvatore (Bukit Timah),1.3308419,103.7956357,17
946,9 Upper East Coast Road#01-01Singapore (455203),"Bar, Italian",Pasta Fresca Da Salvatore (Siglap),1.312946,103.925502,6
947,43 Craig Road Singapore (089681),"Italian, Vegetarian Friendly",Pastaria Abate (Tanjong Pagar),1.2781083,103.8420323,31
948,163 Tanglin Road#03-14Tanglin Mall Singapore (247933),"Thai, International, Vegetarian Friendly",Patara Fine Thai Cuisine,1.3048533,103.8236186,44
949,9 Raffles Boulevard#01-01Millenia Walk Singapore (039596),German,Paulaner Bräuhaus,1.2930767,103.8582873,12
950,78 Airport Boulevard#B1-243Jewel Changi Airport Singapore (819666),"Bar, All-Day Breakfast, Cafe",Pazzion Cafe,1.3602082,103.9897593,21
951,133 New Bridge Road#02-36Chinatown Point Singapore (059413),"Chinese, Vegetarian Friendly, Dim Sum",Peach Garden (Chinatown Point),1.2852093,103.8447228,4
952,401 Havelock Road Level 3 Hotel Miramar Singapore (169631),"Buffet, Chinese, Vegetarian Friendly, Dim Sum",Peach Garden (Hotel Miramar),1.2885203,103.8373891,34
953,65 Chulia Street Level 33OCBC Centre Singapore (049513),"Chinese, Vegetarian Friendly, Dim Sum",Peach Garden (OCBC Centre),1.285184,103.8488954,24
954,9 North Buona Vista Drive#02-021 The Metropolis Tower Singapore (138588),"Chinese, Vegetarian Friendly, Dim Sum",Peach Garden (The Metropolis),1.3059208,103.7915907,9
955,301 Upper Thomson Road#01-88Thomson Plaza Singapore (574408),"Chinese, Dim Sum",Peach Garden (Thomson Plaza),1.3547724,103.8314771,32
956,45 Temple Street Singapore (058590),"Chinese, Seafood, Vegetarian Friendly, Dim Sum, Steamboat",Peng Cheng Xiao Chu 彭城小厨,1.2831497,103.8437008,4
957,10 Bukit Chermin Road Mezzanine Singapore (109918),"Chinese, Dim Sum",Peony Jade @ Keppel Club,1.266834,103.8074454,40
958,10 Biopolis Road#01-01Chromos Block Singapore (138670),"Italian, Vegetarian Friendly, Pizza",Peperoni (Biopolis),1.3040831,103.7912893,9
959,95 Frankel Ave Singapore (458221),"Italian, Pizza",Peperoni (Frankel),1.314865,103.9193495,6
960,6 Greenwood Avenue Hillcrest Park Singapore (289195),"Italian, Vegetarian Friendly, Pizza",Peperoni (Greenwood),1.3312371,103.8072633,30
961,3 Temasek Boulevard#B1-130Suntec City Mall Singapore (038983),"Italian, Pizza",Peperoni (Suntec City),1.29503,103.8583026,12
962,267 Upper Thomson Road Singapore (574394),"Italian, Vegetarian Friendly, Pizza",Peperoni (Upper Thomson),1.353611,103.8332532,32
963,56 Zion Road Singapore (247781),"Italian, Pizza",Peperoni (Zion),1.2927324,103.8310451,0
964,78 Airport Boulevard#02-244/245Jewel Changi Airport Singapore (819666),"Modern European, Fusion, Modern Asian",Perch,1.3603912,103.989642,21
965,"Grand Hyatt Singapore,10 Scotts Road,Basement Level,Singapore (228211)","Buffet, Italian, Vegetarian Friendly",Pete's Place,1.3065838,103.8331003,11
966,5 Balmoral Crescent Singapore (259895),"American, Italian",Piatto Bistro Bar,1.3158402,103.8343967,11
967,12 Jalan Kelulut Seletar Hills Singapore (809030),Italian,Pietro Ristorante Italiano,1.3832306,103.8760481,41
968,33 Duxton Road Singapore (089496),"American, Bar, Seafood",Pince & Pints Restaurant and Bar (Duxton),1.2790295,103.8433861,31
969,21 Lorong Liput Singapore (277733),Bar,The Pit Restaurant & Bar,1.3106053,103.7952508,9
970,62 Ubi Road 1Level 11 Rooftop Oxley Bizhub 2Singapore (408734),"American, Italian, Fusion, Pizza",Pizza Addiction (HQ),1.3319006,103.8917054,2
971,8 Haji lane Singapore (189201),"Italian, Vegetarian Friendly, Pizza",Pizza Fabbrica,1.300398,103.859444,8
972,7 Fraser Street#01-01/02Duo Galleria Singapore (189356),"Italian, Pizza",PizzaExpress (Duo),1.2992641,103.8579913,16
973,251 Holland Avenue Holland Village Singapore (278981),"Italian, Pizza",PizzaExpress (Holland Village),1.311264,103.7957241,9
974,78 Airport Boulevard#03-230Jewel Changi Airport Singapore (819666),"Italian, Pizza",PizzaExpress (Jewel),1.3603912,103.989642,21
975,5 Straits View#01-20/21Marina One Singapore (018935),"Bar, Italian, Pizza",PizzaExpress (Marina One),1.2782987,103.8525394,49
976,6 Scotts Road Unit B1-08/09Scotts Square Singapore (228209),"Italian, Pizza",PizzaExpress (Scotts Square),1.305932,103.832888,11
977,302 Beach Road#01-03The Concourse Skyline Singapore (199600),"Italian, Pizza",PizzaFace (Concourse),1.3006998,103.861962,8
978,5 Ridgewood Close Singapore (276696),"Italian, Pizza",PizzaFace (Ridgewood),1.3165552,103.7790207,22
979,46A Prinsep Street#01-01Singapore (188676),"Bar, Greek, Caribbean, Cafe",Place to READ,1.3014027,103.851065,45
980,7 Maju Avenue Serangoon Gardens Estate Singapore (556685),"Bar, Australian",PLONK,1.3652776,103.8654858,10
981,320 Havelock Road Robertson Quay The Warehouse Hotel Singapore (169628),"Local, Modern Asian",Po Restaurant,1.289177,103.837495,34
982,486 Serangoon Road Singapore (218151),Indian,Podi & Poriyal,1.3138746,103.8572289,8
983,18 Marina Gardens Drive#01-09Flower Dome Gardens by the Bay Singapore (018953),"Modern European, Vegetarian Friendly",Pollen,1.2846292,103.8646975,12
984,146 Neil Road Singapore (088875),"American, All-Day Breakfast",The Populus Coffee & Food Co.,1.2782569,103.8406536,31
985,1 Unity Street Park Hotel Clarke Quay Singapore (237983),Modern European,PORTA,1.2914332,103.8423842,34
986,4 Marina Boulevard#01-31The Sail @ Marina Bay Singapore (018986),"Bar, Modern European, Modern Asian",Porters Restaurant & Bar,1.2812533,103.8528303,49
987,66 Bussorah Street Singapore (199479),"Italian, Vegetarian Friendly",Positano Risto,1.3011061,103.8598717,8
988,49 Circular Road Singapore (049404),"Modern European, Italian, Pizza",Positano@RP,1.2859653,103.8495339,24
989,36 Keong Saik Road Singapore (089143),"American, Vegetarian Friendly",Potato Head Singapore,1.2803884,103.8417139,31
990,4 Duxton Hill Singapore (089590),"Modern European, French",Praelum Wine Bistro,1.2793775,103.8429624,31
991,321 Clementi Avenue 3#01-12Singapore (129905),Indian,Prata Alley,1.311998,103.765014,22
992,91 Bencoolen Street #01-17Sunshine Plaza Singapore (189652),"Bar, Thai, Fusion, Cafe",Pratunam Market Place and Bar,1.3005314,103.8508826,45
993,9 Duxton Hill Singapore (089593),"Bar, Chinese, Fusion",Prawn Noodle Bar,1.2793327,103.8428106,31
994,80 Bras Basah Road Level 1Fairmont Singapore Singapore (189560),"Bar, Modern European, Italian, International, Seafood, Cafe, Pizza, Dessert Only, Mediterranean",Prego,1.293396,103.8534619,16
995,182 Cecil Street#03-01/02Frasers Tower Singapore (069547),"Modern European, Vegetarian Friendly",Preludio,1.2786632,103.8474008,4
996,403 Havelock Road Copthorne Kings Hotel Singapore (169632),"Buffet, Local, Peranakan",Princess Terrace Authentic Penang Food,1.2882885,103.8366159,0
997,1 Empress Place Singapore (179555),All-Day Breakfast,Privé (Asian Civilisations Museum),1.287452,103.8513311,24
998,30 Victoria Street#01-33CHIJMES Singapore (187996),"All-Day Breakfast, Burgers",Privé CHIJMES,1.2949233,103.8522688,16
999,3C River Valley Road#01-09Singapore (179019),Burgers,Privé Clarke Quay,1.2958756,103.8397046,38
1000,11 Kent Ridge Drive Storey 4Shaw Foundation Alumni House Singapore (119244),French,Privé Grill @ The University Club,1.2931357,103.7736711,22
1001,2 Keppel Bay Vista Marina At Keppel Bay Singapore (098382),"Australian, All-Day Breakfast",Privé Keppel Bay,1.2640448,103.8125054,40
1002,290 Orchard Road#01-37Singapore (238859),"Bar, All-Day Breakfast, Cafe",Privé Paragon,1.3039054,103.8355763,11
1003,41 Robertson Quay#01-01/02-02Singapore (238236),"Vegetarian Friendly, Cafe",Privé Robertson Quay,1.2911018,103.8402617,34
1004,313 Orchard Road#01-28313@Somerset Singapore (238895),"Bar, All-Day Breakfast, Cafe",Privé Somerset,1.300898,103.838361,38
1005,57 Eng Hoon Street#01-88Block 57Singapore (160057),"Bar, All-Day Breakfast, Cafe",Privé Tiong Bahru,1.2848656,103.8335292,0
1006,501 Orchard Road#01-K1Wheelock Place Singapore (238880),"Bar, All-Day Breakfast, Cafe",Privé Wheelock,1.3047145,103.8305375,11
1007,"20 Lengkok Bahru#01-17Enabling Village, Academy Block Singapore (159053)","Modern European, All-Day Breakfast, British, Cafe",Professor Brawn Bistro (Enabling Village),1.2872392,103.8147884,27
1008,6A Shenton Way#B1-07Downtown Gallery Singapore (068809),"Bar, Australian, Fusion, Seafood, Vegetarian Friendly, Cafe",The Providore (Downtown),1.2781087,103.8491474,4
1009,333A Orchard Road#02-05Mandarin Gallery Singapore (238897),"Bar, Australian, Cafe",The Providore (Mandarin Gallery),1.3020012,103.8368202,38
1010,1 Paya Lebar Link#01-01Singapore (408533),"Australian, Vegetarian Friendly, Cafe",The Providore (PLQ),1.3177101,103.893902,42
1011,7 Raffles Place Singapore (048625),"Vegetarian Friendly, Cafe",The Providore (Raffles Place),1.2838533,103.8519697,49
1012,45 Ann Siang Road#02-02Singapore (069719),"American, Bar, Modern European, Australian, International, South American, Cafe, Pizza, Burgers, Modern Asian",PS.Cafe Ann Siang Hill,1.2806377,103.8460972,4
1013,1110 East Coast Parkway#01-05/06/07Cyclist Park Singapore (449880),"American, Bar, International, Cafe",PS.Cafe East Coast Park,1.3071164,103.9349311,6
1014,1 Kim Seng Promenade#01-155/156Great World City Singapore (237994),"American, Modern European, Australian, International, South American, Cafe, Burgers, Modern Asian",PS.Cafe Great World City,1.2936417,103.8319293,0
1015,28B Harding Road Singapore (249549),"American, Bar, Modern European, Australian, International, South American, Vegetarian Friendly, Cafe, Burgers, Modern Asian",PS.Cafe Harding,1.3046862,103.8110075,20
1016,38A Martin Road#01-02Singapore (239072),"American, Bar, Modern European, Australian, International, South American, Local, Cafe, Pizza, Burgers, Modern Asian",PS.Cafe Martin,1.2921214,103.8380038,34
1017,1 Fullerton Road#02-03B/04One Fullerton Singapore (049213),"American, Bar, Modern European, Australian, International, South American, Vegetarian Friendly, Local, Cafe, Pizza, Burgers, Modern Asian",PS.Cafe One Fullerton,1.2861808,103.854204,49
1018,390 Orchard Road Level 2Palais Renaissance Singapore (238871),"American, Bar, Modern European, Australian, International, South American, Local, Cafe, Burgers, Modern Asian",PS.Cafe Palais Renaissance,1.3067391,103.829583,44
1019,290 Orchard Road#03-41/42Paragon Shopping Centre Singapore (238859),"American, Modern European, Australian, International, South American, Cafe, Burgers, Modern Asian",PS.Cafe Paragon,1.3038699,103.8357982,11
1020,252 North Bridge Road#03-37Raffles City Shopping Centre Singapore (179103),"American, Bar, Modern European, Australian, International, Cafe",PS.Cafe Raffles City,1.2937585,103.8534331,16
1021,42 Upper Circular Road Singapore (049398),"American, Bar, Vegetarian Friendly, Cafe, Pizza, Burgers",The Public House,1.2891451,103.8477725,24
1022,1 Nanson Road Inter Continental Singapore Robertson Quay Singapore (238909),"Bar, Italian, Pizza",Publico Ristorante,1.2901492,103.8386544,34
1023,82 Amoy Street#01-00Singapore (069901),"Korean, BBQ",PUJIM BBQ,1.2807712,103.8469171,4
1024,5 Wallich Street#01-16Singapore (078881),"Spanish, Seafood, Steakhouse",Pura Brasa,1.2765378,103.8462206,31
1025,39 East Coast Road Singapore (428756),Japanese,Q-WA Bar and Yakitori,1.304874,103.9029236,23
1026,103 Beach Road#01-02Marrison Hotel Lobby Singapore (189704),"Bar, Japanese, BBQ",Q-WA Izakaya,1.2978267,103.8571777,16
1027,30 Beach Road#01-16Singapore (189768),Bar,Quaich Bar (South Beach),1.2947261,103.855865,16
1028,390A Havelock Road#01-09/10Waterfront Plaza Singapore (169664),Bar,Quaich Bar (Waterfront Plaza),1.289998,103.8351791,0
1029,16 Enggor Street#01-09Icon Village Singapore (079717),"Fusion, Steakhouse, Local, Southeast Asian",The Quarters,1.2745683,103.8442247,31
1030,"2 Gunner Lane#01-08Block 14, Mess Hall Singapore (099567)",Fusion,Quentin's Bar & Restaurant,1.2532469,103.820743,14
1031,139 Ceylon Road Eurasian Community House Singapore (429744),"Bar, Chinese, Indian, Malaysian, Fusion, Local",Quentin's Eurasian Restaurant,1.3100807,103.8994086,42
1032,39C Harding Road Singapore (249541),Bar,The Rabbit Hole,1.3048733,103.8135205,20
1033,9 Wallich Street Sofitel Singapore City Centre Singapore (078885),"Chinese, French, Vegetarian Friendly",Racines,1.2768338,103.8454143,31
1034,328 North Bridge Road Raffles Arcade Singapore (188719)(Accessible via North Bridge Road entrance),Local,Raffles Courtyard,1.2955861,103.8540165,16
1035,10 Dempsey Road#01-22Singapore (247700),Japanese,Rakuichi Japanese Restaurant,1.3033906,103.8104867,20
1036,6 Short Street Singapore (188213),Japanese,The Ramen House,1.302178,103.8503409,45
1037,787 North Bridge Road Singapore (198755),"Japanese, Fusion",The Ramen Stall,1.3039588,103.8598988,8
1038,3 River Valley Road Block B#01-15Singapore (179021),"American, Bar, Steakhouse",The RANCH Steakhouse By ASTONS,1.2909899,103.8455947,24
1039,"7 Raffles Boulevard Level 3, Pan Pacific Hotel Singapore (039595)","Buffet, Indian, Vegetarian Friendly",Rang Mahal,1.2924176,103.8585852,12
1040,52 Duxton Road Singapore (089516),"Bar, Japanese",Rappu Handroll Bar,1.2782247,103.843358,31
1041,"Blk 1 Tanjong Pagar Plaza #02-30,Singapore (082001)","Thai, Seafood, Vegetarian Friendly",Rattana Thai Restaurant,1.275726,103.842667,31
1042,66 Kampong Bugis#01-01Singapore (338987),"Fusion, South American, Modern Asian",Raw Kitchen Bar,1.3060193,103.8661277,8
1043,11 Kensington Park Road Singapore (557264),"American, Bar, Italian, All-Day Breakfast, Vegetarian Friendly, Cafe, Burgers, BBQ",The Rebel Company Cafe & Bar (Serangoon Gardens),1.3651531,103.8660698,10
1044,180 Albert Street#01-09Village Hotel Albert Court Singapore (189971),"American, Chinese, Fusion, Zi Char",Red Crab,1.3041249,103.8509176,45
1045,1 Cavan Road Singapore (209842),"American, South American, BBQ",Red Eye Smokehouse,1.310826,103.8610745,8
1046,3C River Valley Road#01-02/03The Cannery Singapore (179022),"Seafood, Local, Dim Sum, Zi Char",Red House Seafood (Clarke Quay),1.29102,103.8459532,24
1047,392 Havelock Road#02-00Grand Copthorne Waterfront Hotel Singapore (169663),"Chinese, Seafood, Local, Zi Char",Red House Seafood (Grand Copthorne),1.2900873,103.8353025,0
1048,"68 Prinsep Street,Singapore (188661)","Chinese, Seafood, Local, Dim Sum, Zi Char",Red House Seafood (Prinsep),1.2998409,103.8501126,45
1049,1 Fusionopolis Place Galaxis Singapore (138522),"Bar, Local",Red Noodle & Bottle Bar,1.2996794,103.78726,9
1050,11 Dempsey Road#01-18Singapore (249673),"Vietnamese, Vegetarian Friendly, Cafe",Red Sparrow,1.3042341,103.8100792,20
1051,25A Dempsey Road Singapore (247691),"Bar, German, Pizza",RedDot BrewHouse @ Dempsey Hill,1.3061832,103.8115055,20
1052,6 Raffles Boulevard#02-03/04Marina Square Singapore (039594),"Bar, Fusion, Vegetarian Friendly, Local, Modern Asian",REDPAN,1.2913998,103.8564267,12
1053,30 Victoria Street#01-11/12CHIJMES Singapore (187996),"Bar, Japanese, Steakhouse, BBQ",Renga-Ya,1.2976446,103.8532946,16
1054,3D River Valley Road#01-05Clarke Quay Singapore (179023),Thai,RENNThai,1.2897826,103.8456164,24
1055,76 Duxton Road Singapore (089535),French,Restaurant JAG,1.2782996,103.8431688,31
1056,8 Raffles Avenue#02-23Esplanade Mall Singapore (039802),"Local, Southeast Asian, Modern Asian",Restaurant Labyrinth,1.2897447,103.8562976,12
1057,20 Upper Circular Road B1-49/50The Riverwalk Singapore (058416),"Bar, Italian, Seafood, Vegetarian Friendly",Ricciotti (Riverwalk),1.289265,103.848482,24
1058,51 Fairways Drive Singapore (286965),Modern European,Riders Cafe,1.3429877,103.7972416,17
1059,200 Turf Club Road#01-19The Grand Stand Singapore (287994),Italian,Ristorante Da Valentino Singapore,1.3380084,103.7934418,17
1060,2 Keppel Bay Vista#02-03Singapore (098382),"Bar, Italian, Pizza",Ristorante Palermo,1.2640047,103.8124338,40
1061,356 Alexandra Road#01-07Alexis Condominium Singapore (155948),"Japanese, Italian",Ristorante Takada,1.2913174,103.8074006,27
1062,20 Upper Circular Road#B1-38The Riverwalk Singapore (058416),"Bar, Buffet, Indian",Riverwalk Tandoor,1.2891375,103.8483462,24
1063,1 Fullerton Road#02-06One Fullerton Singapore (049213),Italian,Riviera,1.2857124,103.8539549,49
1064,201 Victoria Street#04-06Bugis+Singapore (188067),"Buffet, Japanese, BBQ",Rocku Yakiniku,1.2995955,103.8542191,45
1065,16 Raffles Quay#01-02A Hong Leong Building Singapore (048581),"Australian, British, Cafe, Burgers",Rookery (Hong Leong Building),1.281186,103.8508349,49
1066,2 Greenwood Avenue Singapore (289189),"Italian, Vegetarian Friendly, Pizza",Roots Mediterranean,1.33135,103.807347,30
1067,"22 Orange Grove Road Mezzanine Level, Tower Wing Shangri-La Hotel Singapore (258350)","Buffet, International",The Rose Veranda,1.3112195,103.8263306,44
1068,15 Merbau Road Singapore (239032),"Bar, Italian, Seafood, Steakhouse, Vegetarian Friendly, Cafe",Rosso Vino,1.2912564,103.8420506,34
1069,3 Temasek Boulevard#01-434Suntec City North Wing Singapore (038983),"Bar, Modern Asian",Route 65 Bar + Kitchen,1.2948418,103.8580765,12
1070,1 Orchid Club Road01-21/22Orchid Country Club Singapore (769162),"International, Halal Certified",Royal Palm @ Orchid Country Club,1.411778,103.8443315,5
1071,2 Gunner Lane02-07Mess Hall Sentosa Singapore (099567),"Buffet, Indian, Vegetarian Friendly",Royal Taj,1.2528382,103.8207408,14
1072,53 East Coast Road Singapore (428771),Thai,Royal Thai,1.3050795,103.9032992,23
1073,122 Middle Road Level 3Mercure Singapore Bugis Singapore (188973),"International, Local",Royale,1.2995871,103.8529888,45
1074,12 Greenwood Avenue Singapore (289204),"Italian, Vegetarian Friendly",RUBATO Italian Restaurant & Wine Bar,1.3312106,103.8070357,30
1075,131 Bencoolen Street#01-01Hotel G Singapore Singapore (189639),"Chinese, Vegetarian Friendly, Dim Sum, Zi Char",Rui Xiang Restaurant 瑞祥美食,1.300881,103.8518192,45
1076,163 Upper Paya Lebar Road Singapore (534857),"American, Bar, All-Day Breakfast, Cafe, Burgers",Runway80,1.3395919,103.88556,2
1077,6 Raffles Boulevard4th Floor Parkroyal Collection Marina Bay Hotel Singapore (039594),"American, Steakhouse",Ruth's Chris Steak House,1.2917922,103.8571184,12
1078,38 Carpenter Street#01-01Singapore (059917),"Bar, Local, Modern Asian",RVLT,1.2879888,103.8478253,24
1079,"31 Ocean Way #01-02,Quayside Isle Singapore (098375)",Spanish,Sabio By The Sea,1.24805,103.8415831,29
1080,"1 Fullerton Road#02-02B, One Fullerton Singapore (049213)","Modern European, French, Vegetarian Friendly",Saint Pierre,1.2857124,103.8539549,49
1081,1 Fusionopolis Place#2-03Galaxis Singapore (139552),Indian,Salaam Bombay,1.3004512,103.7871501,9
1082,12 Purvis Street Singapore (188591),Australian,Salted & Hung,1.2965458,103.855279,16
1083,1 Netheravon Road Changi Village Hotel Singapore (508502),"Buffet, International, Halal Certified, Modern Asian",Saltwater,1.3904644,103.9860557,7
1084,2 Tanjong Katong Road#01-05PLQ3 Singapore (437161),"Italian, Pizza",Salvo by Pasta Fresca,1.3158708,103.8935559,42
1085,63 Boat Quay Singapore (049851),"Chinese, Fusion, Southeast Asian, Modern Asian",The Sampan,1.2876603,103.8492684,24
1086,404 Telok Blangah Road Singapore (098840),"Chinese, Seafood, Steamboat",San Laksa Steamboat,1.2697846,103.8138391,40
1087,1 Joo Koon Circle#03-26Fair Price Hub Singapore (629117),"Chinese, Local, Dim Sum",San Yuan Ge,1.3269112,103.6784659,28
1088,920 East Coast Parkway#01-28/92Parkland Green Singapore (449875),"American, Bar, Buffet, Modern European, Italian, Australian, Fusion, International, Seafood, British, Cafe",SandBank,1.2988825,103.90615,23
1089,20 Baghdad Street Singapore (199659),"Middle Eastern, Greek, Vegetarian Friendly",Sanobar Restaurant,1.3011331,103.8597572,8
1090,6 Purvis Street Singapore (188585),"American, Steakhouse, Mexican",Santa Fe Tex-Mex Grill,1.2966975,103.8549956,16
1091,136 Telok Ayer Street Singapore (068601),Cafe,Sarnies Cafe,1.2816376,103.8479654,4
1092,55 Ubi Ave 3#01-05Aspial One Singapore (408864),"American, Cafe, Burgers, BBQ",Saturday House,1.3337767,103.8970899,2
1093,5 Purvis Street#01-04Singapore (188584),French,Saveur (Purvis),1.2968238,103.8550837,16
1094,3 Townshend Road #01-01A Singapore (207601),"Bar, Chinese, Italian, Fusion, Seafood, Local, Caribbean, Cajun, Cafe, Burgers",SaVour Eat,1.3077141,103.8583098,8
1095,9 Tan Quee Lan Street#01-01Tan Quee Lan Suites Singapore (188098),Thai,Sawadee Thai Cuisine,1.2983367,103.8567096,16
1096,3/4 Amoy Street Singapore (049947),"Italian, Vegetarian Friendly",Sbagliato Kitchen & Bar,1.2831999,103.848571,4
1097,9 Raffles Boulevard#01-114Millenia Walk Singapore (039596),Korean,SBCD Korean Tofu House (Millenia Walk),1.293701,103.8592787,12
1098,7 Wallich Street B1-01/02Tanjong Pagar Centre Singapore (078884),Korean,SBCD Korean Tofu House (Tanjong Pagar Centre),1.2770022,103.8454634,31
1099,6 Shenton Way#07-01Oakwood Premier AMTD Singapore OUE Downtown 1Singapore (068809),"American, International, Vegetarian Friendly",Se7enth,1.2767227,103.8483156,4
1100,2 Jurong Gateway Road#01-02Singapore (608512),"Chinese, Seafood, Zi Char, BBQ",Sea Tripod @ Garden,1.3367,103.7455783,3
1101,260 Nicoll Drive Changi Beach Park Singapore (498991),"American, All-Day Breakfast",The Seagrill,1.3909433,103.9920554,7
1102,12 Marina View Level 32Asia Square Tower 2The Westin Singapore Singapore (018961),"Buffet, International, Seafood, Local",Seasonal Tastes,1.2782749,103.8507719,4
1103,2 Bayfront Avenue#01-86The Shoppes at Marina Bay Sands Singapore (018972),Japanese,Sen Of Japan,1.2837366,103.8591923,49
1104,118 Holland Avenue#B1-12/13Singapore (278997),Japanese,Sens Sushi & Grill,1.3105313,103.7961337,9
1105,435 Sembawang Road Singapore (758398),"Buffet, Korean",Seoul Kitchen,1.4282729,103.826511,5
1106,26 Sentosa Gateway#02-261/262/263/264Resorts World Sentosa Singapore (098138),Local,Sessions,1.2569714,103.8203898,14
1107,30 Victoria Street#01-19CHIJMES Singapore (187996),"Bar, Vegetarian Friendly, Mexican",Señor Taco (CHIJMES),1.2950326,103.8524229,16
1108,3A River Valley Road#01-07Clarke Quay Singapore (179020),"Bar, Vegetarian Friendly, Mexican",Señor Taco (Clarke Quay),1.2899783,103.8452447,24
1109,13 Duxton Hill#01-01Singapore (089597),"Bar, Japanese",SG Taps,1.2791378,103.8427163,31
1110,"80 Mohamed Sultan Road Robertson Quay, #01-13Singapore (239013)",Middle Eastern,Shabestan,1.2910376,103.8405841,34
1111,"252 North Bridge Road#03-21B, Raffles City Shopping Centre Singapore (179103)","Indian, Vegetarian Friendly",Shahi Maharani,1.2942553,103.853902,16
1112,"22 Orange Grove Road Lobby Level, Tower Wing Shangri-La Hotel, Singapore Singapore (258350)","Chinese, Dim Sum",Shang Palace,1.3112195,103.8263306,44
1113,78 Airport Boulevard#01-219 to 222Jewel Changi Airport Singapore (819666),"Chinese, Dim Sum",Shang Social (DINING),1.3602082,103.9897593,21
1114,"407 Havelock Road#01-01Furama Riverfront Hotel, Annex Building Singapore (169634)","Chinese, Seafood",Shanghai Tang Exclusive Musical Restaurant,1.287772,103.835656,0
1115,117 Frankel Avenue Singapore (458232),"Chinese, Seafood, Zi Char, BBQ",SHAO,1.314161,103.919522,6
1116,545 Orchard Road#06-19Far East Shopping Centre Singapore (238883),"Fusion, Steakhouse, Vegetarian Friendly, Russian",Shashlik Restaurant,1.3057392,103.8299232,11
1117,4190 Ang Mo Kio Ave 6#01-05Singapore (569841),"Chinese, Malaysian, Seafood, Vegetarian Friendly, Local, Dim Sum, Steamboat",Shen Ji Tong Guo Chuan Chuan Xiang 沈记铜锅串串香,1.3719561,103.8459506,10
1118,"22 Scotts Road Level 1, Goodwood Park Hotel Singapore (228221)",Japanese,Shima Restaurant,1.3084774,103.834405,11
1119,290 Orchard Road#B1-41Paragon Singapore (238859),Japanese,Shimbashi Soba,1.3043349,103.8361743,11
1120,1 Harbourfront Walk#02-120Vivo City Singapore (098585),Japanese,Shin Kushiya,1.263423,103.822826,40
1121,88 East Coast Road#02-08Katong Square Singapore (423371),"Buffet, Japanese",Shin Minori Japanese Restaurant @ Katong Square,1.3047255,103.9046894,23
1122,"81 Clemenceau Avenue, #03-15/16,UE Square,Singapore (239917)","Buffet, Japanese",Shin Minori Japanese Restaurant @ UE Square,1.2919659,103.8426977,34
1123,79 Kampong Bahru Road Singapore (169377),Japanese,ShinnSato Japanese Cuisine,1.2763822,103.8356201,31
1124,17 Carpenter Street #01-01Singapore (059906),Japanese,Shinzo Japanese Cuisine,1.2882498,103.8477434,24
1125,"333 Orchard Road Level 35,Mandarin Orchard Hotel Singapore Singapore (238867)","Chinese, Japanese, Vegetarian Friendly, Local, Dim Sum",Shisen Hanten by Chen Kentaro,1.3020052,103.8359339,38
1126,180 Albert Street#01-20Albert Court Singapore (189971),"Indian, Vegetarian Friendly, Vegetarian",Shish Mahal Restaurant,1.3041158,103.850792,45
1127,9 Raffles Boulevard#01-16 to 19Millenia Walk Singapore (039596),"Japanese, BBQ",Sho Yakitori & Sushi,1.2920715,103.859851,12
1128,1 Fullerton Road#02-02A One Fullerton Singapore (049213),Japanese,Shoukouwa Sushi Restaurant,1.2857128,103.8538902,49
1129,207 River Valley Road#01-51/54UE Square (Along Mohamed Sultan Road)Singapore (238275),"Chinese, Fusion",Shu Yan SiChuan Cuisine 蜀宴,1.2934079,103.8418283,34
1130,8 Stanley Street Singapore (068727),Japanese,Shukuu Izakaya,1.2800726,103.8478498,4
1131,5 Koek Road#04-04Cuppage Plaza Singapore (228796),Japanese,Shun by Shunsui,1.3021535,103.8406837,38
1132,30 Robertson Quay#01-15Riverside View Singapore (238251),Japanese,Shunjuu Izakaya,1.2911119,103.8410136,34
1133,1 Larkhill Road Amara Sanctuary Resort Singapore (099394),"Fusion, Vegetarian Friendly, Local, Cafe",Shutters,1.2520799,103.822159,14
1134,7500 Beach Road Singapore (199591),"Buffet, Chinese, Vegetarian Friendly",Si Chuan Dou Hua (Beach Road),1.2998042,103.8606655,8
1135,181 Kitchener Road Singapore (208533),"Buffet, Chinese, Vegetarian Friendly",Si Chuan Dou Hua (Kitchener Road),1.3106349,103.8557348,8
1136,80 Raffles Place#60-01UOB Plaza 1Singapore 048624,"Buffet, Chinese, Vegetarian Friendly",Si Chuan Dou Hua (UOB Plaza),1.2852812,103.8503625,24
1137,33 Mosque Street Singapore (059511),Chinese,Si Wei Mao Cai,1.2836131,103.8452756,4
1138,31 Mosque Street Singapore (059509),"Chinese, Steamboat",Si Wei Xiao Hot Pot,1.2835687,103.8453418,4
1139,2 Yishun Close#01-01Hometeamns Clubhouse Singapore (767944),"Thai, Halal Certified",Siam Kitchen (Khatib),1.4346771,103.8450034,5
1140,21 Choa Chu Kang Avenue 4#02-25Lot 1Singapore (689812),"Thai, Halal Certified",Siam Kitchen (Lot 1),1.3851169,103.7449142,13
1141,293 Lor 6 Toa Payoh#01-04SAFRA Toa Payoh Singapore (319387),Thai,Siam Kitchen (Safra Toa Payoh),1.3302932,103.8546699,26
1142,Block 332 Ang Mo Kio Avenue 1#01-1879Singapore (560332),Thai,Siam Square Mookata (Ang Mo Kio),1.3616045,103.8519244,10
1143,221 Boon Lay Place Boon Lay Shopping Centre Singapore (640221),"Buffet, Thai",Siam Square Mookata (Boon Lay),1.3463986,103.7125352,28
1144,155 Bukit Batok Street 11Singapore (650155),"Buffet, Thai",Siam Square Mookata (Bukit Batok),1.3480297,103.7435371,3
1145,325 Clementi Avenue 5#01-129Singapore (120325),"Buffet, Thai",Siam Square Mookata (Clementi),1.315245,103.766757,22
1146,"6001 Beach Road#B1-63, Golden Mile Tower Singapore (199589)","Buffet, Thai",Siam Square Mookata (Golden Mile Tower),1.3019921,103.8642024,8
1147,22A Havelock Road#01-14Singapore (161022),"Buffet, Thai",Siam Square Mookata (Havelock Road),1.2894664,103.8277853,0
1148,134 Jurong Gateway Road Singapore (600134),"Buffet, Thai",Siam Square Mookata (Jurong East),1.3341343,103.7389171,3
1149,11 Woodlands Close#01-46Stall 3B Singapore (737853),"Buffet, Thai",Siam Square Mookata (Woodlands),1.4355138,103.8031921,43
1150,165 Tanjong Pagar Road Level 2Amara Hotel Singapore (088539),"Chinese, Dim Sum",Silk Road Restaurant (Amara Singapore),1.274961,103.843575,31
1151,101 Siloso Road Dine On 3 at Level 3Shangri-La's Rasa Sentosa Resort & Spa Singapore (098970),"Bar, Buffet, International, Seafood, Vegetarian Friendly, Local",Silver Shell Cafe,1.2577323,103.8097962,40
1152,11 Empress Place#01-01Victoria Theatre and Concert Hall Singapore (179558),"Italian, Seafood, Vegetarian Friendly",Sinfonia Ristorante,1.2884682,103.8517959,24
1153,26 Sentosa Gateway#02-138Festive Walk Resorts World Sentosa Singapore (098138),"Chinese, Seafood, Local",Singapore Seafood Republic,1.2554223,103.8195952,14
1154,"458 Joo Chiat Road,Singapore (427671)","Fusion, Local",Sinpopo,1.306236,103.9045548,23
1155,8D Dempsey Road#01-02Dempsey Hill Singapore (249672),Modern Asian,Siri House,1.3037237,103.809206,20
1156,2 Cook Street Six Senses Maxwell Singapore (078857),Modern European,Six Senses Brasserie,1.2788244,103.8444157,31
1157,398 Upper Bukit Timah Road Singapore (678049),"American, Bar",Sixteen Ounces Craft Beer Bistro,1.3580871,103.7679212,48
1158,2 Stamford Road Level 70Swissotel The Stamford Singapore (178882),Bar,SKAI Bar,1.2932771,103.8535076,16
1159,2 Stamford Road Level 70Swissotel The Stamford Singapore (178882),"Bar, Modern European, Fusion, International, Seafood, Steakhouse, Vegetarian Friendly, Modern Asian, BBQ, Vegetarian",SKAI Restaurant,1.2932771,103.8535076,16
1160,21 Ocean Way W Singapore – Sentosa Cove Singapore (098374),"Modern European, Fusion, Seafood",SKIRT (W Singapore - Sentosa Cove),1.2462857,103.8423347,29
1161,5 Coleman Street Peninsula Excelsior Hotel Singapore (179805),"Bar, International",Sky Lounge,1.2921301,103.8499727,24
1162,30 Raffles Avenue#01-04Singapore Flyer Singapore (039803),"Chinese, Dim Sum",Sky View Pavilion,1.2892988,103.8631368,12
1163,99 Irrawaddy Road Courtyard by Marriott Singapore Novena Singapore (329568),"Buffet, International, Vegetarian Friendly",Sky22,1.3205847,103.843232,26
1164,15 Swan Lake Avenue Opera Estate Singapore (455711),"Local, Zi Char, Modern Asian",Slake,1.3212725,103.9241325,6
1165,68 Orchard Road#03-02Plaza Singapura Singapore (238839),"American, All-Day Breakfast",Slappy Cakes (Plaza Singapura),1.3005317,103.8452356,38
1166,26 Sentosa Gateway#01-29Singapore (098269),"American, All-Day Breakfast, Vegetarian Friendly, Cafe",Slappy Cakes (Resorts World Sentosa),1.2548714,103.821414,14
1167,24 Purvis Street Singapore (188601),"Bar, Cafe, Modern Asian",SLATE.,1.296154,103.855399,16
1168,1 St. Andrew’s Road#06-01National Gallery Singapore Singapore (178957),"Bar, Local",Smoke & Mirrors,1.2904173,103.8518107,24
1169,73 Joo Chiat Place Singapore (427790),"American, Burgers",Smokey's BBQ Joo Chiat,1.3136559,103.9015783,42
1170,29A Lorong Mambong Singapore (277687),"Bar, Local, Pizza",SMÖÖbar (Holland Village),1.3115496,103.7944782,9
1171,44A Prinsep Street Singapore (188674),"Bar, Fusion, Local, Pizza",SMÖÖbar (Prinsep),1.299575,103.849636,45
1172,7 Fraser Street#01-51/56Duo Galleria Singapore (189356),French,So France,1.299163,103.8581739,16
1173,1 Woodlands Square#B1-16Causeway Point Singapore (738099),"Vietnamese, Halal Certified",So Pho (Causeway Point),1.4360933,103.7859471,19
1174,3155 Commonwealth Ave West#04-34 & 04-K3/K4Clementi Mall Singapore (129588),"Vietnamese, Halal Certified",So Pho (Clementi Mall),1.314918,103.7643089,22
1175,1 Kim Seng Promenade#B1-112Great World City Singapore (237994),"Vietnamese, Halal Certified",So Pho (Great World City),1.2936417,103.8319293,0
1176,2 Jurong East St 21#02-53IMM Singapore (609601),"Vietnamese, Halal Certified",So Pho (IMM),1.3348154,103.7468395,3
1177,2 Orchard Turn#B3-19 ION Orchard Singapore (238801),"Vietnamese, Halal Certified",So Pho (ION Orchard),1.3039288,103.8319512,11
1178,50 Jurong Gateway Road#03-22Jem Singapore (608549),"Vietnamese, Halal Certified",So Pho (Jem),1.3336808,103.7436547,3
1179,78 Airport Boulevard#B1-248Jewel Changi Airport Singapore (819666),"Vietnamese, Halal Certified",So Pho (Jewel Changi Airport),1.3602082,103.9897593,21
1180,1 Northpoint Drive#B1-182/183Northpoint City Singapore (768019),"Vietnamese, Halal Certified",So Pho (Northpoint City),1.4281125,103.8362591,5
1181,238 Thomson Road#02-43/45Novena Square Singapore (307683),"Vietnamese, Halal Certified",So Pho (Novena Square),1.3200433,103.8440448,26
1182,290 Orchard Road#B1-20Paragon Singapore (238859),"Vietnamese, Halal Certified",So Pho (Paragon),1.3038699,103.8357982,11
1183,80 Marine Parade Road#03-30D Parkway Parade Singapore (449269),"Vietnamese, Halal Certified",So Pho (Parkway Parade),1.3013366,103.9052333,23
1184,3 Temasek Boulevard#B1-126Suntec City Singapore (038983),"Vietnamese, Halal Certified",So Pho (Suntec City),1.2946045,103.8581046,12
1185,4 Tampines Central 5#04-30Tampines Mall Singapore (529510),"Vietnamese, Halal Certified",So Pho (Tampines Mall),1.3524936,103.9447179,15
1186,1 Vista Exchange Green#B1-11The Star Vista Singapore (138617),"Vietnamese, Halal Certified",So Pho (The Star Vista),1.3068072,103.7883997,9
1187,1 Harbour Front Walk#01-171Vivo City Singapore (098585),"Vietnamese, Halal Certified",So Pho (VivoCity),1.2644032,103.8222071,40
1188,83 Punggol Central#01-28Waterway Point Singapore (828761),"Vietnamese, Halal Certified",So Pho (Waterway Point),1.40669,103.9021738,1
1189,1 Pasir Ris Central Street 3#02-04 White Sands Singapore (518457),"Vietnamese, Halal Certified",So Pho (White Sands),1.3724166,103.9496584,47
1190,269 Holland Avenue Holland Village Singapore,"Bar, Fusion",The Social Alley,1.3117067,103.7953187,9
1191,2 Jurong Hill Jurong Bird Park Singapore (628925),"Chinese, Fusion, International, All-Day Breakfast, Vegetarian Friendly, Local, Cafe, Burgers, Vegetarian",The Social Kitchen @ Jurong Bird Park,1.3187065,103.7064417,28
1192,1 Orchard Road Level 4YMCA Singapore (238824),"Chinese, All-Day Breakfast, Vegetarian Friendly, Local, Southeast Asian, Cafe, Burgers, Zi Char",The Social Kitchen @ YMCA,1.2975672,103.8480065,45
1193,1 Farrer Park Station Road#01-0A One Farrer Hotel & Spa Singapore (217562),"Bar, Chinese, Japanese, Vietnamese, International, Local, Southeast Asian, Pizza, Modern Asian",Socieaty,1.3125457,103.8543732,8
1194,10 Craig Road Singapore (089670),"All-Day Breakfast, Cafe, Pizza",Sofi Cafe + Pizza by Pasta Brava,1.2776667,103.842752,31
1195,100 Beach Road#02-42/44Shaw Tower Singapore (189702),"Middle Eastern, Vegetarian Friendly, Halal Certified",Sofra Turkish Cafe & Restaurant,1.2965124,103.8568162,16
1196,44 Prinsep Street Singapore (188673),Thai,Soi 44,1.299568,103.849627,45
1197,45 Amoy Street Singapore (069871),Italian,Solo Ristorante,1.2804262,103.8468933,4
1198,33 Scotts Road Singapore (228226),"Bar, Buffet, Indian, Vegetarian Friendly",The Song Of India,1.3109885,103.8351893,11
1199,80 Boat Quay Level 5 Rooftop Singapore (049868),"Bar, Italian",Southbridge,1.288397,103.849,24
1200,181 Kitchener Road Singapore (208533),"Buffet, Chinese, Japanese, Indian, Local, Southeast Asian, BBQ",Spice Brasserie,1.3106349,103.8557348,8
1201,100 Orchard Road Concorde Hotel Singapore Singapore (238840),"Buffet, International, Seafood, Local, Peranakan",Spices Cafe,1.3007654,103.841536,38
1202,30 Merchant Road#01-07Riverside Point Singapore (058282),Chinese,Spicy House,1.2894761,103.8441414,34
1203,13 Stamford#B2-51Capitol Piazza Singapore (178905),"Japanese, Fusion",Spicy Rock,1.2929876,103.8511619,16
1204,218 Bedok North Street 1#01-01Singapore (460218),Thai,Spicy Thai-Thai Cafe,1.327156,103.934799,46
1205,"271 Bukit Timah Road,#01-09, Balmoral Plaza,Singapore (259708)","Italian, Pizza",Spizza (Bukit Timah),1.3165038,103.8353812,11
1206,"269 Jalan Kayu,Singapore (799497)","Italian, Pizza",Spizza (Jalan Kayu),1.3970913,103.8729424,25
1207,5 Straits View#01-26/27Marina One The Heart Singapore (018935),"Bar, Modern European, Modern Asian",The Spot,1.2780388,103.8531501,49
1208,52-56 Upper Cross Street Singapore (058348),"Chinese, Local, Dim Sum",Spring Court,1.2843538,103.844525,4
1209,501 Bukit Timah Road#02-13Cluny Court Singapore (259760),"Vegetarian Friendly, Southeast Asian, Cafe",SPRMRKT At Cluny Court,1.3226734,103.8142876,30
1210,8 Dempsey Road Singapore (247696),"Modern European, Vegetarian Friendly, Cafe",SPRMRKT At Dempsey Hill,1.3042251,103.8095057,20
1211,4 Hillview Rise#01-01Hillview 2Singapore (667979),"American, Bar, All-Day Breakfast, Vegetarian Friendly, Pizza, Burgers",Spruce (Hillview 2),1.363354,103.7643204,48
1212,320 Tanglin Road Phoenix Park Singapore (247980),"American, Bar, All-Day Breakfast, Vegetarian Friendly, Pizza, Burgers","Spruce (Tanglin, Phoenix Park)",1.2985058,103.8165332,20
1213,405 Havelock Road Level 2Furama River Front Singapore Singapore (169633),"Buffet, International, All-Day Breakfast, Vegetarian Friendly, Local",The Square @ Furama,1.28774,103.8359909,0
1214,28 Bali Lane Singapore (189864),"Italian, Halal Certified",Squisito,1.3010615,103.8584929,8
1215,231 Bain Street#02-01Singapore (180231),"Korean, BBQ",Ssak3 Korean BBQ,1.2968471,103.8535281,16
1216,44 Tanjong Pagar Singapore (088465),"Buffet, Korean, BBQ",Ssikkek Korean Grill BBQ (Tanjong Pagar),1.2793185,103.8437729,31
1217,60 Prinsep Street Singapore (188664),"Bar, Modern European, Pizza",STAGE,1.2996497,103.8499654,45
1218,32 Beach Road Singapore (189764),Bar,Stags' Room,1.2943478,103.855289,16
1219,2 Stamford Road Level 1Swissotel the Stamford Singapore (178882),"French, Vegetarian Friendly, Burgers",The Stamford Brasserie,1.2932771,103.8535076,16
1220,408 Ang Mo Kio Ave 10#01-783Singapore (560408),Steakhouse,Steakgrill,1.3624187,103.8548679,10
1221,1 Raffles Place Level 62Singapore (048616),"Modern European, Australian",Stellar at 1-Altitude,1.2844024,103.8509818,49
1222,9 Bras Basah Road Lobby Level Rendezvous Hotel Singapore (189559),"Buffet, Indian, Local, Halal Certified, Mediterranean",Straits Cafe,1.2985227,103.8491411,45
1223,8 Raffles Ave#02-21Singapore (039802),"Buffet, Chinese, Vegetarian Friendly, Local, Southeast Asian, Peranakan, Zi Char",Straits Chinese Nonya Restaurant (Esplanade Mall),1.2896585,103.8557631,12
1224,133 Cecil Street#B1-01Keck Seng Tower Singapore,"Local, Southeast Asian, Peranakan",Straits Chinese Nonya Restaurant (Keck Seng Tower),1.2804083,103.8489353,4
1225,10 Scotts Road Grand Hyatt Singapore Lobby Level Singapore (228211),"Buffet, Chinese, Indian, Malaysian, Vegetarian Friendly, Local, Southeast Asian, Halal Certified",StraitsKitchen,1.3065838,103.8331003,11
1226,1 Jelebu Road#02-17Bukit Panjang Plaza Singapore (677743),"Chinese, Dim Sum, Halal Certified",Streats (Bukit Panjang Plaza),1.3800396,103.7642339,13
1227,180 Kitchener Road#01-01City Square Mall Singapore (208539),"Chinese, Dim Sum, Halal Certified",Streats (City Square Mall),1.3111877,103.8566675,8
1228,2 Jurong East Street 21#02-17/17AIMM Singapore (609601),"Chinese, Dim Sum, Halal Certified",Streats (IMM),1.3348154,103.7468395,3
1229,26 Sentosa Gateway#01-205Resorts World Sentosa Singapore (098138),"Chinese, Dim Sum, Halal Certified",Streats (Resorts World Sentosa),1.255179,103.8218107,14
1230,10 Tampines Central 1#B1-05Tampines 1Singapore (529536),"Chinese, Dim Sum, Halal Certified",Streats (Tampines 1),1.354212,103.9450352,15
1231,1 Bukit Batok Central Link#01-28/29/30West Mall Singapore (658713),"Chinese, Dim Sum, Halal Certified",Streats (West Mall),1.3500142,103.7491801,3
1232,35A Scotts Road Singapore (228228),"Local, German",Stuttgart Blackforest Boutique S-Cafe,1.3110102,103.8356933,11
1233,2 Yishun Walk#01-01Home Team NS Clubhouse Singapore Singapore (767944),"Buffet, Thai",Suki-Suki Thai Hot Pot (Khatib),1.4145727,103.8306592,5
1234,293 Lor 6 Toa Payoh#01-04SAFRA Toa Payoh Singapore (319387),"Buffet, Thai, Steamboat",Suki-Suki Thai Hot Pot (Safra Toa Payoh),1.3302932,103.8546699,26
1235,201 Victoria Street#04-14/15Bugis+Singapore (188067),"Buffet, Japanese",Suki-Ya (Bugis+),1.2995955,103.8542191,45
1236,1 Jelebu Road#02-16Bukit Panjang Plaza Singapore (677743),"Buffet, Japanese",Suki-Ya (Bukit Panjang Plaza),1.3800396,103.7642339,13
1237,Blk 205 Hougang Street 21#02-08/09Heartland Mall Singapore (530205),"Japanese, Steamboat",Suki-Ya (Heartland Mall),1.359469,103.8851289,36
1238,1 Stadium Place#01-35Kallang Wave Mall Singapore (397628),"Japanese, Steamboat",Suki-Ya (Kallang Wave Mall),1.3032243,103.8728714,37
1239,6 Raffles Boulevard#02-183B/C Marina Square Singapore (039594),"Japanese, Steamboat",Suki-Ya (Marina Square),1.2918582,103.8561116,12
1240,68 Orchard Road#04-63/67Plaza Singapura Singapore (238839),"Buffet, Japanese, Steamboat",Suki-Ya (Plaza Singapura),1.3039961,103.8318245,11
1241,1 Harbourfront Walk#01-102/103Vivo City Singapore (098585),Japanese,Suki-Ya KIN,1.2647884,103.822894,40
1242,80 Middle Road#01-88/89Singapore (188966),"Bar, Japanese, Fusion, Modern Asian",Sumire Yakitori House,1.2987309,103.8546283,16
1243,Block 106 Clementi Street 12#01-62Singapore (120106),"French, Cafe",Summer Hill,1.3225224,103.7699016,22
1244,1 Cuscaden Road Level 3Regent Singapore Singapore (249715),"Chinese, Dim Sum",Summer Palace,1.3046549,103.8249313,44
1245,Level 37 Raffles Avenue Singapore (039799),"Chinese, Seafood, Vegetarian Friendly, Dim Sum","Summer Pavilion (The Ritz-Carlton, Millenia Singapore)",1.2894584,103.862269,12
1246,3 Park Lane Singapore (798387),"Modern European, Vegetarian Friendly",The Summerhouse,1.4080072,103.8681859,25
1247,60 Robertson Quay#01-04The Quayside Singapore (238252),"Greek, Mediterranean",Summerlong,1.2902048,103.8394975,34
1248,"44 Jalan Merah Saga#01-52, Chip Bee Gardens Singapore (278116)","Local, Cafe, Dessert Only",Sunday Folks,1.311762,103.7968216,9
1249,70 Collyer Quay#01-04Customs House Singapore (049323),Mexican,Super Loco Customs House,1.2824913,103.8534753,49
1250,60 Robertson Quay#01-13The Quayside Singapore,Mexican,Super Loco Robertson Quay,1.2899607,103.8393066,34
1251,8 Raffles Avenue #01-13Esplanade Mall Singapore (039802),"Italian, Southeast Asian",Supply & Demand (Esplanade),1.2892676,103.8566924,12
1252,277 Orchard Road #02-13/14Orchard Gateway Singapore (238858),"Italian, Southeast Asian",Supply & Demand (Orchard Gateway),1.300579,103.83963,38
1253,"333A Orchard Road#04-16, Mandarin Gallery Singapore (238897)",Japanese,Sushi Ayumu,1.302037,103.8362722,38
1254,1 Farrer Park Station Road#01-11/12Owen Link Singapore (217562),Japanese,Sushi Jin,1.3123476,103.8542433,8
1255,2 Keppel Bay Vista#02-01Marina at Keppel Bay Singapore (098382),Japanese,Sushi Jiro (Keppel Bay),1.2640448,103.8125054,40
1256,6 Raffles Boulevard#04-600Marina Mandarin Hotel Singapore (039594),Japanese,Sushi Jiro (PARKROYAL COLLECTION Marina Bay),1.2917922,103.8571184,12
1257,11 Cavenagh Road#01-13/14Holiday Inn Singapore Orchard City Centre Singapore (229616),Japanese,Sushi Kou,1.3023125,103.8410344,38
1258,60 Collyer Quay Level 10OUE Tower Singapore (049322),Japanese,Sushi Mieda,1.283527,103.853136,49
1259,183-191 Jalan Besar Singapore (208882),"Chinese, Dim Sum",Swee Choon Tim Sum Restaurant,1.3080257,103.8568449,8
1260,73 Bras Basah Road#01-01/02Singapore (189556),"Bar, Pizza",Switch by Timbre X,1.2967568,103.85143,16
1261,9 Jalan Kubor#01-01Singapore (199206),"Bar, All-Day Breakfast, Cafe",Symmetry,1.3038411,103.859208,8
1262,26 Sentosa Gateway#02-135/135A Resorts World Sentosa Singapore (098138),Japanese,Syun,1.2548714,103.821414,14
1263,80 Bras Basah Road Level 3Fairmont Singapore Singapore (189560),"Chinese, Fusion, Seafood, Vegetarian Friendly, Local, Dim Sum",Szechuan Court,1.293396,103.8534619,16
1264,80 Bras Basah Road Level 3Fairmont Singapore Singapore (189560),"Chinese, Fusion, Seafood, Vegetarian Friendly, Local, Dim Sum",Szechuan Kitchen,1.293396,103.8534619,16
1265,328 North Bridge Road#03-02Raffles Hotel Singapore Singapore (188719),"Chinese, Dim Sum",藝yì by Jereme Leung,1.2953027,103.8541368,16
1266,54 Bussorah Street Singapore (199470),Middle Eastern,Tabbouleh @ Bussorah Street,1.3016171,103.8594434,8
1267,41 Namly Ave#03-00SIM Management House Singapore (267616),"Modern European, Indonesian, Local",Table At 7,1.3258749,103.8000773,30
1268,26 Sentosa Gateway#01-104/105Resorts World Sentosa Singapore (098138),Modern European,table65,1.255179,103.8218107,14
1269,10 Coleman Street Level 3Grand Park City Hall Singapore (179809),Modern European,Tablescape Restaurant & Bar,1.2923835,103.8501646,24
1270,133 New Bridge Road B1-16Chinatown Point Singapore (059413),"Chinese, Seafood",Taikoo Lane Hotpot 太古里火锅,1.2852093,103.8447228,4
1271,1 Harbourfront Walk#01-102/103Vivo City Singapore (098585),"Buffet, Japanese, BBQ",Tajimaya Yakiniku,1.2647884,103.822894,40
1272,5 Wallich Street#01-12Singapore (078883),"Bar, Fusion, Steakhouse",Takada Grill & Bar,1.2765378,103.8462206,31
1273,6A Shenton Way#01-09/10Downtown Gallery Singapore (068815),Japanese,Takayama Japanese Restaurant,1.2766707,103.8483399,4
1274,3E River Valley Road#01-05Singapore (179024),"Bar, Thai, Fusion",Talay Thai,1.295877,103.8397203,38
1275,26 Kandahar Street Singapore (198888),"Indonesian, Italian, Cafe, Burgers, BBQ",Taliwang Restaurant,1.3021912,103.8597198,8
1276,12 North Canal Road#02-01Singapore (048825),Japanese,Tamashii,1.2861806,103.8487276,24
1277,1 Kim Seng Promenade#B1-110Great World City Singapore (237994),Indonesian,Tambuah Mas Indonesian Restaurant (Great World),1.2936417,103.8319293,0
1278,19 Tanglin Road#04-10/13Tanglin Shopping Centre Singapore (247909),"Indonesian, Halal Certified",Tambuah Mas Indonesian Restaurant (Tanglin),1.3063651,103.8266182,44
1279,"11 Cavenagh Road,Holiday Inn Singapore Orchard City Centre,Basement 1,Singapore (229616)","Buffet, Indian, Seafood, Modern Asian",Tandoor,1.3023125,103.8410344,38
1280,5 Boon Tat Street#01-01Singapore (069613),"Indian, Vegetarian Friendly",Tandoori Culture (Boon Tat),1.2816581,103.8477688,4
1281,4 Hill View Rise#02-03Hill V2Singapore (667979),"Indian, Vegetarian Friendly",Tandoori Culture (HillV2),1.363354,103.7643204,48
1282,80 Mohamed Sultan Road#01-12The Pier at Robertson Singapore (239013),"Chinese, Dim Sum",Tang Lung Restaurant,1.2918135,103.8406509,34
1283,18 Sentosa Gateway#01-563/564Resorts World Sentosa Singapore (098134),Thai,Tangerine,1.255179,103.8218107,14
1284,20 Ah Hood Road#01-19Zhongshan Mall Singapore (329982),"Bar, Indian, Vegetarian Friendly",TANI - Modern Indian Restaurant,1.3270456,103.8465073,26
1285,120 Tanjong Beach Walk Sentosa Singapore (098942),"Bar, Seafood",Tanjong Beach Club - Indoor & Alfresco,1.243406,103.827697,14
1286,56 Cairnhill Road Singapore (229667),"Japanese, Korean, Fusion",TANOSHII,1.3061726,103.83785,11
1287,1 Raffles Link#01-02Singapore (039393),"American, Bar",TAP (One Raffles Link),1.292053,103.8558562,12
1288,252 North Bridge Road#01-15Raffles City Shopping Centre Singapore (189768),"American, Bar",TAP (Raffles City),1.2937585,103.8534331,16
1289,86 Robertson Quay#01-02Singapore (238245),"American, Bar",TAP (Robertson Quay),1.2900394,103.8373405,34
1290,78 Airport Boulevard#03-220/221/222Jewel Changi Airport Singapore (819666),"Bar, Spanish, Seafood, Vegetarian Friendly",Tapas Club (Jewel Changi),1.3602082,103.9897593,21
1291,181 Orchard Road#02-13Orchard Central Singapore (238896),"Bar, Spanish, Seafood, Vegetarian Friendly",Tapas Club (Orchard),1.3006691,103.8404794,38
1292,1 Harbourfront Walk#01-98/99Vivo City Singapore (098585),"Bar, Spanish, Seafood, Vegetarian Friendly",Tapas Club (VivoCity),1.2632409,103.8229547,40
1293,39 Pekin Street#01-01Singapore (048769),"Modern European, Fusion, Burgers",Tapasta Bar,1.2835904,103.8484264,4
1294,1 Scotts Road#02-12Shaw Centre Singapore (228208),Cafe,Tarte by Cheryl Koh,1.3063434,103.8318606,11
1295,50 Tiong Bahru Road#01-04Singapore (168733),"Chinese, Vegetarian Friendly, Southeast Asian, Modern Asian, Vegetarian",Tasty Loong by Chef Pung (Link Hotel),1.2848792,103.8342762,0
1296,81 Lorong Chencharu Singapore (769198),"Chinese, Vegetarian Friendly, Southeast Asian, Modern Asian",Tasty Loong by Chef Pung (ORTO),1.4131494,103.82938,5
1297,227 River Valley Road Singapore (238285),Modern European,The Tavern Restaurant,1.2937601,103.8422092,34
1298,1 Cuscaden Road Lobby Level Regent Singapore Singapore (249715),"International, British",Tea Lounge,1.3047203,103.8248939,44
1299,165 Tanjong Pagar Road Amara Singapore Singapore (088539),Combined Menu Quintessential High Tea Experience Menu (28 Dec onwards) CNY Afternoon Tea Set Menu (1-28 Feb) Valentine's Day Afternoon Tea Set Menu (14 Feb),Tea Room (Amara Singapore),1.2747537,103.8435337,31
1300,6 Changi Village Road Singapore (509907),"Chinese, Seafood, Zi Char",Tekong Seafood Restaurant,1.389956,103.988702,7
1301,2 Mc Callum St Singapore (069043),"Bar, Fusion, Vegetarian Friendly, Local, Southeast Asian, Modern Asian",Telok Ayer Arts Club,1.2797222,103.8473865,4
1302,Block 31 Tampines Avenue 1Level 3Temasek Culinary Academy Temasek Polytechnic Singapore (529757),Modern European,Temasek Culinary Academy The Top Table,1.3451847,103.9318122,15
1303,51 Kreta Ayer Road Singapore (089008),"Bar, Japanese",Tempura Oji,1.281159,103.8419276,31
1304,60 Robertson Quay＃01-09The Quayside Singapore (238252),"Bar, Japanese",TEN Sushi,1.2900297,103.8391632,34
1305,8 Grange Road#02-11Cineleisure Orchard Singapore (239695),"Buffet, Japanese, Steamboat, Modern Asian, BBQ",Tenkaichi Japanese BBQ Restaurant (Cineleisure),1.3015948,103.836414,38
1306,6 Raffles Boulevard#03-129Marina Square Shopping Mall Singapore (039594),"Buffet, Japanese, BBQ",Tenkaichi Japanese BBQ Restaurant (Marina Square),1.2905299,103.8573481,12
1307,30 Orange Grove Road#02-01RELC Building Singapore (258352),"Chinese, Vegetarian Friendly, Local",Teochew Restaurant Huat Kee,1.3130374,103.8260855,44
1308,11 Unity Street#01-21/22Robertson Walk Singapore (237995),"Bar, Japanese, Fusion, Vegetarian Friendly",Teppan Bar Q,1.2922138,103.8410888,34
1309,26 Sentosa Gateway#01-229Resorts World Sentosa Singapore (098138),"Japanese, French",TEPPAN by Chef Yonemura,1.255179,103.8218107,14
1310,5 Fraser Street Level 25Andaz Singapore Singapore (189354),Japanese,Teppan Chef's Table,1.2992107,103.8577253,16
1311,99 Tanjong Pagar Road#01-01Singapore (088520),Japanese,Teppan Kappou Kenji,1.2773716,103.8437288,31
1312,42 Tras Street Singapore (078981),Japanese,Teppan Works,1.2782924,103.8442963,31
1313,38 Seah Street Singapore (188394),"Bar, Modern European, French",Tess Bar & Kitchen,1.2959092,103.8549995,16
1314,Airport Boulevard Departure Transit Lounge Level 3Changi Airport Terminal 2Singapore (819643),"Japanese, Korean, Local",TGM (Changi Airport T2 Transit),1.3552684,103.9894606,21
1315,1 Harbourfront Walk#02-145/146Vivo City Singapore (098585),"Thai, Vegetarian Friendly",Thai Accent,1.2633025,103.8216835,40
1316,43 Sultan Gate Level 2Singapore (198491),"Buffet, Thai, Seafood, Local, Steamboat",Thai Tanic Hotpot,1.3016271,103.8606359,8
1317,37 Cuppage Road Singapore (229460),"Thai, Seafood, Vegetarian Friendly",Thai Wok Restaurant,1.302202,103.840439,38
1318,271 Bukit Timah Road#01-04Balmoral Plaza Singapore (259708),Thai,Thai'd Me Up,1.3165038,103.8353812,11
1319,165 Tanjong Pagar Road Level 2Amara Singapore Singapore (088539),"Thai, Vegetarian Friendly",Thanying Restaurant,1.2750316,103.8435506,31
1320,9 Bras Basah Road#02-02A Rendezvous Hotel Gallery Singapore (189559),Bar,The Auld Alliance,1.298614,103.849054,45
1321,15 Stamford Road Lobby Level The Capitol Kempinski Hotel Singapore Singapore (178906),Bar,The Bar at 15 Stamford,1.293891,103.8513613,16
1322,1 Kim Seng Promenade#01-106Great World Singapore (237994),"Chinese, Local, Peranakan",The Blue Ginger (Great World),1.2926499,103.8322968,0
1323,97 Tanjong Pagar Road Singapore (088518),"Chinese, Local, Peranakan",The Blue Ginger (Tanjong Pagar),1.2774181,103.8437847,31
1324,3B Clarke Quay#01-05Singapore (179021),Bar,The Chupitos Bar,1.290573,103.844961,24
1325,"9 Dempsey Road,Singapore (247697)","Bar, Modern European, Australian, All-Day Breakfast, Burgers",The Dempsey Project,1.3036447,103.8098267,20
1326,20 Teck Lim Road Singapore (088391),"Bar, Indian",The Elephant Room Singapore,1.2805446,103.8419062,31
1327,52 Duxton Road Singapore (089516),"Japanese, Steakhouse, Burgers",The Feather Blade Izakaya @ RAPPU,1.2782247,103.843358,31
1328,85 Beach Road#01-02Singapore (189694),"French, Fusion",The Masses,1.2973,103.8565671,16
1329,310 Orchard Road#02-22Tangs Orchard Singapore (238864),"Australian, Vegetarian Friendly, Cafe",The Providore (Tangs Orchard),1.3047955,103.8329225,11
1330,28 Stanley Street Singapore (068737),Burgers,The Rebel Bar,1.2809429,103.848283,4
1331,36 Lorong Mambong Singapore (277693),"Bar, All-Day Breakfast",The Rebel Company Cafe & Bar (Holland Village),1.311689,103.794513,9
1332,"39 Syed Alwi Road The Vagabond Club Singapore, A Tribute Portfolio Hotel Singapore (207630)","Bar, International, Local",The Whiskey Library @ The Vagabond Club,1.3070654,103.8582723,8
1333,9 Keong Saik Road Singapore (089117),"Indian, Fusion",Thevar,1.2794175,103.8414525,31
1334,154 West Coast Road#02-25West Coast Plaza Singapore (127371),Thai,Thonglor Thai Cuisine & Seafood (West Coast),1.303632,103.766452,22
1335,60 Robertson Quay#01-01The Quayside Singapore (238252),"Bar, Burgers",Three Buns Quayside,1.2900297,103.8391632,34
1336,8 Port Road Singapore (117540),Buffet,The Three Peacocks,1.265251,103.805053,40
1337,11 Unity Street#01-10/11Robertson Walk Singapore (237995),American,Thunderbird Bistro,1.2920186,103.8414078,34
1338,4 Jalan Kuras Singapore (577723),"Fusion, All-Day Breakfast, Cafe",Thus Coffee,1.3726512,103.8296416,32
1339,28 Aliwal Street#01-07Aliwal Arts Centre Singapore (199918),"Modern European, Italian, Fusion, British, Vegetarian Friendly, Burgers",Thyme @Aliwal,1.3025906,103.8611415,8
1340,44 Rochester Park Singapore (139248),"Bar, Modern European, Vegetarian Friendly",Thyme @Rochester,1.3044071,103.7856755,9
1341,403 Havelock Road Copthorne Kings Hotel Singapore Singapore (169632),"Chinese, Dim Sum",Tien Court,1.2882885,103.8366159,0
1342,60 Eu Tong Sen Street Furama City Centre Singapore (059804),"Buffet, International",Tiffany Cafe & Restaurant,1.2864727,103.8446054,24
1343,"1 Beach Road Grand Lobby, Raffles Singapore Singapore (189673)",Indian,Tiffin Room (Raffles Hotel),1.2948829,103.8544791,16
1344,78 Airport Boulevard#05-205Jewel Changi Airport Singapore (819666),"Bar, Local",Tiger Street Lab,1.3602082,103.9897593,21
1345,1 Old Parliament Lane#01-04The Arts House Singapore (179429),"Bar, Pizza",Timbre X S.E.A,1.288533,103.850936,24
1346,73A Ayer Rajah Crescent JTC Launch Pad @ one-north Singapore (139957),"American, Bar, Chinese, Japanese, Korean, Indian, Seafood, Burgers",Timbre+,1.2974527,103.7876333,9
1347,24 Ann Siang Road Singapore (069704),"Bar, Vegetarian Friendly",Tipple and Dram,1.2809363,103.8456853,4
1348,6 Eu Tong Sen Street#01-15The Central Singapore (059817),"Bar, Italian, Fusion, Pizza, Burgers",The Tipsy Cow (Central),1.2890252,103.8466098,24
1349,315 Tanjong Katong Road Singapore (437098),"Bar, Italian, Fusion, Pizza, Burgers",The Tipsy Cow (Katong),1.306075,103.8961585,42
1350,30 Victoria Street#01-27A/K11CHIJMES Singapore (187996),"American, Bar",The Tipsy Den,1.2951699,103.8521957,16
1351,183 Selegie Road#01-03Singapore (188329),"All-Day Breakfast, Cafe",Tittle Tattle,1.3038058,103.8500905,45
1352,31 Tanjong Pagar Road#01-01Singapore (088454),Korean,Todamgol,1.2792802,103.8440106,31
1353,"3A River Valley Road#01-14Block A, Clarke Quay Singapore (179020)","Bar, Japanese",Tomo Izakaya (Clarke Quay),1.2894879,103.8451404,24
1354,8 Raffles Ave#01-09Singapore (039802),Japanese,Tomo Izakaya (Esplanade),1.2896585,103.8557631,12
1355,6 Lor Telok Singapore (049019),"Chinese, Vegetarian Friendly, Local, Steamboat",Tong Xin Ru Yi Hotpot,1.2869783,103.8486978,24
1356,30 Beach Road JW Marriott Singapore South Beach Singapore (189763),Bar,Tonic,1.2944085,103.8560531,16
1357,350 Orchard Road Level 4Shaw House Isetan Scotts Singapore (238868),Japanese,Tonkichi (Isetan Scotts),1.305988,103.8320337,11
1358,391 Orchard Road#04-24Takashimaya Singapore (238872),Japanese,Tonkichi (Takashimaya),1.3025572,103.834568,11
1359,11 Tanjong Katong Road#02-22/23Kinex Mall Singapore (437157),"Vietnamese, Cafe",TONKIN Vietnamese Noodle and Coffee,1.3147221,103.8947554,42
1360,8-10 Geylang Lorong 3Singapore (388862),"Chinese, Seafood, Vegetarian Friendly, Local, Steamboat, Zi Char",Tonny Restaurant,1.311898,103.8743599,37
1361,32 Tras Street Singapore (078972),"Bar, Japanese, Fusion, Southeast Asian, BBQ",Torasho Ramen & Charcoal Bar,1.2786335,103.8443306,31
1362,19 East Coast Road#01-01Singapore (428746),"Bar, Japanese",ToriBiru,1.316054,103.945695,46
1363,32 Duxton Road Singapore (089496),Japanese,Torii Izakaya,1.2790701,103.8434348,31
1364,50 Tiong Bahru Road#01-01Link Hotel Singapore (168733),Japanese,TORIO Japanese Restaurant,1.2848584,103.8343662,0
1365,1380 Ang Mo Kio Avenue 1Bishan Park 2Singapore (569930),Japanese,ToriYard,1.3624542,103.8471773,10
1366,1 Fullerton Square The Fullerton Hotel Singapore Singapore (049178),"International, Local",Town,1.2863532,103.8530671,49
1367,10 Siloso Beach Walk Singapore (098995),"Italian, Vegetarian Friendly, Pizza",Trapizza,1.256237,103.812091,40
1368,35 North Canal Road#01-01Singapore (059291),"Bar, Japanese, Italian",Trattoria La Vita,1.2869162,103.8471577,24
1369,61 Cantonment Road Singapore (089757),"Italian, Seafood, Vegetarian Friendly",Trattoria Nonna Lina,1.2784071,103.8403246,31
1370,15 Yishun Industrial Street 1#01-20Win 5Singapore (768091),"Chinese, Fusion",TribeD³ Lounge,1.437344,103.8440208,5
1371,333 Orchard Road Level 5Mandarin Orchard Hotel Singapore Singapore (238867),"Buffet, Japanese, International, Seafood, Vegetarian Friendly",Triple Three,1.3022281,103.8360357,38
1372,49 Armenian Street Singapore (179937),"Local, Peranakan",True Blue Cuisine,1.294452,103.849364,16
1373,"26 Sentosa Gateway#02-142/143, Hotel Michael Lobby Level, Resorts World Sentosa Singapore (098138)","Chinese, Local",TungLok Heen,1.255179,103.8218107,14
1374,511 Upper Jurong Road The Arena Country Club Singapore (638366),"Buffet, Chinese, Seafood, Dim Sum",TungLok Seafood (Arena Country Club),1.3294914,103.6829236,28
1375,181 Orchard Road#11-05Orchard Central Singapore (238896),"Chinese, Seafood, Dim Sum",TungLok Seafood (Orchard Central),1.300716,103.839996,38
1376,10 Paya Lebar Road#03-09/10Paya Lebar Quarter Singapore (409057),"Chinese, Seafood, Dim Sum",TungLok Seafood (Paya Lebar),1.316608,103.8924804,42
1377,No.5 Changi Business Park Central 1#01-26/27Changi City Point Singapore (486038),"Chinese, Seafood",TungLok Signatures (Changi City Point),1.3332825,103.9639906,35
1378,1 Tanglin Road#02-18Orchard Rendezvous Hotel Singapore (247905),"Chinese, Seafood",TungLok Signatures (Orchard Rendezvous Hotel),1.3065228,103.827668,44
1379,6 Eu Tong Sen Street#02-88The Central Singapore (059817),"Chinese, Seafood",TungLok Signatures (The Central),1.2890252,103.8466098,24
1380,10 Sinaran Drive#01-73Square 2Singapore (307506),"Chinese, Dim Sum",TungLok Teahouse (Square 2),1.3208322,103.8441474,26
1381,181 Orchard Road#07-07/08/09Orchard Central Singapore (238896),"Chinese, Seafood",TungLok XiHe Peking Duck (Orchard Central),1.3007667,103.8400129,38
1382,200 Turf Club Road#01-23Turf City Singapore (287994),"Chinese, Seafood",TungLok XiHe Peking Duck (The Grandstand),1.3380084,103.7934418,17
1383,9 Teck Chye Terrace Singapore (545720),"Fusion, Cafe",TWO Bakers (Serangoon),1.3530413,103.8763879,36
1384,327 Jalan Besar Singapore (208981),"American, Vegetarian Friendly, Burgers",Two Blur Guys,1.3116674,103.8592399,8
1385,10 Telok Blangah Green Singapore (109178),"Modern European, Spanish",TXA Gastrobar,1.278877,103.813289,27
1386,201 Victoria Street#04-08Singapore (188067),"Chinese, Fusion",Typhoon Cafe (Bugis+),1.2997818,103.8541438,45
1387,68 Orchard Road#04-67Plaza Singapura Singapore (238839),"Chinese, Fusion",Typhoon Cafe (Plaza Singapura),1.3005317,103.8452356,38
1388,60 Collyer Quay Level 8 & 10OUE Tower Singapore (049322),Chinese,Tóng Lè Private Dining,1.283527,103.853136,49
1389,357 Joo Chiat Road Singapore (427602),"Chinese, Local, Southeast Asian, Zi Char",Ubin Kitchen,1.3085198,103.9032294,23
1390,57 South Bridge Road#01-02Singapore (058688),Thai,Un-Yang-Kor-Dai,1.287117,103.848241,24
1391,10 Telok Blangah Green Singapore (109178),Spanish,UNA at The Alkaff Mansion,1.278877,103.813289,27
1392,201 Victoria Street#04-10Bugis+Singapore (188067),Japanese,Una Una (Bugis+),1.2995955,103.8542191,45
1393,"3 Temasek Boulevard#03-315Suntec City Mall, Eat at Seven Singapore (038983)",Japanese,Una Una (Suntec),1.29503,103.8583026,12
1394,30 Robertson Quay#01-05Riverside Village Residences Singapore (238251),Japanese,Unagiya Ichinoji (Robertson Quay),1.2912881,103.8413851,34
1395,368 Alexandra Road Anchorpoint Shopping Centre Singapore (159952),"Chinese, Seafood, Local, Zi Char",Uncle Leong Seafood (Anchorpoint),1.2889717,103.8056418,27
1396,6 Tebing Lane #01-03Singapore (828835),"Chinese, Seafood, Local, Zi Char",Uncle Leong Seafood (Punggol),1.3924633,103.9160714,1
1397,83 Punggol Central#B1-21Waterway Point East Wing Singapore (828761),"Chinese, Seafood, Zi Char",Uncle Leong Signatures (Waterway Point),1.40669,103.9021738,1
1398,7500A Beach Road#B1-310The Plaza Singapore (199591),Japanese,Uni Gallery by Oosterbay,1.299739,103.860815,8
1399,91 Bencoolen Street#01-1819Sunshine Plaza Singapore (189652),"Japanese, Seafood",UOUO,1.3005314,103.8508826,45
1400,57 Tras Street#01-01Singapore (078996),Japanese,Ushidoki Wagyu Kaiseki,1.2779431,103.8444554,31
1401,60 Collyer Quay Level 8OUE Tower Singapore (049322),Japanese,USHIO,1.283527,103.853136,49
1402,501 Orchard Road#02-15/16Wheelock Place Singapore (238880),Japanese,Uya 四代目菊川 Japanese Unagi Restaurant,1.30447,103.830841,11
1403,6 Scotts Road#03-13Scotts Square Singapore (228209),Modern Asian,V-DINING by V-ZUG,1.3058788,103.8329554,11
1404,281 Holland Avenue#01-01Singapore (278996),"Korean, All-Day Breakfast, Mexican",Vatos Cantina Holland Village,1.3118231,103.7955295,9
1405,36 Beach Road#01-03Singapore (189766),"American, Korean, Mexican, Burgers",Vatos Urban Tacos,1.295766,103.856179,16
1406,1218 Upper Thomson Road#01-02Springleaf Nature Park Singapore (787136),Cafe,Verdure Cafe,1.4010103,103.8176298,39
1407,40 Boat Quay Singapore (049829),"Bar, Italian, Seafood, Vegetarian Friendly",Vespetta Italian Restaurant,1.2865386,103.8495606,24
1408,1 Stars Avenue Level 3Mediacorp Campus Singapore (138507),"American, All-Day Breakfast, Local, Cafe",Vibes Cafe (Mediacorp Campus),1.2951637,103.7921409,9
1409,3 Gateway Drive#01-42Westgate Singapore (608532),"Local, Cafe",Vibes Cafe (Westgate),1.3345157,103.7427902,3
1410,501 Orchard Road#02-19Wheelock Place Singapore (238880),"American, All-Day Breakfast, Local, Cafe",Vibes Cafe (Wheelock Place),1.3047145,103.8305375,11
1411,94 Tanjong Pagar Road Singapore (088515),"Bar, International",Victorian Bistro,1.2782795,103.8436493,31
1412,520 Balestier Road#01-01Singapore (329853),"American, Bar, Fusion, International, Local, Burgers",Viio Gastropub Restaurant & Bar,1.3268632,103.8459236,26
1413,33 Hyderabad Road Hort Park Singapore (119578),"American, French, Italian, Cafe, Pizza",Vineyard at HortPark,1.2787362,103.8018322,27
1414,3B River Valley Road#01-18Singapore (179021),Peranakan,Violet Oon Satay Bar & Grill,1.2958719,103.8396646,38
1415,2 Orchard Turn#03-22 & #03-28/29ION Orchard Singapore (238801),"Chinese, Malaysian, Vegetarian Friendly, Local, Peranakan",Violet Oon Singapore (ION Orchard),1.3039288,103.8319512,11
1416,78 Airport Boulevard#01-205/206Jewel Changi Airport Singapore (819666),"Chinese, Malaysian, Vegetarian Friendly, Local, Peranakan",Violet Oon Singapore (Jewel Changi),1.3602082,103.9897593,21
1417,"50 Collyer Quay OUE Bayfront, Rooftop Level 19Singapore (049321)","Bar, Modern European",VUE,1.2826632,103.8528142,49
1418,39 Jalan Mas Puteh Singapore (128637),"Modern European, Fusion, Cafe",W39 Bistro & Bakery,1.3084702,103.7623852,22
1419,30 Raffles Place#01-23/24Change Alley Mall Singapore (048622),Japanese,Waa Cow! (Change Alley Mall),1.2841089,103.852015,49
1420,5 Straits View#01-09Marina One Singapore (018935),"Bar, Japanese",Waa Cow! (Marina One),1.2766869,103.852532,49
1421,108 Tanjong Pagar Road#01-01Singapore (088526),"Japanese, BBQ",Wagyu Express by Aburiya,1.2780316,103.8435825,31
1422,200 Victoria Street#02-47/48Bugis Junction Singapore (188021),"Buffet, Japanese, Vegetarian Friendly, Steamboat",Wagyu More,1.2988889,103.8555556,16
1423,76 Bras Basah Road Carlton Hotel Singapore (189558),"Chinese, Dim Sum",Wah Lok Cantonese Restaurant,1.2960301,103.8527419,16
1424,5 Straits View#04-02Marina One The Heart West Tower Singapore (018935),"Japanese, Australian, Steakhouse, Burgers",WAKANUI Grill Dining Singapore,1.2776331,103.8531473,49
1425,181 Orchard Road#03-07Orchard Central Singapore (238896),"American, Korean, Australian, All-Day Breakfast, Vegetarian Friendly, Cafe, Pizza, Burgers",Walking On Sunshine,1.3007901,103.8399648,38
1426,320 Orchard Road Level 3Singapore Marriott Tang Plaza Hotel Singapore (238865),"Chinese, Vegetarian Friendly, Dim Sum",Wan Hao Chinese Restaurant,1.3052151,103.8329675,11
1427,65 Maude Road#01-01Singapore (208347),"Chinese, Seafood, Zi Char",Wan He Lou (Maude Road),1.3080195,103.8581359,8
1428,9 Yuk Tong Ave Singapore (596314),"Chinese, Seafood",Wan He Lou Kitchen (Beauty World),1.34215,103.7748,17
1429,320 Havelock Road Robertson Quay The Warehouse Hotel Singapore (169628),"Bar, Local",The Warehouse Hotel Bar,1.289177,103.837495,34
1430,"22 Orange Grove Road Level One, Garden Wing Shangri-La Hotel, Singapore Singapore (258350)",Italian,Waterfall Ristorante Italiano,1.3112195,103.8263306,44
1431,28 Lorong Ampas Singapore (328781),"American, Japanese, Fusion, All-Day Breakfast, Cafe",Wheeler's Yard,1.3266755,103.8528303,26
1432,734 North Bridge Road Singapore (198702),"French, Cafe",The White Label,1.302816,103.859195,8
1433,39C Harding Road Singapore (249541),"Modern European, French",The White Rabbit,1.3048733,103.8135205,20
1434,30 Victoria Street#01-26/27CHIJMES Singapore (187996),"Japanese, French, Modern Asian",Whitegrass,1.2996712,103.8551177,16
1435,1187 Upper Serangoon Road#01-01The Midtown Singapore (533971),Fusion,Wild Blooms,1.3701852,103.8951508,33
1436,"333A Orchard Road#03-01, Mandarin Gallery Singapore (238867)",All-Day Breakfast,Wild Honey at Mandarin Gallery,1.302037,103.8362722,38
1437,"6 Scotts Road#03-02, Scotts Square Singapore (228209)",All-Day Breakfast,Wild Honey at Scotts,1.3058788,103.8329554,11
1438,26 Beach Road#B1-18South Beach Singapore (189768),All-Day Breakfast,Wild Honey at South Beach,1.2947237,103.8560542,16
1439,10 Telok Blangah Green Singapore (109178),"All-Day Breakfast, Cafe",Wildseed Cafe at The Alkaff Mansion,1.278877,103.813289,27
1440,3 Park Lane Singapore (798387),"All-Day Breakfast, Cafe",Wildseed Cafe at The Summerhouse,1.4080072,103.8681859,25
1441,3 Park Lane Singapore (798387),"Bar, Burgers",Wildseed Grill & Bar,1.4080072,103.8681859,25
1442,"11 Cavenagh Road,Singapore (229616)","Buffet, Seafood, Local, Halal Certified",Window on the Park,1.3020479,103.8412807,38
1443,7 Keong Saik Road Singapore (089115),"Bar, Chinese, Italian, Fusion, Vegetarian Friendly, Local, Southeast Asian",Wine & Chef,1.2793273,103.841396,31
1444,48 Bukit Pasoh Road Singapore (089859),"Bar, French, Spanish, Fusion, Southeast Asian",The Wine & Gourmet Friends,1.2798618,103.840332,31
1445,9 Raffles Boulevard#01-109Millenia Walk Singapore (039596),"Bar, Buffet, Modern European, French, Fusion, International, Vegetarian Friendly",Wine Universe Restaurant & Bar,1.2934406,103.8594273,12
1446,30 Victoria Street#B1-05CHIJMES Singapore (187996),"Bar, Spanish, Fusion",The Winery Tapas | Bar,1.295385,103.852346,16
1447,30 Stevens Road#01-09 Singapore (257840),"Bar, Modern European, French, Italian, Spanish, Middle Eastern, Greek, Portuguese, Pizza",Winestone,1.3138907,103.828462,44
1448,5 Changi Business Park Central 1#01-28Changi City Point Singapore (486038),"Chinese, Southeast Asian, Zi Char",Wok Master (Changi City Point),1.334638,103.9623868,35
1449,180 Kitchener Road#02-51/52City Square Mall Singapore (208539),"Chinese, Vegetarian Friendly, Local",Wok Master (City Square Mall),1.3114715,103.8561512,8
1450,1 Fusionopolis Way#02-01/02Connexis Singapore (138632),"Chinese, Malaysian, Local, Zi Char",Wok Palace,1.2989175,103.7876488,9
1451,11 Cove Drive#01-01Sentosa Cove Singapore (098497),"Chinese, Seafood, Vegetarian Friendly, Local, Dim Sum, Zi Char",WOK°15 Kitchen,1.2455573,103.8398887,29
1452,435 Orchard Road#02-08/13Wisma Atria Singapore (238877),"Italian, Fusion",Wonderland Savour (Wisma Atria),1.3037148,103.8332642,11
1453,12F Andrews Ave Singapore (759930),Peranakan,Woody Family Cafe,1.4581424,103.8377204,43
1454,200 Turf Club Road The Grandstand#01-29/30 Singapore (287994),"Modern European, Italian, Cafe",Wooftopia Pet Café,1.3380084,103.7934418,17
1455,2 Stamford Road Level 3Swissotel The Stamford Singapore (178882),"Australian, Steakhouse, Vegetarian Friendly",Wooloomooloo Steakhouse Singapore,1.2932771,103.8535076,16
1456,19 Lorong Kilat#01-02Singapore (598120),Korean,Woorinara Korean Restaurant,1.3408737,103.7736111,17
1457,Blk 332 Ang Mo Kio Ave 1#01-1881Singapore (560332),"American, Bar, Italian, Cafe, Burgers",The Workbench Bistro,1.3616045,103.8519244,10
1458,1 Scotts Road#03-12/13Shaw Centre Singapore (228208),Chinese,Xi Yan Shaw,1.3062932,103.8318472,11
1459,18 Liang Seah Street Singapore (189039),"Buffet, Chinese, Steamboat",Xian De Lai,1.2981323,103.8564878,16
1460,208D New Upper Changi Road#01-02/03Singapore (464208),"Chinese, Seafood, Steamboat",Xiao Long Kan Hotpot (Bedok),1.3255622,103.9420245,46
1461,200 Victoria Street#02-54Bugis Junction Singapore (188021),"Chinese, Steamboat",Xiao Long Kan Hotpot (Bugis),1.2988889,103.8555556,16
1462,20 Smith Street Singapore (058934),"Chinese, Steamboat",Xiao Long Kan Hotpot (Chinatown),1.282126,103.8444683,4
1463,279 New Bridge Road Singapore (088752),"Chinese, Steamboat",Xiao Mu Deng Traditional Hotpot,1.2822752,103.8421184,31
1464,6 Duxton Hill#01-01Singapore (089592),"Bar, Chinese, Fusion, All-Day Breakfast, Local, Southeast Asian, Modern Asian",Xiao Ya Tou,1.279257,103.8428968,31
1465,317 Outram Road Level 4Holiday Inn Singapore Atrium Singapore (169075),"Chinese, Dim Sum",Xin Cuisine Chinese Restaurant,1.2891631,103.8342067,0
1466,35 Robinson Road Level 1Singapore (068876),"Modern European, Fusion, International",Xperience Restaurant,1.2799728,103.8497276,4
1467,15 Jalan Klapa Singapore (199323),"Bar, Chinese, Local",XY Kazoku,1.3043178,103.8597434,8
1468,321 Clementi Avenue 3#01-01Singapore (129905),"Buffet, Japanese",Yakiniku Ohji (Clementi),1.311998,103.765014,22
1469,"1 St. Andrew’s Road,#05-02,National Gallery Singapore Singapore (178957)","Chinese, Dim Sum",Yan at National Gallery Singapore,1.2902217,103.8515167,24
1470,29 Tanglin Road Level 1U The St. Regis Singapore Singapore (247911),"Chinese, Vegetarian Friendly, Dim Sum",Yan Ting (The St. Regis Singapore),1.3055457,103.8260886,44
1471,163 Tanglin Road#01-28/33Tanglin Mall Singapore (247933),"Bar, Indian",Yantra,1.3048211,103.8242645,44
1472,175A Chin Swee Road Singapore (169879),"Chinese, Steamboat",Yanxi Palace Steamboat Restaurant,1.2853906,103.8383822,34
1473,10 Bayfront Avenue B1-07 & L1-82The Shoppes at Marina Bay Sands Singapore (018956),American,Yardbird Southern Table & Bar,1.2834492,103.8589451,49
1474,676 Woodlands Drive 71#01-03Singapore (730676),"Seafood, Local, Halal Certified, Zi Char",Yassin Kampung (Admiralty),1.4397745,103.8008056,43
1475,215 Bedok North Street 1#01-83Singapore (460215),"Seafood, Halal Certified",Yassin Kampung (Bedok),1.3259684,103.9336866,46
1476,106 Clementi Street 12#01-56Singapore (120106),"Seafood, Local, Zi Char",Yassin Kampung (Clementi),1.3218768,103.7698766,22
1477,210 Marsiling Crescent#01-03Singapore (730210),"Seafood, Local, Halal Certified, Zi Char",Yassin Kampung (Marsiling),1.4461708,103.7736971,19
1478,6 Raffles Boulevard#02-181/182Marina Square Singapore (039594),"Chinese, Vegetarian Friendly, Dim Sum",Yechun Xiao Jiang Nan,1.291433,103.8576787,12
1479,1 Raffles Link#B1-01/02City Link Mall Singapore (039393),"American, Vegetarian Friendly, Pizza",Yellow Cab Pizza Co.,1.2925645,103.8562011,12
1480,"39 Syed Alwi Road The Vagabond Club Singapore, A Tribute Portfolio Hotel Singapore (207630)","Chinese, Vegetarian Friendly",Yellow Pot (Little India),1.3070654,103.8582723,8
1481,"15 Ann Siang Road,Singapore (069695)",Japanese,Yen Yakiniku,1.2809792,103.845729,4
1482,552 Mac Pherson Road Singapore (368229),"Chinese, Local, Zi Char",Yi Jia South Village Seafood Restaurant 一家南村海鲜,1.3325348,103.884913,2
1483,3A River Valley Road#01-02Singapore (179024),"Bar, Chinese, Modern Asian",Yin At The Riverhouse,1.2958781,103.839732,38
1484,530 North Bridge Road#01-01Bugis Point Singapore (188747),"Bar, Japanese, Seafood",Ying Izakaya,1.2988366,103.8561615,16
1485,583 Orchard Road#B1-39 to 47Singapore (238884),Japanese,YOSHI Restaurant,1.306069,103.8286,44
1486,3 Hyde Park Gate The Oval @ SAP Singapore (799531),"Bar, Modern European, Vegetarian Friendly",YOUNGS Bar & Restaurant,1.4070942,103.8675995,25
1487,56 Zion Road Singapore (247781),"Bar, Japanese",Yujin Izakaya,1.2927324,103.8310451,0
1488,"20 Trengganu Street, #02-01Singapore (058479)","Buffet, Chinese, Vegetarian Friendly, Local, Dim Sum",Yum Cha Chinatown,1.2828631,103.8440039,4
1489,13 Purvis Street Hotel Nu Ve Heritage Singapore (188592),Cafe,Yummo Chow,1.2964732,103.8553007,16
1490,10 Collyer Quay Level 43Ocean Financial Centre Singapore (049315),"Italian, Vegetarian Friendly",Zafferano Italian Restaurant & Lounge,1.2832397,103.8520217,49
1491,"135 E Coast Rd, Singapore 428820","Indian, Vegetarian Friendly",Zaffron Kitchen (East Coast),1.3060689,103.9050245,23
1492,1 Kim Seng Promenade#01-153Great World City Singapore (237994),"Indian, Vegetarian Friendly, Local, Cafe, Modern Asian",Zaffron Kitchen (Great World),1.2926499,103.8322968,0
1493,3 Gateway Drive #01-20Westgate Singapore (608532),"Indian, Vegetarian Friendly",Zaffron Kitchen (Westgate),1.3345013,103.7426077,3
1494,3A River Valley Road#01-02Clarke Quay Singapore (179020),"Modern European, Seafood, Greek, Vegetarian Friendly",Zorba the Greek Taverna – Café & Restaurant,1.2899946,103.8447985,24
1495,130 Amoy Street#01-01Far East Square Singapore (049959),"Chinese, Zi Char",Zui Yu Xuan Teochew Cuisine,1.2831226,103.8480951,4
